<?xml version="1.0" encoding="UTF-8"?>
<kml xmlns="http://www.opengis.net/kml/2.2" xmlns:gx="http://www.google.com/kml/ext/2.2" xmlns:kml="http://www.opengis.net/kml/2.2" xmlns:atom="http://www.w3.org/2005/Atom">
<Document>
	<name>Line 7.kml</name>
	<open>1</open>
	<Style id="sn_rail1">
		<IconStyle>
			<scale>1.2</scale>
			<Icon>
				<href>http://maps.google.com/mapfiles/kml/shapes/rail.png</href>
			</Icon>
			<hotSpot x="0.5" y="0" xunits="fraction" yunits="fraction"/>
		</IconStyle>
		<LabelStyle>
			<scale>1.3</scale>
		</LabelStyle>
	</Style>
	<Style id="sh_rail0">
		<IconStyle>
			<scale>1.51667</scale>
			<Icon>
				<href>http://maps.google.com/mapfiles/kml/shapes/rail.png</href>
			</Icon>
			<hotSpot x="0.5" y="0" xunits="fraction" yunits="fraction"/>
		</IconStyle>
		<LabelStyle>
			<scale>1.3</scale>
		</LabelStyle>
	</Style>
	<Style id="s_ylw-pushpin0">
		<IconStyle>
			<scale>1.1</scale>
			<Icon>
				<href>http://maps.google.com/mapfiles/kml/pushpin/ylw-pushpin.png</href>
			</Icon>
			<hotSpot x="20" y="2" xunits="pixels" yunits="pixels"/>
		</IconStyle>
		<LineStyle>
			<color>660000ff</color>
			<width>4</width>
		</LineStyle>
		<PolyStyle>
			<color>660000ff</color>
		</PolyStyle>
	</Style>
	<StyleMap id="msn_rail0">
		<Pair>
			<key>normal</key>
			<styleUrl>#sn_rail1</styleUrl>
		</Pair>
		<Pair>
			<key>highlight</key>
			<styleUrl>#sh_rail1</styleUrl>
		</Pair>
	</StyleMap>
	<Style id="sh_rail1">
		<IconStyle>
			<scale>1.4</scale>
			<Icon>
				<href>http://maps.google.com/mapfiles/kml/shapes/rail.png</href>
			</Icon>
			<hotSpot x="0.5" y="0" xunits="fraction" yunits="fraction"/>
		</IconStyle>
		<LabelStyle>
			<scale>1.3</scale>
		</LabelStyle>
	</Style>
	<StyleMap id="msn_rail1">
		<Pair>
			<key>normal</key>
			<styleUrl>#sn_rail0</styleUrl>
		</Pair>
		<Pair>
			<key>highlight</key>
			<styleUrl>#sh_rail0</styleUrl>
		</Pair>
	</StyleMap>
	<Style id="sn_rail0">
		<IconStyle>
			<scale>1.3</scale>
			<Icon>
				<href>http://maps.google.com/mapfiles/kml/shapes/rail.png</href>
			</Icon>
			<hotSpot x="0.5" y="0" xunits="fraction" yunits="fraction"/>
		</IconStyle>
		<LabelStyle>
			<scale>1.3</scale>
		</LabelStyle>
	</Style>
	<Style id="s_ylw-pushpin_hl0">
		<IconStyle>
			<scale>1.3</scale>
			<Icon>
				<href>http://maps.google.com/mapfiles/kml/pushpin/ylw-pushpin.png</href>
			</Icon>
			<hotSpot x="20" y="2" xunits="pixels" yunits="pixels"/>
		</IconStyle>
		<LineStyle>
			<color>660000ff</color>
			<width>4</width>
		</LineStyle>
		<PolyStyle>
			<color>660000ff</color>
		</PolyStyle>
	</Style>
	<StyleMap id="m_ylw-pushpin0">
		<Pair>
			<key>normal</key>
			<styleUrl>#s_ylw-pushpin0</styleUrl>
		</Pair>
		<Pair>
			<key>highlight</key>
			<styleUrl>#s_ylw-pushpin_hl0</styleUrl>
		</Pair>
	</StyleMap>
	<Placemark>
		<styleUrl>#m_ylw-pushpin0</styleUrl>
		<Polygon>
			<outerBoundaryIs>
				<LinearRing>
					<coordinates>
						72.8716736414557,19.2583881875084,0 72.87207360381559,19.2581439533695,0 72.8720093121141,19.2580489911932,0 72.8719450204833,19.2579540290005,0 72.8703380395654,19.2555803925879,0 72.868692395897,19.2531495994287,0 72.8672035577906,19.2510450839238,0 72.86601700531671,19.2493749982016,0 72.86600466015869,19.2493576755,0 72.8659923343848,19.2493403403525,0 72.86598002800911,19.2493229927784,0 72.86596774104559,19.2493056327975,0 72.8659554735078,19.2492882604293,0 72.86594322540989,19.2492708756934,0 72.8659309967656,19.2492534786095,0 72.8659187875887,19.2492360691971,0 72.8659065978929,19.2492186474759,0 72.8658944276921,19.2492012134657,0 72.8658822769998,19.249183767186,0 72.8658701458299,19.2491663086565,0 72.8658630279929,19.2491559714821,0 72.86585592694181,19.2491456238993,0 72.8658488426935,19.2491352659328,0 72.8658417752648,19.2491248976073,0 72.8658347246727,19.2491145189472,0 72.8658276909336,19.2491041299775,0 72.86582067406449,19.2490937307225,0 72.86581367408181,19.2490833212071,0 72.86580669100241,19.2490729014561,0 72.8657997248428,19.2490624714943,0 72.8657927756194,19.2490520313462,0 72.8657858433489,19.2490415810368,0 72.8657353142175,19.2489635578445,0 72.8656861036075,19.2488847781235,0 72.86563822407081,19.2488052619708,0 72.8655916878198,19.2487250296718,0 72.865546506724,19.2486441016941,0 72.8655026923073,19.2485624986828,0 72.86546025574469,19.2484802414555,0 72.86541920786,19.2483973509962,0 72.8653795591222,19.2483138484507,0 72.8653413196439,19.2482297551209,0 72.8653044991776,19.2481450924592,0 72.8652691071142,19.2480598820634,0 72.8652351524798,19.2479741456709,0 72.8652026439343,19.247887905153,0 72.8651715897679,19.2478011825101,0 72.86514199790049,19.2477139998653,0 72.86511387587839,19.2476263794586,0 72.8650872308733,19.2475383436424,0 72.8650620696797,19.2474499148745,0 72.86503839871401,19.2473611157129,0 72.8650162240119,19.2472719688103,0 72.86499555122781,19.247182496908,0 72.8649763856328,19.2470927228302,0 72.86495873211329,19.2470026694779,0 72.8647136174193,19.2454051774016,0 72.8645326411159,19.2442021800689,0 72.86456780876701,19.2441960464289,0 72.8644096709979,19.2431445746388,0 72.86425153454471,19.2420931027939,0 72.86421620374399,19.2420987095,0 72.8637844871413,19.239228880499,0 72.8633299310945,19.23620423802,0 72.86332513421451,19.2361715067166,0 72.8633205768099,19.2361387445549,0 72.8633162591001,19.2361059531155,0 72.86331218129359,19.2360731339804,0 72.8633083435868,19.2360402887333,0 72.8633047461648,19.2360074189586,0 72.863301389201,19.2359745262424,0 72.86329827285719,19.2359416121718,0 72.86329539728369,19.2359086783346,0 72.863292762619,19.2358757263199,0 72.86329036899011,19.2358427577175,0 72.8632882165124,19.2358097741181,0 72.86328694181189,19.2357881090597,0 72.86328578601081,19.2357664379851,0 72.86328474914041,19.2357447614828,0 72.8632838312288,19.2357230801418,0 72.8632830323009,19.235701394551,0 72.86328235237831,19.2356797052995,0 72.86328179147959,19.2356580129766,0 72.8632813496197,19.2356363181714,0 72.8632810268109,19.2356146214734,0 72.8632808230617,19.2355929234718,0 72.8632807383776,19.2355712247563,0 72.8632807727608,19.2355495259163,0 72.8633363466399,19.2355505148542,0 72.86335740295149,19.2344829275721,0 72.8633784558249,19.2334154632744,0 72.8633261104582,19.2334170977219,0 72.86334634060501,19.2308166060365,0 72.8633669223934,19.2281711610387,0 72.8633747802444,19.2278176352088,0 72.8633774580843,19.2277660239704,0 72.86338066717261,19.2277144400766,0 72.86338440720191,19.227662888461,0 72.863388677814,19.2276113740545,0 72.8633934785999,19.2275599017843,0 72.86339880909991,19.2275084765735,0 72.8634046688037,19.2274571033408,0 72.8634110571504,19.2274057869999,0 72.8634179735284,19.227354532459,0 72.86342541727571,19.2273033446206,0 72.86343338768,19.2272522283804,0 72.8634418839782,19.2272011886276,0 72.8634509053574,19.2271502302439,0 72.86346045095419,19.2270993581035,0 72.8634705198551,19.2270485770719,0 72.86348111109651,19.2269978920062,0 72.86349222366521,19.2269473077542,0 72.8635038564975,19.2268968291541,0 72.8635160084806,19.2268464610339,0 72.8635286784515,19.2267962082113,0 72.8635418651981,19.2267460754926,0 72.8635555674586,19.2266960676728,0 72.8635697839221,19.2266461895349,0 72.8635845132282,19.2265964458496,0 72.8635944175272,19.2265645943787,0 72.8636044232417,19.226532771521,0 72.8636145302799,19.2265009775681,0 72.86362473854931,19.226469212811,0 72.86363504795639,19.2264374775404,0 72.86364545840659,19.226405772047,0 72.8636559698048,19.226374096621,0 72.86366658205441,19.2263424515526,0 72.8636772950583,19.2263108371314,0 72.86368810871851,19.2262792536469,0 72.86369902293571,19.2262477013881,0 72.86371003761011,19.2262161806441,0 72.8637300809481,19.2261638411889,0 72.8637497949119,19.22611138898,0 72.8637691787989,19.2260588258878,0 72.86378823191831,19.2260061537863,0 72.8638069535909,19.2259533745537,0 72.8638253431497,19.2259004900717,0 72.8638433999392,19.2258475022261,0 72.8638611233158,19.2257944129062,0 72.863878512648,19.2257412240047,0 72.86389556731589,19.2256879374185,0 72.86391228671189,19.2256345550472,0 72.8639286702402,19.2255810787944,0 72.8641473009549,19.2249459764803,0 72.8641824075156,19.2249567327706,0 72.86452481475349,19.2239483299322,0 72.8648672268093,19.2229398977026,0 72.8648401707664,19.2229314936404,0 72.86554019681201,19.2208995993398,0 72.8662396137797,19.2188676934152,0 72.86631349340441,19.2186550388425,0 72.86635500733669,19.2185394717806,0 72.866427470866,19.2183454433946,0 72.8664679005181,19.2182400558651,0 72.8664971907845,19.2181640172647,0 72.86656531577729,19.2181851377633,0 72.86691577795369,19.2171650319824,0 72.86726630786011,19.2161447135076,0 72.8672151690526,19.2161300661727,0 72.8674934976613,19.2152881994217,0 72.86781279236971,19.2143787544574,0 72.8681321593164,19.213469309401,0 72.8682509018582,19.2131194889893,0 72.8683250759923,19.2128660808002,0 72.86838800988561,19.2126099431278,0 72.86843959308951,19.2123515257003,0 72.8684797350866,19.2120912822472,0 72.8685083654493,19.2118296697017,0 72.868525433963,19.2115671473992,0 72.8685309107141,19.21130417627,0 72.86852478614171,19.2110412180304,0 72.86850707105469,19.2107787343721,0 72.8684777966119,19.2105171861511,0 72.8684370142671,19.2102570325788,0 72.868384795678,19.2099987304161,0 72.8683212325809,19.2097427331707,0 72.8682464366281,19.2094894903013,0 72.8681605391924,19.209239446429,0 72.8680636911358,19.2089930405555,0 72.8679560625441,19.2087507052939,0 72.8678378424281,19.2085128661078,0 72.8677092383919,19.2082799405656,0 72.86757047626691,19.2080523376064,0 72.8674217997166,19.2078304568232,0 72.8672634698073,19.2076146877606,0 72.8670957645504,19.2074054092314,0 72.8669189784133,19.2072029886518,0 72.86544492390171,19.2056740843096,0 72.86422987556929,19.2044182817229,0 72.864255366557,19.2043947150519,0 72.86348160841401,19.2035977008374,0 72.8627078394121,19.202800700891,0 72.86269112888959,19.2028156588423,0 72.8626799234535,19.2028022890026,0 72.86266879828391,19.2027888587995,0 72.86265775374091,19.2027753686681,0 72.8626467901823,19.202761819045,0 72.8626359079629,19.2027482103691,0 72.86262510743541,19.2027345430812,0 72.8626143889492,19.2027208176238,0 72.8626037528515,19.2027070344414,0 72.8625931994869,19.2026931939802,0 72.8625827291968,19.2026792966887,0 72.8625723423206,19.2026653430167,0 72.8625620391944,19.2026513334162,0 72.8625519129544,19.2026373777247,0 72.86254182595491,19.2026233964085,0 72.8625317782676,19.2026093895671,0 72.8625217699641,19.2025953573003,0 72.8625118011157,19.2025812997081,0 72.8625018717934,19.2025672168905,0 72.86249198206789,19.2025531089479,0 72.8624821320096,19.2025389759807,0 72.8624723216886,19.2025248180897,0 72.8624625511749,19.2025106353756,0 72.862452820538,19.2024964279395,0 72.86244312984719,19.2024821958826,0 72.8621867766155,19.202106319267,0 72.86195037648859,19.2017596372561,0 72.86193734683491,19.2017407217014,0 72.86192439094521,19.2017217604718,0 72.8619115089966,19.2017027538269,0 72.8618987011657,19.2016837020268,0 72.8618859676278,19.2016646053326,0 72.86187330855709,19.2016454640055,0 72.861860724127,19.2016262783079,0 72.86184821450971,19.2016070485022,0 72.8618357798766,19.2015877748519,0 72.8618234203978,19.2015684576209,0 72.86181113624259,19.2015490970734,0 72.861798927579,19.201529693475,0 72.8617871171539,19.2015104116868,0 72.86177546246741,19.2014910445564,0 72.86176396420279,19.2014715932189,0 72.86175262303421,19.2014520588147,0 72.861741439626,19.2014324424888,0 72.8617304146341,19.2014127453913,0 72.8617195487045,19.2013929686766,0 72.8617088424742,19.2013731135043,0 72.86169829657079,19.2013531810382,0 72.86168791161229,19.2013331724468,0 72.86167768820749,19.201313088903,0 72.86166762695569,19.2012929315842,0 72.86165349177401,19.2012638543239,0 72.86163967876119,19.2012346376521,0 72.8616261894403,19.2012052847905,0 72.8616130252987,19.2011757989757,0 72.8616001877877,19.2011461834591,0 72.86158767832261,19.2011164415063,0 72.8615754982829,19.2010865763971,0 72.8615636490111,19.2010565914246,0 72.86155213181399,19.2010264898951,0 72.8615409479612,19.2009962751279,0 72.86153009868571,19.2009659504548,0 72.8615195851837,19.2009355192195,0 72.8615054493247,19.20089278183,0 72.8614912715484,19.200850056976,0 72.8614770518674,19.200807344695,0 72.8614627902939,19.2007646450238,0 72.8614484868404,19.2007219579996,0 72.8614341415194,19.2006792836596,0 72.8614197543433,19.2006366220407,0 72.8614053253248,19.20059397318,0 72.8613908544762,19.2005513371145,0 72.8613763418104,19.2005087138814,0 72.8613617873397,19.2004661035175,0 72.8613471910771,19.20042350606,0 72.86133450171749,19.2003878056897,0 72.86132175571051,19.2003521235392,0 72.8613089530853,19.2003164596897,0 72.86129609387091,19.2002808142222,0 72.8612831780966,19.2002451872178,0 72.8612702057919,19.2002095787575,0 72.8612571769861,19.2001739889222,0 72.8612440917091,19.2001384177929,0 72.8612309499906,19.2001028654505,0 72.86121775186049,19.2000673319758,0 72.86120449734889,19.2000318174497,0 72.861191186486,19.1999963219528,0 72.861184798425,19.1999791029038,0 72.861178477747,19.1999618614252,0 72.8611722245391,19.1999445977551,0 72.8611660388877,19.1999273121317,0 72.86115992087809,19.1999100047937,0 72.86115387059461,19.1998926759799,0 72.8611478881208,19.1998753259297,0 72.8611419735394,19.1998579548824,0 72.8611361269318,19.1998405630779,0 72.86113034837869,19.1998231507562,0 72.8611246379601,19.1998057181578,0 72.8611189957545,19.1997882655232,0 72.861116362902,19.1997799055917,0 72.8611137547023,19.1997715386882,0 72.86111117117581,19.1997631648781,0 72.8611086123427,19.1997547842271,0 72.8611060782232,19.1997463968011,0 72.86110356883719,19.1997380026658,0 72.86110108420419,19.199729601887,0 72.8610986243437,19.1997211945306,0 72.8610961892752,19.1997127806626,0 72.86109377901759,19.1997043603488,0 72.8610913935899,19.1996959336554,0 72.8610890330107,19.1996875006485,0 72.8610866972987,19.1996790613941,0 72.861084386472,19.1996706159585,0 72.8610821005487,19.1996621644079,0 72.8610798395469,19.1996537068085,0 72.8610776034843,19.1996452432268,0 72.8610753923783,19.199636773729,0 72.8610732062464,19.1996282983817,0 72.8610710451056,19.1996198172512,0 72.8610689089729,19.1996113304041,0 72.86106679786521,19.199602837907,0 72.8610647117987,19.1995943398264,0 72.8610626507902,19.199585836229,0 72.8610520997925,19.1995403821905,0 72.8610519361295,19.1995393052945,0 72.8610517647101,19.1995382294884,0 72.8610515855424,19.1995371548223,0 72.861051398635,19.1995360813467,0 72.8610512039965,19.199535009112,0 72.861051001636,19.1995339381684,0 72.861050791563,19.1995328685661,0 72.8610505737874,19.1995318003551,0 72.8610503483194,19.1995307335856,0 72.86105011516951,19.1995296683077,0 72.86104987434869,19.1995286045711,0 72.8610496258683,19.1995275424259,0 72.8610793384223,19.1995223750819,0 72.8608782189115,19.1984774446485,0 72.8606771012593,19.1974325141296,0 72.86065196924371,19.197437024126,0 72.8606510198495,19.1974324425589,0 72.8606500853189,19.1974278582343,0 72.8606491656608,19.1974232711958,0 72.86064826088391,19.1974186814867,0 72.8606473709968,19.1974140891508,0 72.860646496008,19.1974094942315,0 72.86064563592571,19.1974048967727,0 72.8606447907582,19.1974002968179,0 72.8606439605134,19.1973956944106,0 72.86064314519911,19.1973910895948,0 72.8606423448233,19.1973864824139,0 72.8606415593936,19.197381872912,0 72.86063998135511,19.1973726085802,0 72.8606383730657,19.1973633489452,0 72.8606367345409,19.1973540940962,0 72.8606350657963,19.1973448441223,0 72.86063336684831,19.1973355991126,0 72.860631637713,19.1973263591561,0 72.860629878407,19.1973171243418,0 72.86062808894749,19.1973078947586,0 72.8606262693515,19.1972986704954,0 72.86062441963681,19.1972894516409,0 72.8606225398208,19.197280238284,0 72.8606206299221,19.1972710305134,0 72.8606177689866,19.1972570746765,0 72.86061494061281,19.19724311285,0 72.8606121448147,19.1972291451026,0 72.8606093816058,19.1972151715028,0 72.8606066509998,19.1972011921192,0 72.8606039530101,19.1971872070206,0 72.8606012876499,19.1971732162756,0 72.8605986549323,19.1971592199529,0 72.8605960548701,19.1971452181213,0 72.86059348747639,19.1971312108496,0 72.8605909527635,19.1971171982064,0 72.86058845074381,19.1971031802608,0 72.8605840569476,19.1970807851098,0 72.8605796339571,19.1970583951467,0 72.8605751817791,19.1970360104059,0 72.8605707004206,19.1970136309218,0 72.8605661898882,19.1969912567286,0 72.860561650189,19.1969688878607,0 72.8605570813301,19.1969465243525,0 72.8605524833183,19.1969241662382,0 72.86054785616069,19.1969018135522,0 72.8605431998645,19.1968794663286,0 72.8605385144369,19.1968571246019,0 72.86053379988491,19.1968347884064,0 72.86048570127061,19.1966124033207,0 72.8603055152861,19.1957879918221,0 72.86012533067711,19.1949635802512,0 72.8601199926737,19.19493923228,0 72.8601146230518,19.1949148905856,0 72.8601092218193,19.1948905552049,0 72.8601037889847,19.1948662261751,0 72.86009832455601,19.1948419035332,0 72.8600928285417,19.1948175873162,0 72.8600873009501,19.1947932775612,0 72.8600817417897,19.1947689743053,0 72.860076151069,19.1947446775853,0 72.8600705287964,19.1947203874383,0 72.8600648749805,19.1946961039013,0 72.86005918963021,19.1946718270112,0 72.8600421033659,19.1946029371048,0 72.8600241232805,19.1945342528501,0 72.8600052521154,19.1944657847152,0 72.8599854927476,19.1943975431348,0 72.8599648481899,19.1943295385093,0 72.8599433215898,19.1942617812029,0 72.8599209162289,19.1941942815421,0 72.8598976355231,19.1941270498143,0 72.8598734830217,19.1940600962658,0 72.8598484624066,19.1939934311005,0 72.859822577492,19.1939270644783,0 72.85979583222419,19.1938610065141,0 72.8597705302663,19.1938006525766,0 72.8597445103912,19.1937405748056,0 72.85971777593841,19.1936807809092,0 72.85969033033901,19.1936212785595,0 72.859662177115,19.1935620753909,0 72.85963331987951,19.1935031789997,0 72.85960376233599,19.1934445969424,0 72.85957350827751,19.1933863367355,0 72.85954256158669,19.1933284058542,0 72.85951092623471,19.1932708117313,0 72.8594786062815,19.1932135617563,0 72.8594456058747,19.1931566632748,0 72.8594296710512,19.1931299724177,0 72.85941365949159,19.193103323048,0 72.8593975713157,19.1930767153648,0 72.85938140664361,19.1930501495669,0 72.8593651655963,19.193023625853,0 72.859348848295,19.192997144421,0 72.8593324548619,19.1929707054692,0 72.8593159854195,19.1929443091948,0 72.85929944009079,19.1929179557952,0 72.8592828189994,19.1928916454675,0 72.8592661222699,19.1928653784082,0 72.8592493500269,19.1928391548135,0 72.8592286808007,19.1928076255485,0 72.8592081023527,19.1927760427309,0 72.8591876148365,19.1927444065969,0 72.85916721840501,19.1927127173825,0 72.85914691321079,19.1926809753245,0 72.85912669940529,19.1926491806601,0 72.8591065771393,19.1926173336267,0 72.8590865465633,19.1925854344623,0 72.8590666078269,19.192553483405,0 72.8590467610788,19.1925214806937,0 72.8590270064672,19.1924894265672,0 72.8590073441397,19.1924573212652,0 72.8589876818194,19.1924252159616,0 72.8589679272295,19.1923931618307,0 72.85894808051761,19.1923611591119,0 72.8589281418318,19.192329208044,0 72.8589081113213,19.1922973088659,0 72.8588879891357,19.1922654618156,0 72.8588677754252,19.192233667131,0 72.85884747034081,19.1922019250495,0 72.85882707403449,19.1921702358083,0 72.8588065866583,19.192138599644,0 72.8587860083656,19.1921070167928,0 72.8587653393099,19.1920754874906,0 72.8587489888907,19.192050223066,0 72.85873280001481,19.1920248649105,0 72.858716773277,19.1919994139566,0 72.8587009092667,19.1919738711402,0 72.8586852085672,19.1919482374003,0 72.85866967175539,19.1919225136795,0 72.8586542994028,19.1918967009235,0 72.8586390920743,19.1918708000816,0 72.858624050329,19.1918448121059,0 72.8586091747201,19.1918187379522,0 72.8585944657942,19.1917925785789,0 72.8585799240921,19.1917663349481,0 72.85856607842599,19.1917403539897,0 72.8585527145116,19.1917141463027,0 72.8585398364603,19.1916877199498,0 72.8585274482338,19.1916610830612,0 72.858515553643,19.1916342438317,0 72.858504156347,19.1916072105185,0 72.8584932598521,19.1915799914384,0 72.85848286751011,19.1915525949652,0 72.85847298251819,19.1915250295275,0 72.8584636079171,19.1914973036059,0 72.8584547465907,19.1914694257301,0 72.8584464012647,19.1914414044769,0 72.8584410257812,19.1914222976407,0 72.8584358834602,19.1914031329618,0 72.8584309749908,19.1913839130087,0 72.85842630103061,19.191364640357,0 72.8584218622062,19.1913453175896,0 72.85841765911201,19.1913259472959,0 72.8584136923115,19.1913065320721,0 72.8584099623361,19.1912870745197,0 72.85840646968551,19.1912675772465,0 72.8584032148278,19.1912480428655,0 72.85840019819901,19.1912284739943,0 72.8583974202034,19.1912088732557,0 72.8583944623667,19.1911835546611,0 72.8583917618479,19.191158210124,0 72.8583893188984,19.1911328420052,0 72.8583871337456,19.1911074526674,0 72.858385206593,19.1910820444755,0 72.85838353762,19.1910566197961,0 72.8583821269817,19.1910311809973,0 72.85838097480961,19.1910057304485,0 72.8583800812109,19.1909802705202,0 72.8583794462685,19.1909548035838,0 72.85837907004181,19.1909293320113,0 72.8583789525653,19.1909038581754,0 72.8583788600445,19.1908903361406,0 72.8583787846455,19.1908768140098,0 72.8583787263682,19.1908632918027,0 72.8583786852128,19.1908497695386,0 72.8583786611791,19.1908362472373,0 72.8583786542674,19.1908227249183,0 72.8583786644776,19.1908092026011,0 72.85837869180961,19.1907956803055,0 72.8583787362636,19.1907821580508,0 72.85837879783929,19.1907686358567,0 72.85837887653661,19.1907551137427,0 72.8583789723556,19.1907415917284,0 72.8583787704514,19.1907247976905,0 72.8583786210651,19.1907080031568,0 72.8583785241981,19.1906912082754,0 72.8583784798509,19.1906744131948,0 72.8583784880242,19.190657618063,0 72.8583785487178,19.1906408230284,0 72.8583786619311,19.1906240282392,0 72.8583788276631,19.1906072338437,0 72.8583790459124,19.1905904399902,0 72.858379316677,19.1905736468268,0 72.85837963995451,19.1905568545018,0 72.8583800157419,19.1905400631635,0 72.858397292866,19.1896483317645,0 72.8584145692881,19.1887566002653,0 72.8583951726763,19.1887563737493,0 72.85839687294239,19.1887182706064,0 72.85839859907151,19.188680168513,0 72.8584003510627,19.188642067485,0 72.8584021289152,19.1886039675384,0 72.85840393262841,19.1885658686888,0 72.8584057622015,19.1885277709522,0 72.8584076176337,19.1884896743443,0 72.8584094989243,19.1884515788812,0 72.85841140607231,19.1884134845785,0 72.8584133390771,19.1883753914523,0 72.8584152979378,19.1883372995181,0 72.85841728265341,19.188299208792,0 72.8584197608934,19.188253131907,0 72.8584220961074,19.1882070482782,0 72.8584242882755,19.1881609583065,0 72.8584263373785,19.1881148623927,0 72.85842824339881,19.1880687609376,0 72.85843000632001,19.1880226543422,0 72.8584316261267,19.1879765430075,0 72.85843310280529,19.1879304273345,0 72.85843443634261,19.1878843077242,0 72.8584356267275,19.1878381845777,0 72.8584366739496,19.1877920582963,0 72.85843757799989,19.1877459292809,0 72.8584399079361,19.1875898100388,0 72.85848448425919,19.1833295821026,0 72.8584851561549,19.1826289481883,0 72.8584836006967,19.182354045076,0 72.8584779063394,19.1821733580341,0 72.858466354204,19.1819756038033,0 72.85846166125189,19.1819193936861,0 72.8584569300357,19.181863186465,0 72.85845216055721,19.1818069821632,0 72.8584473528186,19.1817507808045,0 72.858442506822,19.1816945824121,0 72.8584376225692,19.1816383870098,0 72.85843270006249,19.181582194621,0 72.85842773930411,19.1815260052692,0 72.85842274029579,19.1814698189779,0 72.85841770303991,19.1814136357707,0 72.8584126275386,19.1813574556711,0 72.85840751379391,19.1813012787024,0 72.8584048984375,19.1812720091997,0 72.8584024102975,19.1812427296858,0 72.8584000494164,19.1812134406598,0 72.85839781583429,19.1811841426211,0 72.8583957095893,19.1811548360693,0 72.8583937307172,19.1811255215039,0 72.8583918792517,19.1810961994247,0 72.8583901552243,19.1810668703317,0 72.8583885586642,19.1810375347248,0 72.85838708959869,19.1810081931042,0 72.8583857480526,19.1809788459702,0 72.85838453404899,19.180949493823,0 72.8583839168805,19.1809308083085,0 72.8583833628586,19.1809121210074,0 72.85838287198889,19.1808934321123,0 72.8583824442765,19.180874741816,0 72.8583820797258,19.1808560503111,0 72.8583817783405,19.1808373577902,0 72.8583815401238,19.1808186644464,0 72.858381365078,19.180799970472,0 72.8583812532049,19.1807812760599,0 72.85838120450551,19.1807625814029,0 72.8583812189807,19.1807438866936,0 72.8583812966299,19.1807251921248,0 72.85843783111299,19.1807254876773,0 72.85845192778871,19.1796652510955,0 72.8584660235548,19.1786050143812,0 72.8584206278514,19.1786041333517,0 72.85842123237219,19.1785823741132,0 72.8584219285009,19.1785606173467,0 72.8584227162263,19.1785388634004,0 72.8584235955358,19.1785171126224,0 72.8584245664153,19.1784953653608,0 72.8584256288492,19.1784736219638,0 72.8584267828205,19.1784518827792,0 72.8584280283107,19.178430148155,0 72.8584293652997,19.178408418439,0 72.8584307937662,19.178386693979,0 72.8584323136873,19.1783649751228,0 72.8584339250386,19.1783432622178,0 72.8584363760868,19.1783143311883,0 72.8584390878935,19.1782854211725,0 72.85844206025919,19.1782565342921,0 72.858445292966,19.1782276726675,0 72.8584487857763,19.1781988384167,0 72.8584525384335,19.1781700336562,0 72.8584565506622,19.1781412605,0 72.8584608221678,19.17811252106,0 72.8584653526366,19.1780838174456,0 72.85847014173601,19.1780551517633,0 72.8584751891142,19.1780265261171,0 72.85848049440079,19.177997942608,0 72.8584854621011,19.1779723935605,0 72.8584906359154,19.1779468814731,0 72.8584960155397,19.177921407847,0 72.85850160065699,19.1778959741813,0 72.8585073909386,19.1778705819725,0 72.8585133860437,19.1778452327149,0 72.8585195856196,19.1778199279,0 72.8585259893012,19.177794669017,0 72.8585325967116,19.177769457552,0 72.8585394074621,19.1777442949887,0 72.8585464211516,19.1777191828078,0 72.85855363736751,19.1776941224869,0 72.8585611729671,19.1776691488216,0 72.85856883855951,19.1776442109009,0 72.858576633957,19.1776193093359,0 72.8585845589683,19.1775944447365,0 72.8585926133995,19.1775696177119,0 72.8586007970531,19.1775448288701,0 72.8586091097286,19.1775200788185,0 72.8586175512224,19.1774953681634,0 72.8586261213275,19.1774706975101,0 72.8586348198339,19.1774460674629,0 72.85864364652861,19.1774214786253,0 72.8586526011952,19.1773969315995,0 72.85866565374261,19.1773623193442,0 72.85867867094581,19.1773276950741,0 72.858691652793,19.1772930588218,0 72.8587045992716,19.17725841062,0 72.8587175103695,19.1772237505011,0 72.8587303860749,19.1771890784979,0 72.8587432263753,19.177154394643,0 72.85875603125881,19.1771196989689,0 72.85876880071341,19.1770849915083,0 72.8587815347271,19.177050272294,0 72.8587942332879,19.1770155413586,0 72.858806896384,19.1769807987348,0 72.85882084212039,19.1769439130627,0 72.8588346992244,19.1769069972448,0 72.8588484676239,19.1768700514735,0 72.85886214724719,19.176833075941,0 72.8588757380232,19.1767960708401,0 72.85888923988109,19.1767590363635,0 72.8589026527506,19.176721972704,0 72.8589159765619,19.1766848800547,0 72.8589292112456,19.1766477586088,0 72.858942356733,19.1766106085596,0 72.8589554129556,19.1765734301007,0 72.85896837984539,19.1765362234258,0 72.8589853054655,19.1764847521393,0 72.8590018784535,19.1764331773541,0 72.85901809810871,19.1763815012513,0 72.8590339637455,19.1763297260164,0 72.85904947469319,19.1762778538389,0 72.8590646302962,19.1762258869126,0 72.85907942991381,19.1761738274354,0 72.8590938729206,19.1761216776089,0 72.85910795870601,19.1760694396385,0 72.8591216866745,19.1760171157333,0 72.859135056246,19.1759647081064,0 72.8591480668554,19.175912218974,0 72.85916051500171,19.1758646824092,0 72.85917288515419,19.175817127466,0 72.8591851772829,19.1757695542599,0 72.859197391358,19.1757219629064,0 72.8592095273499,19.1756743535212,0 72.85922158522909,19.17562672622,0 72.8592335649665,19.1755790811184,0 72.8592454665329,19.1755314183322,0 72.8592572898996,19.1754837379772,0 72.8592690350378,19.1754360401692,0 72.8592807019193,19.1753883250242,0 72.8592922905155,19.1753405926579,0 72.8593054931543,19.1752816894686,0 72.85931794513181,19.1752226388702,0 72.85932964462749,19.1751634494993,0 72.85934058993119,19.1751041300133,0 72.85935077944271,19.1750446890885,0 72.8593602116725,19.1749851354187,0 72.85936888524159,19.1749254777144,0 72.85937679888249,19.1748657247012,0 72.8593839514384,19.1748058851189,0 72.859390341864,19.1747459677195,0 72.8593959692255,19.1746859812668,0 72.8594008327006,19.1746259345343,0 72.85940443829379,19.1745736204678,0 72.8594074626437,19.1745212731571,0 72.8594099054139,19.1744688984327,0 72.8594117663328,19.1744165021284,0 72.8594130451939,19.1743640900803,0 72.85941374185511,19.1743116681261,0 72.8594138562394,19.1742592421051,0 72.8594133883346,19.1742068178562,0 72.8594123381933,19.174154401219,0 72.8594107059332,19.1741019980316,0 72.8594084917366,19.174049614131,0 72.8594056958506,19.1739972553516,0 72.8594033319463,19.1739626963017,0 72.8594008397408,19.1739281453915,0 72.8593982192655,19.1738936030511,0 72.859395470553,19.1738590697104,0 72.8593925936374,19.1738245457994,0 72.85938958855481,19.1737900317478,0 72.8593864553427,19.173755527985,0 72.85938319404001,19.1737210349406,0 72.85937980468751,19.1736865530441,0 72.85937628732751,19.1736520827245,0 72.85937264200381,19.1736176244109,0 72.85936886876181,19.1735831785323,0 72.8592945826226,19.1728705118212,0 72.8592830827056,19.1727647875162,0 72.85927177162,19.17265904482,0 72.8592606493979,19.172553284037,0 72.8592497160713,19.172447505472,0 72.85923897167091,19.1723417094293,0 72.85922841622769,19.1722358962138,0 72.8592180497714,19.1721300661301,0 72.8592078723315,19.1720242194828,0 72.8591978839372,19.171918356577,0 72.8591880846167,19.1718124777173,0 72.85917847439789,19.1717065832086,0 72.85916905330799,19.1716006733558,0 72.8591572373643,19.1714070514582,0 72.85914386780181,19.171213520815,0 72.8591289454038,19.1710200926823,0 72.8591124710435,19.1708267783102,0 72.8590944456847,19.1706335889419,0 72.85907487038109,19.1704405358137,0 72.8590537462768,19.1702476301536,0 72.8590310746057,19.1700548831812,0 72.85900685669211,19.1698623061067,0 72.85898109394969,19.1696699101304,0 72.8589537878826,19.1694777064421,0 72.85892494008419,19.1692857062203,0 72.858804801126,19.1683684801864,0 72.8588466665295,19.1683636538909,0 72.858714238283,19.1673143185435,0 72.85858181101069,19.1662649831519,0 72.8585300877474,19.1662711004727,0 72.8582456645251,19.1640995545509,0 72.85796153586151,19.1619302234757,0 72.8578312176472,19.1608046965788,0 72.8577321490034,19.1599260619603,0 72.857681824732,19.159557032311,0 72.8575247886314,19.1584573516223,0 72.8573677538449,19.1573576708792,0 72.8572647674812,19.15667333312,0 72.8570776269714,19.1555025328802,0 72.8569011937316,19.1543987596533,0 72.85689511985299,19.1543604866476,0 72.8568891322897,19.1543222013611,0 72.8568832310692,19.1542839039696,0 72.8568774162185,19.1542455946488,0 72.8568716877641,19.1542072735749,0 72.8568660457325,19.1541689409236,0 72.8568604901493,19.1541305968711,0 72.85685502104001,19.1540922415934,0 72.85684963842979,19.1540538752665,0 72.85684434234329,19.1540154980667,0 72.8568391328046,19.1539771101703,0 72.8568340098378,19.1539387117533,0 72.8568305154097,19.1539118927912,0 72.8568271252519,19.1538850617452,0 72.8568238394104,19.1538582189813,0 72.8568206579301,19.153831364866,0 72.8568175808542,19.1538044997655,0 72.8568146082248,19.1537776240465,0 72.85681174008241,19.1537507380757,0 72.856808976466,19.1537238422199,0 72.8568063174132,19.1536969368463,0 72.8568037629604,19.1536700223217,0 72.8568013131423,19.1536430990136,0 72.8567989679923,19.1536161672893,0 72.8567975753819,19.1535998963041,0 72.8567961676582,19.1535836264935,0 72.8567947448222,19.1535673578701,0 72.8567933068752,19.1535510904467,0 72.85679185381829,19.1535348242359,0 72.8567903856524,19.1535185592504,0 72.856788902379,19.1535022955028,0 72.85678740399911,19.1534860330059,0 72.85678589051371,19.1534697717723,0 72.8567843619244,19.1534535118146,0 72.85678281823191,19.1534372531456,0 72.8567812594377,19.153420995778,0 72.8567762806431,19.1533655006487,0 72.8567979940471,19.1533637561822,0 72.85670422374029,19.1523096714293,0 72.8566104652577,19.1512557141943,0 72.85658716963491,19.1512576017285,0 72.8565079730994,19.1503748423296,0 72.8564237657652,19.1494363424247,0 72.8563950629683,19.1491425159494,0 72.8563549876705,19.1488072907321,0 72.85635181524241,19.148780881677,0 72.8563486126115,19.1487544759146,0 72.8563453797816,19.148728073476,0 72.85634211675669,19.1487016743924,0 72.8563388235404,19.1486752786952,0 72.85633550013679,19.1486488864153,0 72.8563321465498,19.1486224975841,0 72.85632876278341,19.1485961122327,0 72.85632534884149,19.1485697303922,0 72.85632190472811,19.148543352094,0 72.8563184304476,19.1485169773689,0 72.85631492600381,19.1484906062484,0 72.85631185164201,19.1484673465832,0 72.8563088365776,19.1484440799085,0 72.8563058808284,19.1484208063611,0 72.8563029844116,19.1483975260772,0 72.8563001473443,19.1483742391936,0 72.8562973696431,19.1483509458471,0 72.85629465132411,19.1483276461742,0 72.8562919924035,19.1483043403116,0 72.8562893928966,19.1482810283961,0 72.8562868528189,19.1482577105646,0 72.8562843721851,19.1482343869539,0 72.85628195100981,19.1482110577007,0 72.8562794745949,19.1481865742142,0 72.85627706366741,19.148162084825,0 72.8562747182431,19.1481375896914,0 72.8562724383368,19.1481130889717,0 72.85627022396341,19.1480885828239,0 72.8562680751371,19.1480640714066,0 72.85626599187189,19.148039554878,0 72.85626397418081,19.1480150333964,0 72.8562620220773,19.1479905071204,0 72.85626013557371,19.1479659762084,0 72.85625831468229,19.1479414408187,0 72.8562565594147,19.1479169011099,0 72.8562561998226,19.1479121820971,0 72.85625578374599,19.1479074672788,0 72.8562553112389,19.1479027572657,0 72.8562547823625,19.1478980526679,0 72.85625419718519,19.1478933540944,0 72.856253555783,19.147888662154,0 72.8562528582388,19.1478839774543,0 72.85625210464301,19.1478793006019,0 72.8562512950931,19.1478746322025,0 72.8562504296942,19.1478699728608,0 72.85624950855809,19.1478653231801,0 72.8562485318043,19.1478606837627,0 72.8561648348033,19.1469144630375,0 72.8560811381801,19.1459682422767,0 72.8560750298671,19.145891931927,0 72.85606814538821,19.1458156812803,0 72.8560604853885,19.145739497467,0 72.85605205058531,19.1456633876109,0 72.8560428417684,19.1455873588292,0 72.8560328598,19.1455114182312,0 72.8560221056146,19.1454355729181,0 72.85601058021891,19.1453598299823,0 72.85599828469159,19.1452841965064,0 72.8559852201838,19.1452086795627,0 72.8559713879179,19.1451332862129,0 72.8559567891886,19.1450580235068,0 72.8559447951862,19.1449997342992,0 72.85593231753219,19.1449415368641,0 72.8559193570044,19.1448834348262,0 72.8559059144104,19.1448254318041,0 72.85589199058811,19.1447675314104,0 72.855877586405,19.1447097372513,0 72.8558627027588,19.1446520529261,0 72.8558473405771,19.1445944820278,0 72.8558315008171,19.1445370281416,0 72.8558151844659,19.1444796948459,0 72.8557983925401,19.1444224857117,0 72.855781126086,19.1443654043019,0 72.8557707242155,19.1443322777148,0 72.8557603059627,19.1442991557788,0 72.85574987132971,19.1442660385011,0 72.8557394203189,19.144232925889,0 72.85572895293269,19.1441998179497,0 72.8557184691733,19.1441667146907,0 72.855707969043,19.1441336161192,0 72.85569745254431,19.1441005222427,0 72.8556869196795,19.1440674330683,0 72.85567637045079,19.1440343486034,0 72.85566580486071,19.1440012688552,0 72.8556552229114,19.1439681938312,0 72.855591440853,19.1437679908578,0 72.8556284983659,19.1437557131818,0 72.8553006756909,19.1427482632235,0 72.8549728564025,19.1417408129649,0 72.8549486607411,19.1417467133885,0 72.8549440062173,19.141731255507,0 72.8549394172139,19.1417157799411,0 72.85493489380561,19.1417002869417,0 72.8549304360656,19.1416847767599,0 72.85492604406601,19.1416692496471,0 72.8549217178781,19.1416537058549,0 72.8549174575719,19.1416381456354,0 72.8549132632166,19.1416225692407,0 72.8549091348801,19.1416069769234,0 72.85490507262909,19.1415913689361,0 72.8549010765298,19.1415757455318,0 72.85489714664671,19.1415601069638,0 72.85489068510741,19.1415332543772,0 72.85488448899289,19.1415063453453,0 72.8548785588488,19.1414793822378,0 72.8548728951971,19.141452367429,0 72.85486749853661,19.1414253032982,0 72.8548623693423,19.1413981922287,0 72.85485750806561,19.1413710366077,0 72.8548529151348,19.1413438388268,0 72.85484859095401,19.1413166012811,0 72.85484453590389,19.1412893263692,0 72.8548407503414,19.1412620164931,0 72.8548372345999,19.1412346740576,0 72.8548339889888,19.1412073014706,0 72.8548310137937,19.1411799011427,0 72.8548283092766,19.1411524754866,0 72.8548258756754,19.1411250269178,0 72.8548237132043,19.1410975578533,0 72.85482182205369,19.141070070712,0 72.8548202023899,19.1410425679147,0 72.8548188543554,19.1410150518832,0 72.85481777806881,19.1409875250406,0 72.85481697362481,19.1409599898112,0 72.8548164410941,19.1409324486195,0 72.8548161805233,19.1409049038911,0 72.85481625253129,19.140883348758,0 72.85481643267811,19.1408617941963,0 72.85481672095951,19.1408402406959,0 72.8548171173691,19.1408186887467,0 72.8548176218976,19.1407971388388,0 72.8548182345336,19.140775591462,0 72.8548189552631,19.1407540471064,0 72.8548197840697,19.1407325062616,0 72.8548207209346,19.1407109694174,0 72.85482176583621,19.1406894370634,0 72.8548229187511,19.140667909689,0 72.8548241796527,19.1406463877838,0 72.8548830986238,19.1397118069094,0 72.8549338798644,19.1389108336329,0 72.8549441339991,19.1387544159624,0 72.8549451476828,19.1387397681921,0 72.8549461881357,19.1387251221174,0 72.8549472553544,19.1387104777824,0 72.8549483493357,19.1386958352312,0 72.85494947007641,19.1386811945082,0 72.8549506175731,19.1386665556573,0 72.8549517918222,19.1386519187229,0 72.8549529928203,19.138637283749,0 72.8549542205638,19.1386226507799,0 72.8549554750487,19.1386080198596,0 72.85495675627151,19.1385933910323,0 72.8549580642283,19.1385787643422,0 72.85495970637901,19.1385610245163,0 72.85496140762071,19.1385432897209,0 72.8549631679364,19.1385255601338,0 72.85496498730809,19.1385078359327,0 72.8549668657178,19.1384901172953,0 72.85496880314661,19.1384724043993,0 72.854970799575,19.1384546974221,0 72.854972854983,19.1384369965415,0 72.8549749693502,19.1384193019347,0 72.8549771426549,19.1384016137791,0 72.8549793748757,19.1383839322522,0 72.8549816659901,19.1383662575311,0 72.8549840091503,19.1383485889743,0 72.8549864111599,19.1383309275572,0 72.85498887199471,19.1383132734566,0 72.85499139163009,19.1382956268496,0 72.85499397004089,19.1382779879133,0 72.8549966072011,19.1382603568242,0 72.8549993030843,19.1382427337592,0 72.8550020576634,19.1382251188951,0 72.8550048709108,19.1382075124082,0 72.85500774279831,19.1381899144753,0 72.8550106732971,19.1381723252726,0 72.8550136623778,19.1381547449766,0 72.855017798353,19.1381310931153,0 72.8550219921643,19.1381074504552,0 72.855026243789,19.1380838171242,0 72.855030553204,19.1380601932497,0 72.8550349203861,19.1380365789596,0 72.8550393453116,19.1380129743816,0 72.85504382795671,19.1379893796429,0 72.85504836829701,19.1379657948711,0 72.85505296630799,19.1379422201938,0 72.8550576219649,19.1379186557383,0 72.85506233524249,19.1378951016318,0 72.8550671061151,19.1378715580017,0 72.8550736248325,19.1378396891868,0 72.85508006955639,19.1378078067808,0 72.85508644025541,19.137775910939,0 72.8550927368987,19.1377440018166,0 72.8550989594556,19.1377120795688,0 72.8551051078957,19.1376801443512,0 72.8551111821894,19.1376481963192,0 72.8551171823071,19.1376162356282,0 72.8551231082194,19.1375842624338,0 72.8551289598979,19.1375522768915,0 72.85513473731371,19.1375202791572,0 72.8551404404391,19.1374882693866,0 72.8551476963306,19.1374451079442,0 72.8551546351208,19.1374018994268,0 72.855161256472,19.1373586459386,0 72.8551675600618,19.1373153495864,0 72.8551735455837,19.1372720124786,0 72.85517921274619,19.1372286367261,0 72.8551845612736,19.1371852244411,0 72.8551895909058,19.1371417777381,0 72.8551943013979,19.1370982987331,0 72.8551986925209,19.1370547895434,0 72.85520276406101,19.1370112522882,0 72.8552065158203,19.1369676890879,0 72.8552078915687,19.1369503891133,0 72.8552092315003,19.1369330865997,0 72.8552105356101,19.1369157816137,0 72.8552118038929,19.1368984742226,0 72.8552130363439,19.1368811644933,0 72.8552142329582,19.1368638524927,0 72.8552153937313,19.1368465382879,0 72.85521651865881,19.136829221946,0 72.85521760773619,19.136811903534,0 72.8552186609593,19.1367945831189,0 72.8552196783241,19.1367772607678,0 72.8552206598266,19.1367599365478,0 72.8552214032772,19.1367466713865,0 72.8552221398963,19.136733405881,0 72.8552228696837,19.1367201400345,0 72.85522359263911,19.1367068738499,0 72.8552243087625,19.1366936073307,0 72.8552250180536,19.1366803404798,0 72.85522572051239,19.1366670733006,0 72.85522641613861,19.1366538057962,0 72.855227104932,19.1366405379698,0 72.8552277868926,19.1366272698244,0 72.85522846201999,19.1366140013634,0 72.8552291303143,19.1366007325899,0 72.8553299245749,19.1346269294997,0 72.855433303978,19.1326022538495,0 72.8555051264872,19.1297961499423,0 72.85555171496971,19.1276986362329,0 72.85555833779939,19.1274714168427,0 72.85556030058019,19.1274168950826,0 72.8555634500251,19.127362423605,0 72.855567784784,19.1273080257403,0 72.85557330299911,19.1272537247874,0 72.855580002306,19.1271995440034,0 72.85558787983401,19.1271455065941,0 72.855596932208,19.1270916357038,0 72.85560715554991,19.1270379544055,0 72.8556185454799,19.126984485691,0 72.85563109711841,19.126931252461,0 72.8556448050887,19.1268782775153,0 72.8556596635184,19.126825583543,0 72.8556727094747,19.1267832982566,0 72.85568653658029,19.1267412378108,0 72.8557011405493,19.126699415241,0 72.8557165168549,19.1266578435091,0 72.85573266073121,19.1266165354992,0 72.8557495671742,19.1265755040135,0 72.8557672309437,19.1265347617687,0 72.8557856465648,19.1264943213916,0 72.8558048083295,19.1264541954158,0 72.85582471029861,19.1264143962771,0 72.8558453463037,19.1263749363102,0 72.8558667099487,19.1263358277447,0 72.8558806552571,19.1263111091733,0 72.85589470481131,19.1262864439904,0 72.85590885838501,19.126261832593,0 72.8559231157502,19.1262372753775,0 72.8559374766773,19.1262127727394,0 72.855951940935,19.126188325073,0 72.85596650829039,19.1261639327724,0 72.8559811785089,19.12613959623,0 72.8559959513541,19.126115315838,0 72.8560108265881,19.1260910919871,0 72.85602580397141,19.1260669250676,0 72.85604088326269,19.1260428154686,0 72.85606584307089,19.1260025595299,0 72.85609078263229,19.1259622922588,0 72.85611570194141,19.1259220136644,0 72.85614060099221,19.1258817237558,0 72.85616547977941,19.1258414225424,0 72.8561903382971,19.1258011100333,0 72.85621517653981,19.1257607862377,0 72.85623999450171,19.1257204511647,0 72.8562647921772,19.1256801048238,0 72.8562895695605,19.125639747224,0 72.8563143266462,19.1255993783746,0 72.85633906342851,19.1255589982848,0 72.8563535271597,19.1255350884901,0 72.85636783315211,19.1255110931139,0 72.8563819808454,19.1254870130964,0 72.8563959696853,19.1254628493809,0 72.8564097991239,19.1254386029142,0 72.8564234686194,19.1254142746464,0 72.85643697763631,19.1253898655304,0 72.8564503256455,19.1253653765226,0 72.8564635121239,19.1253408085825,0 72.85647653655511,19.1253161626727,0 72.85648939842881,19.1252914397586,0 72.85650209724111,19.1252666408091,0 72.8565344651819,19.1251999322131,0 72.8565651458941,19.1251325071373,0 72.85659412183971,19.1250644041281,0 72.85662137645549,19.1249956621192,0 72.8566468941624,19.1249263204097,0 72.85667066037421,19.1248564186416,0 72.8566926615062,19.1247859967769,0 72.8567128849828,19.1247150950749,0 72.8567313192449,19.124643754069,0 72.8567479537558,19.1245720145442,0 72.85676277900831,19.1244999175127,0 72.8567757865292,19.1244275041914,0 72.8567869728484,19.1243548157564,0 72.8567963248094,19.1242818935697,0 72.8568038370519,19.124208779447,0 72.8568095052706,19.1241355153139,0 72.85681332621761,19.1240621431818,0 72.8568152977045,19.1239887051241,0 72.85681541860301,19.1239152432519,0 72.8568136888464,19.12384179969,0 72.85681010942901,19.1237684165524,0 72.85680468240579,19.1236951359189,0 72.85679741089111,19.1236219998098,0 72.8567882990571,19.123549050163,0 72.8567816530294,19.1235065336674,0 72.8567746818092,19.1234640642466,0 72.85676738576601,19.1234216441477,0 72.856759765286,19.1233792756151,0 72.8567518207725,19.1233369608907,0 72.85674355264619,19.1232947022132,0 72.856734961345,19.1232525018188,0 72.85672604732331,19.1232103619401,0 72.8567168110534,19.1231682848071,0 72.8567072530242,19.1231262726458,0 72.8566973737415,19.1230843276792,0 72.8566871737283,19.1230424521269,0 72.85647854562281,19.1221433805435,0 72.8564573165425,19.1220521164517,0 72.8564361071213,19.1219608482331,0 72.8564149173602,19.1218695758916,0 72.8563937472599,19.1217782994312,0 72.8563725968214,19.1216870188555,0 72.8563514660454,19.1215957341684,0 72.8563303549327,19.1215044453738,0 72.85630926348451,19.1214131524754,0 72.8562881917012,19.1213218554771,0 72.85626713958411,19.1212305543826,0 72.8562461071336,19.1211392491959,0 72.856225094351,19.1210479399208,0 72.85621719237039,19.1210123830754,0 72.8562095288405,19.120976779107,0 72.8562021040721,19.1209411294602,0 72.8561949183664,19.1209054355814,0 72.8561879720146,19.1208696989193,0 72.8561812652987,19.1208339209237,0 72.8561747984905,19.1207981030465,0 72.85616857185219,19.120762246741,0 72.8561625856364,19.1207263534623,0 72.8561568400859,19.1206904246666,0 72.85615133543359,19.1206544618122,0 72.8561460719026,19.1206184663578,0 72.85614086864079,19.1205806065331,0 72.85613592762181,19.1205427149797,0 72.8561312490596,19.1205047933387,0 72.8561268331565,19.1204668432526,0 72.85612268010389,19.1204288663651,0 72.8561187900811,19.1203908643208,0 72.8561151632566,19.1203528387658,0 72.8561117997874,19.1203147913469,0 72.85610869981871,19.120276723712,0 72.8561058634847,19.12023863751,0 72.85610329090829,19.1202005343901,0 72.8561009822004,19.1201624160028,0 72.8560989312557,19.1201246505784,0 72.8560968483946,19.1200868867322,0 72.85609473361851,19.1200491244886,0 72.8560925869287,19.1200113638718,0 72.85609040832659,19.1199736049062,0 72.85608819781371,19.1199358476164,0 72.85608595539141,19.1198980920265,0 72.85608368106119,19.1198603381609,0 72.8560813748245,19.1198225860442,0 72.856079036683,19.1197848357005,0 72.8560766666381,19.1197470871543,0 72.8560742646913,19.1197093404298,0 72.85607298465401,19.1196918189958,0 72.85607165252441,19.1196743010705,0 72.8560702683132,19.1196567867939,0 72.8560688320314,19.1196392763055,0 72.8560673436905,19.1196217697457,0 72.8560658033024,19.1196042672539,0 72.8560642108794,19.1195867689702,0 72.8560625664344,19.1195692750343,0 72.8560608699804,19.1195517855858,0 72.856059121531,19.1195343007645,0 72.8560573211001,19.1195168207101,0 72.8560554687022,19.1194993455621,0 72.85605440734621,19.1194895787914,0 72.85605332921931,19.1194798136805,0 72.85605223432469,19.1194700502552,0 72.85605112266489,19.1194602885417,0 72.85604999424319,19.1194505285661,0 72.8560488490625,19.1194407703543,0 72.8560476871258,19.1194310139322,0 72.85604650843619,19.1194212593259,0 72.856045312997,19.1194115065614,0 72.8560441008113,19.1194017556647,0 72.8560428718823,19.1193920066617,0 72.8560416262132,19.1193822595785,0 72.85603229894301,19.1193131832295,0 72.85603095158849,19.1193036173162,0 72.8560295937707,19.1192940527396,0 72.8560282254909,19.1192844895103,0 72.85602684675069,19.1192749276384,0 72.8560254575514,19.1192653671344,0 72.8560240578947,19.1192558080084,0 72.856022647782,19.1192462502711,0 72.8560212272149,19.1192366939326,0 72.8560197961949,19.1192271390031,0 72.8560183547235,19.1192175854933,0 72.8560169028024,19.1192080334133,0 72.8560154404331,19.1191984827733,0 72.85600119750021,19.1191078488345,0 72.8559903325918,19.119040437545,0 72.8555560634983,19.1163605013635,0 72.8555994129447,19.116355029943,0 72.8554169581188,19.1150489142267,0 72.8552345050738,19.113742798437,0 72.8551307811418,19.1137574335684,0 72.85509365089121,19.1135722942756,0 72.8550567743051,19.1134040359099,0 72.8550474473804,19.113362540829,0 72.8544348273774,19.1106412717092,0 72.8538253301116,19.1079338091257,0 72.85377562522839,19.1077130108222,0 72.8533110753157,19.1078075081074,0 72.8533607795828,19.1080283064769,0 72.8539702692929,19.1107357698695,0 72.85459827449471,19.1135256435609,0 72.8546250604265,19.113648049998,0 72.8546573171129,19.1138066595863,0 72.8547072853879,19.1140892614533,0 72.8547809412422,19.1145434982136,0 72.85484104894969,19.114914443662,0 72.85494585939129,19.1156693666322,0 72.855051303151,19.116424209719,0 72.8550850027743,19.1164199563645,0 72.8553010775013,19.1177534033032,0 72.85551715457051,19.1190868501468,0 72.85556132779369,19.1193725969418,0 72.8555645234091,19.1193959129878,0 72.85556762319111,19.11941924072,0 72.8555706270926,19.1194425797825,0 72.85557353506751,19.1194659298192,0 72.85557634707151,19.1194892904739,0 72.8555790630616,19.1195126613903,0 72.8555816829964,19.1195360422118,0 72.8555842068357,19.1195594325816,0 72.8555866345413,19.1195828321431,0 72.8555889660758,19.1196062405391,0 72.8555912014037,19.1196296574126,0 72.8555933404911,19.1196530824063,0 72.85559542811831,19.1196788180189,0 72.8555974479705,19.1197045585175,0 72.85559940003481,19.119730303741,0 72.855601284299,19.119756053528,0 72.8556031007514,19.1197818077173,0 72.8556048493803,19.1198075661474,0 72.8556065301749,19.119833328657,0 72.8556081431245,19.1198590950847,0 72.8556096882192,19.1198848652691,0 72.85561116544901,19.1199106390487,0 72.85561257480499,19.1199364162621,0 72.8556139162779,19.1199621967478,0 72.8556155991741,19.1199965655751,0 72.8556173762446,19.1200309301194,0 72.85561924747731,19.1200652901473,0 72.8556212128595,19.1200996454258,0 72.8556232723783,19.1201339957219,0 72.8556254260195,19.1201683408023,0 72.8556276737685,19.1202026804342,0 72.8556300156103,19.1202370143846,0 72.85563245152891,19.1202713424206,0 72.855634981508,19.1203056643092,0 72.85563760553031,19.1203399798176,0 72.8556403235782,19.120374288713,0 72.8556426035375,19.1203997343791,0 72.8556449981805,19.1204251705258,0 72.8556475074632,19.1204505966864,0 72.8556501313397,19.1204760123937,0 72.8556528697618,19.1205014171816,0 72.8556557226793,19.1205268105833,0 72.85565869004,19.1205521921327,0 72.8556617717892,19.1205775613639,0 72.8556649678706,19.120602917811,0 72.85566827822549,19.1206282610086,0 72.8556717027932,19.1206535904914,0 72.8556752415109,19.1206789057944,0 72.8556794574631,19.120708032501,0 72.8556838242735,19.1207371391196,0 72.8556883418364,19.120766224944,0 72.8556930100421,19.120795289269,0 72.85569782877759,19.1208243313894,0 72.8557027979261,19.1208533506011,0 72.8557079173672,19.1208823462002,0 72.8557131869767,19.1209113174835,0 72.85571860662689,19.1209402637483,0 72.8557241761866,19.1209691842926,0 72.8557298955206,19.120998078415,0 72.85573576449031,19.1210269454147,0 72.8557413129458,19.121053218023,0 72.8557469160365,19.1210794801534,0 72.8557525737406,19.1211057317034,0 72.85575828603589,19.1211319725704,0 72.8557640529003,19.1211582026519,0 72.85576987431109,19.1211844218451,0 72.8557757502456,19.1212106300478,0 72.85578168068091,19.1212368271574,0 72.85578766559399,19.1212630130715,0 72.8557937049613,19.1212891876879,0 72.85579979875931,19.1213153509042,0 72.8558059469641,19.1213415026181,0 72.8560145791969,19.1222406107605,0 72.85622321319001,19.1231397188045,0 72.85626994162099,19.1233465072494,0 72.8562977332618,19.1234861736317,0 72.85629972215,19.1234963353417,0 72.85630164695679,19.1235065081944,0 72.85630350761291,19.1235166918247,0 72.8563053040514,19.123526885867,0 72.85630703620809,19.1235370899556,0 72.85630870402071,19.1235473037243,0 72.8563103074293,19.1235575268064,0 72.8563118463764,19.1235677588351,0 72.85631332080671,19.1235779994432,0 72.85631473066729,19.1235882482631,0 72.8563160759077,19.1235985049271,0 72.85631735647939,19.123608769067,0 72.8563250788247,19.12367089629,0 72.85633123792491,19.1237331810932,0 72.8563358302646,19.1237955879454,0 72.8563388532223,19.1238580812452,0 72.8563403050717,19.123920625342,0 72.8563401849827,19.1239831845566,0 72.85633849302209,19.1240457232005,0 72.85633523015341,19.1241082055974,0 72.8563303982362,19.1241705961026,0 72.8563240000251,19.1242328591243,0 72.85631603916851,19.124294959143,0 72.85630652020601,19.1243568607322,0 72.8562939622423,19.1244261418775,0 72.8562794558667,19.1244950783453,0 72.8562630114921,19.1245636206402,0 72.85624464092309,19.1246317195499,0 72.8562243573473,19.1246993261803,0 72.85620217532551,19.1247663919909,0 72.8561781107822,19.1248328688294,0 72.85615218099301,19.124898708966,0 72.85612440457329,19.1249638651285,0 72.8560948014641,19.1250282905353,0 72.8560633929182,19.1250919389296,0 72.8560302014847,19.1251547646126,0 72.85601717816991,19.1251782807056,0 72.8560040438241,19.1252017409449,0 72.8559907987126,19.1252251448566,0 72.8559774431027,19.1252484919686,0 72.8559639772639,19.1252717818094,0 72.85595040146799,19.1252950139088,0 72.855936715989,19.1253181877978,0 72.8559229211032,19.1253413030087,0 72.85590901708891,19.125364359075,0 72.85589500422699,19.1253873555309,0 72.85588088280009,19.1254102919124,0 72.8558666530933,19.1254331677565,0 72.8558315682406,19.1254899883969,0 72.85582352497249,19.1255028602431,0 72.8558154932872,19.1255157386221,0 72.85580747319089,19.1255286235245,0 72.8557994646892,19.1255415149408,0 72.85579146778809,19.1255544128616,0 72.85578348249329,19.1255673172775,0 72.85577550881089,19.125580228179,0 72.85576754674651,19.1255931455567,0 72.8557595963061,19.1256060694012,0 72.8557516574954,19.125618999703,0 72.8557437303201,19.1256319364526,0 72.8557358147862,19.1256448796406,0 72.8555600024179,19.1259301285462,0 72.8555470272554,19.1259514092744,0 72.8555341654247,19.1259727520665,0 72.8555214172542,19.1259941563772,0 72.8555087830697,19.1260156216596,0 72.8554962631942,19.1260371473653,0 72.85548385794741,19.1260587329444,0 72.8554715676464,19.1260803778454,0 72.8554593926051,19.1261020815154,0 72.85544733313461,19.1261238433998,0 72.8554353895432,19.1261456629428,0 72.8554235621359,19.1261675395867,0 72.8554118512151,19.1261894727728,0 72.855390617322,19.1262307144609,0 72.8553700576585,19.1262722636351,0 72.85535017715201,19.1263141103382,0 72.8553309805673,19.1263562445415,0 72.8553124725055,19.1263986561478,0 72.8552946574024,19.126441334993,0 72.8552775395281,19.1264842708492,0 72.8552611229852,19.1265274534267,0 72.85524541170859,19.1265708723768,0 72.855230409464,19.1266145172943,0 72.8552161198472,19.1266583777196,0 72.85520254628329,19.1267024431413,0 72.85519124003309,19.1267410042051,0 72.85518050602219,19.1267797127282,0 72.8551703463781,19.1268185610395,0 72.8551607631149,19.1268575414398,0 72.8551517581321,19.1268966462038,0 72.8551433332148,19.1269358675818,0 72.85513549003301,19.1269751978006,0 72.8551282301415,19.1270146290659,0 72.85512155497951,19.127054153563,0 72.8551154658702,19.1270937634587,0 72.8551099640211,19.1271334509032,0 72.8551050505227,19.127173208031,0 72.8551038765595,19.1271834556141,0 72.8551027335068,19.1271937063536,0 72.85510162137381,19.1272039601654,0 72.8551005401698,19.127214216965,0 72.85509948990369,19.1272244766684,0 72.855098470584,19.1272347391912,0 72.85509748221909,19.127245004449,0 72.8550965248173,19.1272552723574,0 72.8550955983863,19.1272655428322,0 72.8550947029338,19.1272758157888,0 72.8550938384672,19.1272860911431,0 72.85509300499341,19.1272963688104,0 72.8550923216079,19.1273050837625,0 72.8550916583914,19.1273138001221,0 72.8550910153471,19.1273225178472,0 72.8550903924781,19.1273312368955,0 72.8550897897874,19.1273399572249,0 72.8550892072779,19.1273486787931,0 72.8550886449526,19.127357401558,0 72.85508810281399,19.1273661254774,0 72.8550875808649,19.1273748505091,0 72.85508707910771,19.1273835766108,0 72.8550865975448,19.1273923037404,0 72.8550861361787,19.1274010318555,0 72.8550829792247,19.1274685650978,0 72.85488551488839,19.1274620423195,0 72.8548606133343,19.1285225452893,0 72.85483571073151,19.1295830481112,0 72.85503431432269,19.1295916492276,0 72.8550089686218,19.1307378922077,0 72.8549831268538,19.131901057674,0 72.854956133372,19.1326312412445,0 72.8548553386382,19.1346050406883,0 72.85475222980369,19.1366239106472,0 72.8547377835465,19.136867424698,0 72.854708820209,19.1371639183785,0 72.85467525448421,19.1373935873912,0 72.8546479739812,19.1375453012655,0 72.8546135672418,19.1377208668414,0 72.8545616726442,19.1379864318813,0 72.85451015826681,19.1383104114929,0 72.85447513167691,19.1386537430932,0 72.8544595880818,19.1388836004714,0 72.8544088023295,19.1396846089679,0 72.8543791754672,19.1401518862895,0 72.8543516701758,19.1405879892478,0 72.8543410171652,19.1409055802858,0 72.8543653146986,19.1412873483564,0 72.8544126879855,19.1415682696565,0 72.8544882193367,19.1418607082681,0 72.85438631414171,19.1418859186023,0 72.8547209689422,19.1429157156424,0 72.85505562727531,19.1439455123699,0 72.85514236732359,19.1439167744803,0 72.8552847627612,19.1443638279991,0 72.85530533868889,19.144427865944,0 72.85532528956379,19.144492082285,0 72.855344613673,19.1445564715117,0 72.8553633093576,19.1446210280989,0 72.8553813750124,19.1446857465068,0 72.85539880908659,19.1447506211821,0 72.8554156100834,19.1448156465576,0 72.8554317765603,19.1448808170536,0 72.8554473071292,19.1449461270777,0 72.8554622004567,19.1450115710255,0 72.8554764552639,19.1450771432812,0 72.85549007032699,19.145142838218,0 72.85549982935559,19.1451923061409,0 72.85550921387591,19.1452418394723,0 72.855518223402,19.1452914356514,0 72.85552685746811,19.1453410921141,0 72.85553511562731,19.1453908062932,0 72.8555429974523,19.1454405756184,0 72.85555050253539,19.1454903975166,0 72.85555763048799,19.1455402694121,0 72.8555643809415,19.1455901887265,0 72.8555707535464,19.1456401528789,0 72.8555767479729,19.1456901592861,0 72.8555823639108,19.1457402053629,0 72.8555841123475,19.1457567488814,0 72.8555858352658,19.1457732948178,0 72.855587532662,19.1457898431366,0 72.85558920453239,19.1458063938023,0 72.8555908508735,19.1458229467793,0 72.8555924716817,19.145839502032,0 72.8555940669536,19.1458560595248,0 72.85559563668561,19.1458726192222,0 72.8555971808743,19.1458891810886,0 72.85559869951661,19.1459057450882,0 72.8556001926091,19.1459223111859,0 72.85560166014849,19.1459388793456,0 72.85569132687699,19.1469523133104,0 72.85577626415581,19.147912579699,0 72.8557810754765,19.1479688266432,0 72.8557861052121,19.1480250563275,0 72.85579135329461,19.1480812679861,0 72.8557968196525,19.148137460853,0 72.8558025042116,19.148193634163,0 72.8558084068948,19.1482497871506,0 72.8558145276217,19.1483059190511,0 72.8558208663093,19.1483620290996,0 72.8558274228716,19.1484181165317,0 72.8558341972192,19.1484741805836,0 72.8558411892602,19.1485302204913,0 72.8558483988997,19.1485862354914,0 72.8558937442872,19.1489449628767,0 72.8559039724759,19.1490281440129,0 72.855908948026,19.1490698167992,0 72.8559101312436,19.1490797334725,0 72.8559113030077,19.149089651374,0 72.8559124633168,19.1490995704918,0 72.8559136121696,19.1491094908138,0 72.8559147495646,19.1491194123282,0 72.8559158755006,19.1491293350231,0 72.8559169899761,19.1491392588863,0 72.8559180929899,19.1491491839062,0 72.8559191845406,19.1491591100705,0 72.8559202646268,19.1491690373674,0 72.8559213332473,19.149178965785,0 72.85592239040071,19.1491888953111,0 72.8559347047745,19.1493080839526,0 72.8559357487314,19.1493184993669,0 72.8559367818775,19.1493289157548,0 72.85593780421181,19.1493393331061,0 72.8559388157333,19.1493497514106,0 72.85593981644099,19.1493601706584,0 72.855940806334,19.149370590839,0 72.85594178541111,19.1493810119425,0 72.8559427536717,19.1493914339588,0 72.85594371111461,19.1494018568776,0 72.855944657739,19.1494122806889,0 72.85594559354389,19.1494227053825,0 72.8559465185285,19.1494331309483,0 72.8559553699525,19.149531145038,0 72.85611239442881,19.1512814689484,0 72.8560093240546,19.1512867984457,0 72.8561018828012,19.1523512439059,0 72.8561944420057,19.1534156893205,0 72.8563030205012,19.1534063236191,0 72.856307087918,19.1534551898784,0 72.8563113112173,19.1535040441936,0 72.8563156903605,19.1535528861159,0 72.8563202253075,19.1536017151962,0 72.8563249160165,19.1536505309856,0 72.8563297624449,19.1536993330354,0 72.8563347645481,19.1537481208971,0 72.8563399222801,19.1537968941221,0 72.85634523559391,19.1538456522622,0 72.8563507044408,19.1538943948691,0 72.8563563287704,19.1539431214947,0 72.8563621085314,19.1539918316914,0 72.85636718232691,19.1540314806414,0 72.8563723833158,19.154071114705,0 72.8563777114499,19.1541107335135,0 72.85638316667951,19.1541503366985,0 72.8563887489541,19.1541899238921,0 72.856394458222,19.1542294947258,0 72.85640029443,19.1542690488321,0 72.8564062575242,19.1543085858429,0 72.85641234744909,19.1543481053909,0 72.856418564148,19.1543876071085,0 72.85642490756349,19.1544270906285,0 72.8564313776366,19.1544665555838,0 72.8566078096421,19.1555703409692,0 72.8568002491084,19.1567744443511,0 72.8568084517832,19.1568261867138,0 72.8568165785447,19.1568779398935,0 72.8568246293769,19.1569297037896,0 72.8568326042644,19.1569814783016,0 72.85684050319129,19.1570332633287,0 72.8568483261424,19.1570850587704,0 72.85685607310231,19.1571368645259,0 72.856863744056,19.1571886804946,0 72.8568713389884,19.1572405065757,0 72.8568788578845,19.1572923426686,0 72.85688630073,19.1573441886725,0 72.85689366751011,19.1573960444866,0 72.8570417041482,19.1584327323057,0 72.85721092414011,19.1596177577374,0 72.8572250018938,19.1597203841506,0 72.8572387575924,19.1598230499955,0 72.85725219111301,19.1599257543591,0 72.8572653023358,19.1600284963286,0 72.8572780911435,19.1601312749906,0 72.85729055742171,19.1602340894312,0 72.8573027010591,19.1603369387365,0 72.8573145219472,19.1604398219921,0 72.85732601998011,19.1605427382834,0 72.8573371950551,19.1606456866955,0 72.85734804707209,19.160748666313,0 72.8573585759342,19.1608516762205,0 72.85736856216001,19.1609463001578,0 72.85737872332599,19.1610409072754,0 72.8573890594014,19.1611354972815,0 72.8573995703542,19.1612300698839,0 72.8574102561527,19.1613246247909,0 72.8574211167639,19.1614191617103,0 72.8574321521547,19.1615136803506,0 72.85744336229131,19.1616081804197,0 72.8574547471395,19.1617026616261,0 72.85746630666441,19.1617971236781,0 72.8574780408305,19.1618915662841,0 72.8574899496019,19.1619859891525,0 72.8577727500625,19.1641452269619,0 72.8580555549175,19.1663044645794,0 72.8579746192936,19.166313733017,0 72.858108815156,19.1673718816699,0 72.8582442976923,19.168433094757,0 72.8583329815812,19.1684226064797,0 72.85859655017779,19.1704389669508,0 72.85869610102959,19.1716471585468,0 72.8586999541686,19.1716934573776,0 72.85870388335999,19.1717397504366,0 72.8587078885943,19.1717860376113,0 72.8587119698616,19.1718323187887,0 72.85871612715221,19.1718785938563,0 72.8587203604561,19.171924862701,0 72.85872466976291,19.1719711252104,0 72.8587290550622,19.1720173812716,0 72.85873351634341,19.1720636307719,0 72.8587380535956,19.1721098735986,0 72.858742666808,19.1721561096391,0 72.8587473559693,19.1722023387807,0 72.85875154048411,19.1722429687077,0 72.85875578366441,19.1722835931408,0 72.8587600855024,19.1723242120034,0 72.85876444598981,19.1723648252191,0 72.85876886511851,19.1724054327114,0 72.8587733428803,19.1724460344038,0 72.8587778792668,19.1724866302201,0 72.8587824742694,19.1725272200837,0 72.85878712787969,19.1725678039181,0 72.8587918400887,19.1726083816471,0 72.85879661088779,19.172648953194,0 72.858801440268,19.1726895184829,0 72.8588091981087,19.1727714762484,0 72.85881704765541,19.1728534261295,0 72.8588249888994,19.1729353680336,0 72.8588330218319,19.1730173018681,0 72.85884114644389,19.1730992275402,0 72.8588493627264,19.1731811449575,0 72.85885767067011,19.1732630540272,0 72.858866070266,19.1733449546569,0 72.85887456150461,19.1734268467539,0 72.85888314437631,19.1735087302256,0 72.8588918188718,19.1735906049795,0 72.8589005849814,19.1736724709229,0 72.858909659155,19.1737489223183,0 72.85891748407541,19.1738254982744,0 72.85892405785761,19.173902180361,0 72.8589293789175,19.1739789501226,0 72.85893344597299,19.1740557890822,0 72.8589362580431,19.1741326787466,0 72.8589378144496,19.1742096006098,0 72.8589381148159,19.1742865361585,0 72.85893715906811,19.1743634668758,0 72.85893494743451,19.1744403742462,0 72.85893148044541,19.1745172397596,0 72.85892675893381,19.1745940449157,0 72.8589226472388,19.1746451134439,0 72.8589179264351,19.1746961343915,0 72.85891259712911,19.174747101199,0 72.8589066600054,19.1747980073145,0 72.8589001158265,19.1748488461932,0 72.8588929654336,19.1748996112993,0 72.858885209745,19.1749502961065,0 72.85887684975739,19.1750008940988,0 72.8588678865449,19.1750513987713,0 72.8588583212596,19.175101803631,0 72.8588481551302,19.1751521021978,0 72.8588373894635,19.1752022880055,0 72.85882979458481,19.1752353872392,0 72.8588221003622,19.1752684657504,0 72.85881430685821,19.1753015232703,0 72.8588064141364,19.1753345595297,0 72.8587984222608,19.1753675742597,0 72.8587903312965,19.1754005671916,0 72.85878214130921,19.1754335380569,0 72.8587738523654,19.1754664865873,0 72.85876546453279,19.1754994125146,0 72.8587569778794,19.175532315571,0 72.8587483924741,19.1755651954885,0 72.85873970838711,19.1755980519996,0 72.8587319990632,19.1756279732438,0 72.8587242851911,19.1756578934297,0 72.8587165667707,19.1756878125567,0 72.8587088438025,19.1757177306242,0 72.8587011162862,19.1757476476315,0 72.85869338422241,19.1757775635779,0 72.858685647611,19.175807478463,0 72.8586779064522,19.1758373922859,0 72.8586701607462,19.1758673050463,0 72.8586624104932,19.1758972167432,0 72.8586546556933,19.1759271273763,0 72.8586468963466,19.1759570369449,0 72.8586399516139,19.1759835559625,0 72.8586329002719,19.1760100495679,0 72.8586257424235,19.1760365173739,0 72.8586184781732,19.1760629589942,0 72.8586111076271,19.1760893740424,0 72.8586036308927,19.1761157621328,0 72.85859604807921,19.1761421228799,0 72.8585883592975,19.1761684558988,0 72.85858056465951,19.1761947608049,0 72.8585726642791,19.176221037214,0 72.8585646582718,19.1762472847422,0 72.8585565467543,19.1762735030063,0 72.8585482461888,19.1762996680873,0 72.8585398344015,19.176325801079,0 72.85853131153,19.1763519015545,0 72.8585226777132,19.1763779690875,0 72.8585139330922,19.1764040032522,0 72.8585050778099,19.1764300036233,0 72.8584961120107,19.1764559697763,0 72.85848703584099,19.1764819012869,0 72.8584778494491,19.1765077977316,0 72.8584685529849,19.1765336586875,0 72.8584591466003,19.1765594837321,0 72.8584496304489,19.1765852724435,0 72.85844210564549,19.1766057066601,0 72.8584345727235,19.176626138176,0 72.858427031684,19.1766465669883,0 72.85841948252801,19.176666993094,0 72.8584119252567,19.1766874164903,0 72.858404359871,19.1767078371743,0 72.8583967863722,19.1767282551431,0 72.8583892047612,19.1767486703937,0 72.85838161503909,19.1767690829232,0 72.858374017207,19.1767894927288,0 72.85836641126591,19.1768098998075,0 72.85835879721699,19.1768303041564,0 72.8583112408066,19.1769581175046,0 72.8583004037028,19.176987018926,0 72.8582895972613,19.1770159307118,0 72.8582788214934,19.1770448528326,0 72.8582680764098,19.1770737852588,0 72.8582573620217,19.1771027279613,0 72.8582466783397,19.1771316809106,0 72.85823602537489,19.1771606440772,0 72.85822540313789,19.1771896174317,0 72.8582148116397,19.1772186009448,0 72.85820425089111,19.1772475945869,0 72.85819372090271,19.1772765983285,0 72.85818322168529,19.1773056121403,0 72.8581765094406,19.1773244966835,0 72.85816987002811,19.1773434044579,0 72.8581633035371,19.1773623352101,0 72.8581568100557,19.1773812886861,0 72.8581503896708,19.1774002646317,0 72.85814404246879,19.1774192627925,0 72.8581377685347,19.1774382829135,0 72.8581315679527,19.1774573247398,0 72.85812544080601,19.1774763880157,0 72.8581193871768,19.1774954724857,0 72.85811340714631,19.1775145778939,0 72.8581075007949,19.1775337039838,0 72.8580980301887,19.1775653211007,0 72.8580888446635,19.1775970140637,0 72.8580799448919,19.177628780552,0 72.85807133152581,19.1776606182394,0 72.8580630051961,19.177692524795,0 72.8580549665127,19.1777244978819,0 72.85804721606441,19.1777565351593,0 72.8580397544188,19.177788634281,0 72.85803258212251,19.1778207928967,0 72.8580256997009,19.1778530086514,0 72.8580191076581,19.1778852791862,0 72.85801280647691,19.1779176021381,0 72.8580073917541,19.1779466996515,0 72.858002212923,19.1779758359078,0 72.8579972702907,19.1780050091805,0 72.8579925641501,19.1780342177409,0 72.8579880947804,19.178063459858,0 72.8579838624463,19.178092733799,0 72.8579798673989,19.1781220378295,0 72.857976109875,19.1781513702127,0 72.85797259009731,19.1781807292106,0 72.8579693082747,19.1782101130833,0 72.8579662646016,19.1782395200898,0 72.8579634592587,19.1782689484871,0 72.8579618672638,19.1782872089436,0 72.85796034899281,19.1783054750676,0 72.85795890446791,19.1783237465906,0 72.8579575337106,19.1783420232437,0 72.8579562367409,19.1783603047581,0 72.85795501357789,19.1783785908648,0 72.85795386423961,19.1783968812947,0 72.85795278874321,19.1784151757789,0 72.8579517871042,19.178433474048,0 72.85795085933751,19.1784517758331,0 72.8579500054569,19.1784700808646,0 72.8579492254747,19.1784883888736,0 72.857948744951,19.1784972598715,0 72.8579483170538,19.178506133302,0 72.8579479417968,19.1785150088831,0 72.8579476191919,19.1785238863327,0 72.8579473492493,19.178532765369,0 72.8579471319776,19.1785416457098,0 72.8579469673838,19.1785505270732,0 72.8579468554731,19.1785594091769,0 72.857946796249,19.1785682917388,0 72.8579467897135,19.1785771744768,0 72.8579468358667,19.1785860571087,0 72.8579469347071,19.1785949393524,0 72.8578511282077,19.1785930796774,0 72.8578375359202,19.1796576786263,0 72.8578239427226,19.1807222774425,0 72.85790602483129,19.1807227067973,0 72.8579059407666,19.180742872048,0 72.8579059250055,19.1807630374513,0 72.857905977548,19.1807832027983,0 72.8579060983938,19.1808033678802,0 72.8579062875415,19.1808235324881,0 72.85790654498921,19.180843696413,0 72.8579068707344,19.1808638594464,0 72.8579072647736,19.180884021379,0 72.8579077271028,19.1809041820022,0 72.8579082577171,19.1809243411072,0 72.8579088566113,19.1809444984852,0 72.857909523779,19.1809646539273,0 72.85790982905159,19.1809785100959,0 72.8579102046359,19.1809923647048,0 72.85791065052339,19.181006217432,0 72.8579111667037,19.1810200679553,0 72.8579117531646,19.1810339159527,0 72.85791240989281,19.1810477611022,0 72.8579131368729,19.1810616030819,0 72.857913934088,19.1810754415703,0 72.8579148015196,19.1810892762452,0 72.8579157391476,19.1811031067852,0 72.8579167469502,19.1811169328687,0 72.85791782490401,19.1811307541743,0 72.8579191252951,19.1811499467361,0 72.8579204614325,19.1811691370811,0 72.85792183331211,19.1811883251491,0 72.85792324092969,19.1812075108801,0 72.8579246842806,19.1812266942141,0 72.8579261633605,19.181245875091,0 72.8579276781649,19.1812650534505,0 72.8579292286888,19.1812842292328,0 72.8579308149275,19.1813034023775,0 72.8579324368759,19.181322572825,0 72.8579340945292,19.181341740515,0 72.857935787882,19.1813609053874,0 72.8579742955482,19.1817908615115,0 72.85797770572459,19.1818242447045,0 72.8579809317251,19.18185764442,0 72.8579839734613,19.1818910597408,0 72.8579868308493,19.181924489749,0 72.8579895038108,19.1819579335265,0 72.85799199227181,19.1819913901548,0 72.85799429616441,19.1820248587149,0 72.85799641542479,19.1820583382876,0 72.8579983499948,19.1820918279535,0 72.8580000998212,19.1821253267925,0 72.85800166485581,19.1821588338847,0 72.8580030450555,19.1821923483098,0 72.8580041563374,19.182220270382,0 72.858005169116,19.1822481958364,0 72.8580060833802,19.1822761243591,0 72.8580068991195,19.1823040556366,0 72.8580076163247,19.1823319893549,0 72.85800823498769,19.1823599252004,0 72.85800875510159,19.1823878628592,0 72.8580091766603,19.1824158020173,0 72.8580094996593,19.1824437423609,0 72.8580097240947,19.1824716835762,0 72.85800984996391,19.1824996253493,0 72.8580098772656,19.1825275673661,0 72.8580091994384,19.183329191957,0 72.8580093811827,19.1834427909088,0 72.8580094470086,19.1835563899734,0 72.8580093969158,19.1836699890439,0 72.8580092309044,19.1837835880136,0 72.8580089489739,19.1838971867755,0 72.8580085511246,19.1840107852231,0 72.8580080373565,19.1841243832495,0 72.8580074076699,19.1842379807478,0 72.85800666206519,19.1843515776113,0 72.8580058005428,19.1844651737332,0 72.8580048231032,19.1845787690066,0 72.8580037297473,19.1846923633248,0 72.85798419067071,19.1861381877253,0 72.8579646498968,19.1875840118789,0 72.85796436330649,19.1876180848568,0 72.8579639662255,19.1876521568338,0 72.8579634586574,19.1876862274866,0 72.8579628406069,19.1877202964917,0 72.8579621120799,19.1877543635255,0 72.85796127308321,19.187788428265,0 72.8579603236246,19.1878224903865,0 72.8579592637132,19.1878565495667,0 72.8579580933589,19.1878906054824,0 72.8579568125727,19.1879246578101,0 72.8579554213668,19.1879587062267,0 72.85795391975429,19.187992750409,0 72.85795339155629,19.1880165070965,0 72.8579527867104,19.1880402621338,0 72.8579521052223,19.1880640152977,0 72.85795134709809,19.188087766365,0 72.8579505123453,19.1881115151125,0 72.85794960097149,19.188135261317,0 72.8579486129852,19.1881590047553,0 72.8579475483957,19.1881827452044,0 72.85794640721301,19.1882064824411,0 72.8579451894478,19.1882302162422,0 72.8579438951114,19.1882539463849,0 72.857942524216,19.188277672646,0 72.8579289791918,19.1885471155458,0 72.8579198208178,19.1887495072686,0 72.8577993180896,19.1887477794705,0 72.85778414621331,19.1898180227661,0 72.8577689733975,19.1908882659254,0 72.8579035016587,19.1908868487849,0 72.8579035610797,19.1908958750816,0 72.8579036373431,19.190904901264,0 72.8579037304485,19.1909139273038,0 72.85790384039569,19.1909229531726,0 72.8579039671844,19.1909319788419,0 72.8579041108142,19.1909410042836,0 72.8579042712846,19.1909500294691,0 72.85790444859509,19.1909590543701,0 72.8579046427451,19.1909680789583,0 72.8579048537341,19.1909771032052,0 72.8579050815614,19.1909861270826,0 72.8579053262263,19.1909951505621,0 72.85790592263381,19.1910151221361,0 72.85790666238179,19.1910350893813,0 72.85790754543579,19.191055051369,0 72.85790857175471,19.1910750071706,0 72.857909741291,19.191094955858,0 72.85791105399041,19.1911148965036,0 72.8579125097916,19.1911348281798,0 72.8579141086273,19.1911547499597,0 72.8579158504228,19.1911746609164,0 72.8579177350975,19.1911945601243,0 72.8579197625636,19.1912144466576,0 72.8579219327269,19.1912343195914,0 72.8579253781821,19.1912618958997,0 72.8579292028227,19.1912894270512,0 72.857933405995,19.1913169083395,0 72.8579379869807,19.1913443350668,0 72.85794294499691,19.1913717025445,0 72.85794827919609,19.1913990060941,0 72.85795398866679,19.1914262410483,0 72.8579600724332,19.1914534027511,0 72.8579665294552,19.1914804865593,0 72.8579733586293,19.1915074878431,0 72.8579805587883,19.1915344019865,0 72.85798812870151,19.1915612243886,0 72.8579960685956,19.1915879500514,0 72.8580043755866,19.1916145748,0 72.85801304825471,19.1916410940833,0 72.8580220851175,19.1916675033676,0 72.8580314846302,19.1916937981383,0 72.8580412451863,19.1917199739004,0 72.8580513651174,19.1917460261791,0 72.8580618426936,19.1917719505209,0 72.858072676124,19.1917977424939,0 72.8580838635568,19.1918233976892,0 72.8580954030797,19.1918489117208,0 72.85810729272021,19.1918742802273,0 72.8581172205932,19.1918946071009,0 72.8581273086441,19.1919148626606,0 72.85813755630549,19.1919350457669,0 72.858147963001,19.1919551552845,0 72.8581585281452,19.1919751900824,0 72.85816925114411,19.1919951490335,0 72.85818013139451,19.1920150310152,0 72.85819116828451,19.1920348349092,0 72.85820236119331,19.1920545596014,0 72.8582137094913,19.1920742039823,0 72.85822521254021,19.1920937669471,0 72.8582368696932,19.1921132473953,0 72.8582467682328,19.1921296239897,0 72.8582567043326,19.1921459800398,0 72.8582666779451,19.1921623154677,0 72.8582766890231,19.1921786301958,0 72.8582867375189,19.1921949241466,0 72.85829682338471,19.1922111972425,0 72.8583069465726,19.1922274494062,0 72.8583171070345,19.1922436805604,0 72.8583273047223,19.1922598906282,0 72.8583375395872,19.1922760795321,0 72.8583478115806,19.1922922471954,0 72.8583581206539,19.1923083935412,0 72.85860014118801,19.1926902536963,0 72.8588421627795,19.1930721136253,0 72.85885830500961,19.1930973436155,0 72.85887437467289,19.1931226153884,0 72.85889037164969,19.1931479287555,0 72.8589062958208,19.1931732835283,0 72.8589221470673,19.1931986795175,0 72.85893792527111,19.1932241165341,0 72.8589536303143,19.1932495943881,0 72.8589692620801,19.1932751128897,0 72.8589848204516,19.1933006718488,0 72.859000305313,19.1933262710745,0 72.8590157165488,19.1933519103764,0 72.8590310540439,19.1933775895629,0 72.85906141133751,19.1934299502239,0 72.85909114318861,19.1934826338454,0 72.85912024579061,19.1935356336838,0 72.8591487154179,19.193588942955,0 72.85917654842569,19.1936425548353,0 72.8592037412505,19.1936964624623,0 72.85923029041111,19.1937506589357,0 72.8592561925082,19.1938051373184,0 72.8592814442259,19.1938598906368,0 72.8593060423311,19.1939149118825,0 72.8593299836746,19.1939701940126,0 72.859353265191,19.1940257299509,0 72.8593758838996,19.1940815125885,0 72.85939783690429,19.1941375347853,0 72.8594191213946,19.19419378937,0 72.85943973464499,19.194250269142,0 72.85945967401661,19.1943069668716,0 72.859478936956,19.1943638753015,0 72.8594975209969,19.1944209871469,0 72.8595154237597,19.1944782950975,0 72.8595326429522,19.1945357918176,0 72.8595491763694,19.1945934699474,0 72.8595650218942,19.1946513221037,0 72.85958017749761,19.1947093408814,0 72.85961745779621,19.1948754598767,0 72.85965462850869,19.1950416010455,0 72.8596916896205,19.1952077643229,0 72.85972864111631,19.1953739496432,0 72.8597654829816,19.1955401569414,0 72.8598022152013,19.195706386152,0 72.85983883776081,19.1958726372098,0 72.8598753506454,19.1960389100493,0 72.85991175384019,19.1962052046052,0 72.8599480473308,19.1963715208124,0 72.8599842311024,19.1965378586052,0 72.86002030514069,19.1967042179185,0 72.86003319679909,19.1967625528774,0 72.8600459112904,19.1968209229247,0 72.8600584485088,19.1968793275746,0 72.8600708083497,19.1969377663412,0 72.8600829907102,19.1969962387381,0 72.8600949954885,19.1970547442789,0 72.8601068225847,19.1971132824767,0 72.8601184719,19.1971718528442,0 72.8601299433376,19.1972304548945,0 72.8601412368015,19.1972890881396,0 72.8601523521978,19.1973477520917,0 72.8601632894336,19.1974064462626,0 72.8601848816708,19.1975208433501,0 72.86008111698931,19.1975394638253,0 72.8602819211511,19.198582797665,0 72.86048272716541,19.1996261314194,0 72.8605815028984,19.1996089535316,0 72.8605828951501,19.1996153342411,0 72.8605842994435,19.1996217125684,0 72.86058571577421,19.1996280884929,0 72.8605871441377,19.1996344619941,0 72.8605885845292,19.1996408330516,0 72.8605900369442,19.1996472016448,0 72.860591501378,19.1996535677532,0 72.8605929778258,19.1996599313564,0 72.8605944662831,19.199666292434,0 72.860595966745,19.1996726509654,0 72.8605974792065,19.1996790069302,0 72.860599003663,19.199685360308,0 72.860603793653,19.1997050260688,0 72.8606087006856,19.1997246657664,0 72.8606137246038,19.1997442787724,0 72.86061886524691,19.1997638644588,0 72.8606241224504,19.1997834221985,0 72.8606294960458,19.1998029513655,0 72.8606349858614,19.1998224513347,0 72.86064059172131,19.1998419214816,0 72.8606463134461,19.199861361183,0 72.8606521508527,19.1998807698166,0 72.8606581037543,19.1999001467609,0 72.86066417196039,19.1999194913959,0 72.86066840705141,19.1999326751233,0 72.8606726822596,19.1999458471586,0 72.8606769975496,19.1999590073916,0 72.86068135288519,19.1999721557123,0 72.8606857482298,19.1999852920105,0 72.86069018354689,19.1999984161765,0 72.8606946587992,19.2000115281005,0 72.8606991739494,19.2000246276727,0 72.86070372895971,19.2000377147836,0 72.8607083237921,19.2000507893237,0 72.860712958408,19.2000638511837,0 72.8607176327688,19.2000769002543,0 72.86082727510269,19.2003743465565,0 72.86083777831981,19.2004029823481,0 72.8608482142011,19.2004316403526,0 72.8608585826946,19.2004603204269,0 72.8608688837485,19.2004890224281,0 72.8608791173113,19.2005177462131,0 72.8608892833319,19.2005464916385,0 72.86089938175991,19.2005752585609,0 72.8609094125445,19.2006040468372,0 72.8609193756359,19.2006328563234,0 72.8609292709843,19.2006616868761,0 72.8609390985401,19.2006905383513,0 72.8609488582546,19.2007194106054,0 72.860955478506,19.200739205546,0 72.8609620894734,19.2007590032874,0 72.86096869115541,19.2007788038254,0 72.8609752835509,19.2007986071563,0 72.86098186665831,19.2008184132759,0 72.86098844047641,19.2008382221805,0 72.8609950050039,19.200858033866,0 72.8610015602396,19.2008778483287,0 72.8610081061821,19.2008976655643,0 72.86101464283,19.2009174855692,0 72.8610211701821,19.2009373083393,0 72.8610276882372,19.2009571338708,0 72.861042041793,19.201002168072,0 72.8610569708993,19.2010470330639,0 72.86107247334731,19.2010917222074,0 72.8610885468436,19.2011362288899,0 72.8611051890103,19.2011805465254,0 72.8611223973852,19.2012246685561,0 72.8611401694222,19.201268588453,0 72.8611585024921,19.2013122997172,0 72.8611773938826,19.2013557958804,0 72.8611968407987,19.2013990705064,0 72.861216840363,19.2014421171914,0 72.8612373896168,19.2014849295659,0 72.8612553795017,19.201520628176,0 72.86127378425979,19.201556135396,0 72.8612926016358,19.2015914468743,0 72.8613118293236,19.2016265582835,0 72.86133146496719,19.2016614653201,0 72.8613515061603,19.2016961637066,0 72.86137195044731,19.2017306491901,0 72.8613927953227,19.2017649175446,0 72.8614140382323,19.2017989645701,0 72.8614356765728,19.2018327860941,0 72.8614577076925,19.2018663779715,0 72.8614801288918,19.2018997360856,0 72.8615059384324,19.2019373050603,0 72.8615317172212,19.2019748930912,0 72.8615574652425,19.2020125001555,0 72.8615831824807,19.2020501262306,0 72.8616088689203,19.2020877712937,0 72.86163452454571,19.202125435322,0 72.8616601493414,19.2021631182927,0 72.861685743292,19.2022008201832,0 72.86171130638169,19.2022385409705,0 72.86173683859541,19.202276280632,0 72.86176233991731,19.2023140391446,0 72.8617878103321,19.2023518164858,0 72.861815162466,19.2023920439312,0 72.8618425368942,19.2024322576917,0 72.861869933609,19.202472457756,0 72.86189735260319,19.2025126441131,0 72.86192479386899,19.2025528167518,0 72.8619522573988,19.2025929756611,0 72.861979743185,19.2026331208296,0 72.86200725122001,19.2026732522463,0 72.86203478149621,19.2027133699002,0 72.8620623340061,19.2027534737799,0 72.86208990874189,19.2027935638746,0 72.8621175056962,19.202833640173,0 72.8621246995593,19.2028438526939,0 72.8621319234873,19.2028540460426,0 72.8621391774237,19.2028642201389,0 72.8621464613116,19.2028743749032,0 72.8621537750937,19.202884510256,0 72.862161118713,19.2028946261178,0 72.86216849211171,19.2029047224092,0 72.8621758952323,19.2029147990513,0 72.8621833280165,19.202924855965,0 72.8621907904063,19.2029348930715,0 72.862198282343,19.2029449102922,0 72.86220580376801,19.2029549075485,0 72.8622169037865,19.2029694923357,0 72.8622280833231,19.2029840222025,0 72.86223934207681,19.2029984967576,0 72.86225067974431,19.2030129156111,0 72.8622620960205,19.2030272783747,0 72.8622735905978,19.2030415846617,0 72.8622851631669,19.2030558340868,0 72.8622968134158,19.2030700262662,0 72.8623085410311,19.2030841608178,0 72.8623203456969,19.2030982373609,0 72.8623322270952,19.2031122555164,0 72.86234418490631,19.2031262149068,0 72.86226722337,19.2031951043562,0 72.86304451110919,19.2039953256451,0 72.86382180631379,19.2047955442965,0 72.86388907162571,19.20473335729,0 72.86509953846139,19.205984427739,0 72.8663100234681,19.2072354917945,0 72.86656012182971,19.2074991516212,0 72.86672412047351,19.2076869799368,0 72.8668796951372,19.2078811684532,0 72.8670265727994,19.2080813764264,0 72.8671644956964,19.2082872525485,0 72.8672932217751,19.2084984355638,0 72.8674125251173,19.2087145549029,0 72.86752219633721,19.2089352313326,0 72.8676220429484,19.2091600776219,0 72.86771188970231,19.2093886992203,0 72.86779157889551,19.2096206949513,0 72.8678609706471,19.2098556577153,0 72.8679199431446,19.2100931752046,0 72.86796839285761,19.2103328306267,0 72.8680062347198,19.2105742034352,0 72.8680334022789,19.2108168700686,0 72.8680498478135,19.2110604046926,0 72.8680555424168,19.2113043799483,0 72.8680504760479,19.2115483677014,0 72.8680346575501,19.2117919397937,0 72.8680081146351,19.212034668795,0 72.86797089383521,19.2122761287524,0 72.8679230604214,19.2125158959384,0 72.86786469828991,19.2127535495943,0 72.8677959098147,19.2129886726687,0 72.8673618677266,19.2142358940957,0 72.866995459602,19.2152798015713,0 72.86676050876631,19.2159981811122,0 72.86668603718211,19.215976606205,0 72.8663376186054,19.2169906925219,0 72.8659891951561,19.2180047776591,0 72.8660455149229,19.2180224321007,0 72.86603790781641,19.2180421045674,0 72.8660303131954,19.2180617813871,0 72.8660227310629,19.2180814625525,0 72.8660151614214,19.2181011480566,0 72.8660076042738,19.2181208378921,0 72.86600005962291,19.218140532052,0 72.86599252747131,19.218160230529,0 72.86598500782181,19.218179933316,0 72.8659775006772,19.2181996404059,0 72.8659700060402,19.2182193517914,0 72.8659625239135,19.2182390674655,0 72.8659550542998,19.2182587874208,0 72.86594633479871,19.2182820012197,0 72.86593765887029,19.2183052297464,0 72.86592902654211,19.2183284729272,0 72.8659204378416,19.2183517306881,0 72.86591189279611,19.2183750029554,0 72.8659033914327,19.218398289655,0 72.86589493377851,19.218421590713,0 72.8658865198604,19.2184449060552,0 72.8658781497051,19.2184682356078,0 72.8658698233393,19.2184915792964,0 72.8658615407894,19.218514937047,0 72.8658533020818,19.2185383087853,0 72.8657877729744,19.2187273243746,0 72.865088815074,19.2207578811429,0 72.86438983760129,19.2227884331668,0 72.8642956831393,19.2227585599627,0 72.8639488968067,19.223768504977,0 72.8636046972927,19.2247792451889,0 72.8636948763788,19.224807256775,0 72.8634765729356,19.2254414035357,0 72.8632581738071,19.2260758222372,0 72.8632285307926,19.2261621081058,0 72.8632247899419,19.2261730134847,0 72.8632210592742,19.2261839220107,0 72.8632173387925,19.2261948336753,0 72.86321362849959,19.2262057484698,0 72.8632099283985,19.2262166663857,0 72.8632062384921,19.2262275874143,0 72.8632025587832,19.2262385115471,0 72.8631988892748,19.2262494387755,0 72.8631952299699,19.2262603690909,0 72.8631915808711,19.2262713024848,0 72.86318794198159,19.2262822389484,0 72.8631843133039,19.2262931784732,0 72.8631800415706,19.2263061151883,0 72.8631757931106,19.226319058817,0 72.86317156793631,19.2263320093213,0 72.8631673660601,19.2263449666635,0 72.8631631874942,19.2263579308059,0 72.86315903225081,19.2263709017103,0 72.8631549003422,19.2263838793392,0 72.8631507917802,19.2263968636545,0 72.863146706577,19.2264098546185,0 72.8631426447444,19.226422852193,0 72.8631386062944,19.2264358563404,0 72.86313459123861,19.2264488670225,0 72.8631177372523,19.2265047208812,0 72.8631014890929,19.2265607364914,0 72.86308584848091,19.226616907924,0 72.8630708170722,19.2266732292335,0 72.8630563964585,19.2267296944583,0 72.8630425881671,19.2267862976218,0 72.8630293936597,19.2268430327326,0 72.8630168143339,19.2268998937855,0 72.8630048515216,19.2269568747619,0 72.8629935064899,19.2270139696304,0 72.86298278043991,19.2270711723478,0 72.8629726745079,19.2271284768591,0 72.8629634870599,19.2271839615856,0 72.8629548634688,19.227239527911,0 72.8629468045378,19.2272951706652,0 72.8629393110171,19.227350884671,0 72.8629323836047,19.2274066647443,0 72.8629260229456,19.227462505695,0 72.8629202296322,19.2275184023276,0 72.8629150042041,19.227574349441,0 72.8629103471482,19.2276303418295,0 72.86290625889831,19.2276863742833,0 72.86290273983551,19.2277424415889,0 72.8628997902875,19.2277985385293,0 72.86289783511469,19.2278858317306,0 72.8628960300384,19.227973127848,0 72.862894375064,19.2280604266485,0 72.86289287019601,19.2281477278993,0 72.86289151543861,19.2282350313675,0 72.86289031079581,19.2283223368202,0 72.8628892562709,19.2284096440246,0 72.8628883518671,19.2284969527477,0 72.86288759758691,19.2285842627567,0 72.8628869934327,19.2286715738186,0 72.86288653940621,19.2287588857006,0 72.8628862355089,19.2288461981697,0 72.8628708601493,19.2308223277608,0 72.86285055146171,19.2334319460288,0 72.86277620745589,19.2334342671481,0 72.86275406656431,19.2344876209677,0 72.86273192467201,19.2355409746447,0 72.86280533632311,19.2355421185228,0 72.8628053045326,19.2355665775544,0 72.8628054030043,19.2355910364257,0 72.8628056317359,19.2356154945109,0 72.8628059907214,19.2356399511841,0 72.8628064799518,19.2356644058194,0 72.8628070994146,19.2356888577911,0 72.862807849094,19.2357133064734,0 72.86280872897081,19.2357377512407,0 72.86280973902279,19.2357621914675,0 72.862810879224,19.2357866265284,0 72.86281214954521,19.235811055798,0 72.8628135499542,19.2358354786512,0 72.8628152046028,19.2358617007437,0 72.8628170071342,19.2358879140395,0 72.8628189574963,19.2359141177862,0 72.8628210556335,19.2359403112316,0 72.86282330148561,19.2359664936238,0 72.8628256949881,19.2359926642113,0 72.8628282360725,19.236018822243,0 72.8628309246659,19.236044966968,0 72.8628337606911,19.2360710976357,0 72.8628367440669,19.2360972134962,0 72.8628398747077,19.2361233137999,0 72.8628431525236,19.2361493977975,0 72.8628456477128,19.2361684708416,0 72.86284817742791,19.236187539782,0 72.86285074166111,19.2362066045624,0 72.8628533404051,19.2362256651265,0 72.8628559736521,19.2362447214179,0 72.8628586413943,19.2362637733801,0 72.86286134362391,19.236282820957,0 72.8628640803329,19.2363018640921,0 72.8628668515131,19.2363209027291,0 72.86286965715649,19.2363399368119,0 72.8628724972547,19.236358966284,0 72.8628753717994,19.2363779910893,0 72.8628821075619,19.2364228347704,0 72.86331460751521,19.2392979920641,0 72.86374711730571,19.242173148948,0 72.86365379529239,19.2421879580882,0 72.8638140374016,19.2432437608172,0 72.8639742808564,19.2442995634903,0 72.86406462969261,19.2442838059065,0 72.8642442674435,19.2454779283847,0 72.8644239068921,19.2466720507892,0 72.86449043821691,19.2470808382515,0 72.86450948169529,19.2471780636001,0 72.8645301589943,19.2472749874217,0 72.86455246483381,19.2473715849512,0 72.8645763935171,19.2474678315071,0 72.86460193893321,19.2475637024972,0 72.8646290945578,19.2476591734253,0 72.8646578534552,19.2477542198975,0 72.8646882082798,19.2478488176281,0 72.8647201512786,19.2479429424463,0 72.8647536742924,19.2480365703018,0 72.8647887687584,19.2481296772713,0 72.8648254257124,19.2482222395649,0 72.8648636357904,19.2483142335312,0 72.864903389232,19.2484056356644,0 72.8649446758823,19.2484964226099,0 72.8649874851945,19.2485865711701,0 72.86503180623259,19.2486760583104,0 72.8650776276744,19.2487648611655,0 72.8651249378145,19.2488529570444,0 72.8651737245664,19.2489403234372,0 72.865223975467,19.24902693802,0 72.8652756776786,19.2491127786612,0 72.86532881799251,19.2491978234267,0 72.8653833828328,19.249282050586,0 72.86550158307681,19.2494504200137,0 72.86561989871809,19.2496187164031,0 72.865738329707,19.2497869396829,0 72.8658568759938,19.249955089782,0 72.8659755375288,19.250123166629,0 72.8660943142619,19.250291170153,0 72.8662132061434,19.2504591002826,0 72.8663322131232,19.2506269569468,0 72.8664513351515,19.2507947400745,0 72.86657057217791,19.2509624495948,0 72.8666899241527,19.2511300854365,0 72.8668093910255,19.2512976475285,0 72.86693706046459,19.2514765445001,0 72.867064574609,19.2516555414562,0 72.867191933371,19.2518346382751,0 72.8673191366638,19.2520138348351,0 72.86744618440019,19.2521931310142,0 72.8675730764933,19.2523725266906,0 72.8676998128561,19.2525520217422,0 72.8678263934022,19.2527316160471,0 72.8679528180445,19.252911309483,0 72.8680790866969,19.2530911019277,0 72.86820519927279,19.2532709932591,0 72.86833115568579,19.2534509833547,0 72.86976824249589,19.2555737544063,0 72.86978873313061,19.2556019628807,0 72.8698090479695,19.2556302858129,0 72.86982918630341,19.2556587222147,0 72.8698491474297,19.2556872710942,0 72.86986893065171,19.2557159314551,0 72.8698885352793,19.2557447022975,0 72.8699079606283,19.2557735826176,0 72.86992720602071,19.2558025714077,0 72.86994627078511,19.2558316676564,0 72.86996515425611,19.2558608703486,0 72.86998385577491,19.2558901784654,0 72.8700023746887,19.255919590984,0 72.8716736414557,19.2583881875084,0 
					</coordinates>
				</LinearRing>
			</outerBoundaryIs>
		</Polygon>
	</Placemark>
	<Placemark>
		<name>Andheri East (M) Station</name>
		<LookAt>
			<longitude>72.85247715252896</longitude>
			<latitude>19.11553300191554</latitude>
			<altitude>0</altitude>
			<heading>9.030840976156446</heading>
			<tilt>0</tilt>
			<range>871.1703583320079</range>
			<gx:altitudeMode>relativeToSeaFloor</gx:altitudeMode>
		</LookAt>
		<styleUrl>#msn_rail0</styleUrl>
		<Point>
			<gx:drawOrder>1</gx:drawOrder>
			<coordinates>72.85510625483569,19.11498646869617,0</coordinates>
		</Point>
	</Placemark>
	<Placemark>
		<name>Shankarwadi (M) Station</name>
		<LookAt>
			<longitude>72.85296772205113</longitude>
			<latitude>19.12886526065805</latitude>
			<altitude>0</altitude>
			<heading>10.83684457854476</heading>
			<tilt>0</tilt>
			<range>801.4647834519985</range>
			<gx:altitudeMode>relativeToSeaFloor</gx:altitudeMode>
		</LookAt>
		<styleUrl>#msn_rail1</styleUrl>
		<Point>
			<gx:drawOrder>1</gx:drawOrder>
			<coordinates>72.855255385606,19.128464788094,0</coordinates>
		</Point>
	</Placemark>
	<Placemark>
		<name>JVLR (M) Station</name>
		<LookAt>
			<longitude>72.85127400534094</longitude>
			<latitude>19.14285448550439</latitude>
			<altitude>0</altitude>
			<heading>8.804245697396548</heading>
			<tilt>0</tilt>
			<range>913.5138823709442</range>
			<gx:altitudeMode>relativeToSeaFloor</gx:altitudeMode>
		</LookAt>
		<styleUrl>#msn_rail1</styleUrl>
		<Point>
			<gx:drawOrder>1</gx:drawOrder>
			<coordinates>72.85503375387131,19.14267943365707,0</coordinates>
		</Point>
	</Placemark>
	<Placemark>
		<name>Mahanand (M) Station</name>
		<LookAt>
			<longitude>72.85292566305435</longitude>
			<latitude>19.15233209939911</latitude>
			<altitude>0</altitude>
			<heading>7.449963332806085</heading>
			<tilt>0</tilt>
			<range>742.4691289598923</range>
			<gx:altitudeMode>relativeToSeaFloor</gx:altitudeMode>
		</LookAt>
		<styleUrl>#msn_rail1</styleUrl>
		<Point>
			<gx:drawOrder>1</gx:drawOrder>
			<coordinates>72.85642065787056,19.15229721238208,0</coordinates>
		</Point>
	</Placemark>
	<Placemark>
		<name>Aarey (M) Station</name>
		<LookAt>
			<longitude>72.85554684317154</longitude>
			<latitude>19.16736217503555</latitude>
			<altitude>0</altitude>
			<heading>7.450822830515947</heading>
			<tilt>0</tilt>
			<range>721.6547762412279</range>
			<gx:altitudeMode>relativeToSeaFloor</gx:altitudeMode>
		</LookAt>
		<styleUrl>#msn_rail1</styleUrl>
		<Point>
			<gx:drawOrder>1</gx:drawOrder>
			<coordinates>72.85841487826539,19.16715191101439,0</coordinates>
		</Point>
	</Placemark>
	<Placemark>
		<name>Pathanwadi (M) Station</name>
		<LookAt>
			<longitude>72.85524570917298</longitude>
			<latitude>19.17952002081784</latitude>
			<altitude>0</altitude>
			<heading>7.450723171446461</heading>
			<tilt>0</tilt>
			<range>699.7500240433203</range>
			<gx:altitudeMode>relativeToSeaFloor</gx:altitudeMode>
		</LookAt>
		<styleUrl>#msn_rail1</styleUrl>
		<Point>
			<gx:drawOrder>1</gx:drawOrder>
			<coordinates>72.85814981585078,19.17956854822024,0</coordinates>
		</Point>
	</Placemark>
	<Placemark>
		<name>Pusha Park (M) Station</name>
		<LookAt>
			<longitude>72.85392499839193</longitude>
			<latitude>19.18962185151533</latitude>
			<altitude>0</altitude>
			<heading>7.450317553236973</heading>
			<tilt>4.314238554772321</tilt>
			<range>1029.349419291643</range>
			<gx:altitudeMode>relativeToSeaFloor</gx:altitudeMode>
		</LookAt>
		<styleUrl>#msn_rail1</styleUrl>
		<Point>
			<gx:drawOrder>1</gx:drawOrder>
			<coordinates>72.85818138390742,19.1896221131549,0</coordinates>
		</Point>
	</Placemark>
	<Placemark>
		<name>Bandongari (M) Station</name>
		<LookAt>
			<longitude>72.85714618695313</longitude>
			<latitude>19.19894952359701</latitude>
			<altitude>0</altitude>
			<heading>2.709056533264639e-009</heading>
			<tilt>4.3147050829888</tilt>
			<range>1025.185590295161</range>
			<gx:altitudeMode>relativeToSeaFloor</gx:altitudeMode>
		</LookAt>
		<styleUrl>#msn_rail1</styleUrl>
		<Point>
			<gx:drawOrder>1</gx:drawOrder>
			<coordinates>72.86042814653344,19.19820214134585,0</coordinates>
		</Point>
	</Placemark>
	<Placemark>
		<name>Mahindra &amp; Mahindra (M) Station</name>
		<LookAt>
			<longitude>72.86094120354115</longitude>
			<latitude>19.20353755051756</latitude>
			<altitude>0</altitude>
			<heading>0.6787773193912315</heading>
			<tilt>19.99157083547798</tilt>
			<range>624.8357936158616</range>
			<gx:altitudeMode>relativeToSeaFloor</gx:altitudeMode>
		</LookAt>
		<styleUrl>#msn_rail1</styleUrl>
		<Point>
			<gx:drawOrder>1</gx:drawOrder>
			<coordinates>72.86314360583172,19.20363526923429,0</coordinates>
		</Point>
	</Placemark>
	<Placemark>
		<name>Magathane (M) Station</name>
		<LookAt>
			<longitude>72.86413787101058</longitude>
			<latitude>19.21671418293517</latitude>
			<altitude>0</altitude>
			<heading>0.6798281342459651</heading>
			<tilt>19.99154908526492</tilt>
			<range>617.7528712695205</range>
			<gx:altitudeMode>relativeToSeaFloor</gx:altitudeMode>
		</LookAt>
		<styleUrl>#msn_rail1</styleUrl>
		<Point>
			<gx:drawOrder>1</gx:drawOrder>
			<coordinates>72.86668172223148,19.21680076858426,0</coordinates>
		</Point>
	</Placemark>
	<Placemark>
		<name>Devipada (M) Station</name>
		<LookAt>
			<longitude>72.86107398787755</longitude>
			<latitude>19.2235109878815</latitude>
			<altitude>0</altitude>
			<heading>0.6780663124416372</heading>
			<tilt>13.29625206969197</tilt>
			<range>818.0999516510053</range>
			<gx:altitudeMode>relativeToSeaFloor</gx:altitudeMode>
		</LookAt>
		<styleUrl>#msn_rail1</styleUrl>
		<Point>
			<gx:drawOrder>1</gx:drawOrder>
			<coordinates>72.86418787376633,19.2236273870949,0</coordinates>
		</Point>
	</Placemark>
	<Placemark>
		<name>Naional Park (M) Station</name>
		<LookAt>
			<longitude>72.86005742538555</longitude>
			<latitude>19.2343735352691</latitude>
			<altitude>0</altitude>
			<heading>-3.161299885927739</heading>
			<tilt>11.55724003533271</tilt>
			<range>1038.981335966978</range>
			<gx:altitudeMode>relativeToSeaFloor</gx:altitudeMode>
		</LookAt>
		<styleUrl>#msn_rail1</styleUrl>
		<Point>
			<gx:drawOrder>1</gx:drawOrder>
			<coordinates>72.86311864149404,19.23424617255943,0</coordinates>
		</Point>
	</Placemark>
	<Placemark>
		<name>Ovaripada (M) Station</name>
		<LookAt>
			<longitude>72.8599884575729</longitude>
			<latitude>19.24220210572984</latitude>
			<altitude>0</altitude>
			<heading>-3.161323082450424</heading>
			<tilt>11.55725350981311</tilt>
			<range>1046.46870630096</range>
			<gx:altitudeMode>relativeToSeaFloor</gx:altitudeMode>
		</LookAt>
		<styleUrl>#msn_rail1</styleUrl>
		<Point>
			<gx:drawOrder>1</gx:drawOrder>
			<coordinates>72.86417595164829,19.24292971775673,0</coordinates>
		</Point>
	</Placemark>
</Document>
</kml>
