<?xml version="1.0" encoding="UTF-8"?>
<kml xmlns="http://www.opengis.net/kml/2.2" xmlns:gx="http://www.google.com/kml/ext/2.2" xmlns:kml="http://www.opengis.net/kml/2.2" xmlns:atom="http://www.w3.org/2005/Atom">
<Document>
	<name>ML-9(Dahisar -Mira Bhayander)</name>
	<open>1</open>
	<Style id="s_ylw-pushpin">
		<IconStyle>
			<scale>1.1</scale>
			<Icon>
				<href>http://maps.google.com/mapfiles/kml/pushpin/ylw-pushpin.png</href>
			</Icon>
			<hotSpot x="20" y="2" xunits="pixels" yunits="pixels"/>
		</IconStyle>
		<LineStyle>
			<color>ff00aa00</color>
			<width>4.2</width>
		</LineStyle>
		<PolyStyle>
			<color>9900aa00</color>
		</PolyStyle>
	</Style>
	<StyleMap id="m_ylw-pushpin">
		<Pair>
			<key>normal</key>
			<styleUrl>#s_ylw-pushpin</styleUrl>
		</Pair>
		<Pair>
			<key>highlight</key>
			<styleUrl>#s_ylw-pushpin_hl</styleUrl>
		</Pair>
	</StyleMap>
	<Style id="s_ylw-pushpin_hl">
		<IconStyle>
			<scale>1.3</scale>
			<Icon>
				<href>http://maps.google.com/mapfiles/kml/pushpin/ylw-pushpin.png</href>
			</Icon>
			<hotSpot x="20" y="2" xunits="pixels" yunits="pixels"/>
		</IconStyle>
		<LineStyle>
			<color>ff00aa00</color>
			<width>4.2</width>
		</LineStyle>
		<PolyStyle>
			<color>9900aa00</color>
		</PolyStyle>
	</Style>
	<Style id="s_ylw-pushpin0">
		<IconStyle>
			<scale>1.1</scale>
			<Icon>
				<href>http://maps.google.com/mapfiles/kml/pushpin/ylw-pushpin.png</href>
			</Icon>
			<hotSpot x="20" y="2" xunits="pixels" yunits="pixels"/>
		</IconStyle>
		<LineStyle>
			<color>ff00aa00</color>
			<width>4.2</width>
		</LineStyle>
		<PolyStyle>
			<color>9900aa00</color>
		</PolyStyle>
	</Style>
	<StyleMap id="m_ylw-pushpin0">
		<Pair>
			<key>normal</key>
			<styleUrl>#s_ylw-pushpin0</styleUrl>
		</Pair>
		<Pair>
			<key>highlight</key>
			<styleUrl>#s_ylw-pushpin_hl0</styleUrl>
		</Pair>
	</StyleMap>
	<Style id="s_ylw-pushpin_hl0">
		<IconStyle>
			<scale>1.3</scale>
			<Icon>
				<href>http://maps.google.com/mapfiles/kml/pushpin/ylw-pushpin.png</href>
			</Icon>
			<hotSpot x="20" y="2" xunits="pixels" yunits="pixels"/>
		</IconStyle>
		<LineStyle>
			<color>ff00aa00</color>
			<width>4.2</width>
		</LineStyle>
		<PolyStyle>
			<color>9900aa00</color>
		</PolyStyle>
	</Style>
	<Placemark>
		<styleUrl>#m_ylw-pushpin</styleUrl>
		<Polygon>
			<outerBoundaryIs>
				<LinearRing>
					<coordinates>
						72.82684230706811,19.2875708907821,0 72.8368410916224,19.2929651136777,0 72.8368735202274,19.2929828755664,0 72.8369060504146,19.2930004691962,0 72.836938681216,19.2930178940432,0 72.8369714116602,19.2930351495888,0 72.8370042407728,19.2930522353194,0 72.8370371675766,19.2930691507262,0 72.8370701910915,19.2930858953057,0 72.8371033103345,19.2931024685594,0 72.8371365243196,19.2931188699941,0 72.83716983205819,19.2931350991214,0 72.83720323255881,19.2931511554582,0 72.83723672482721,19.2931670385265,0 72.83728250876339,19.2931881134384,0 72.83732853221839,19.29320871265,0 72.8373747897099,19.2932288337073,0 72.8374212757283,19.2932484742136,0 72.83746798473599,19.2932676318294,0 72.83751491116961,19.2932863042727,0 72.8375620494392,19.2933044893192,0 72.83760939393019,19.2933221848026,0 72.8376569390028,19.2933393886152,0 72.8377046789937,19.2933560987076,0 72.83775260821651,19.2933723130893,0 72.83780072096189,19.2933880298289,0 72.8378540904485,19.2934044047004,0 72.83790765825231,19.2934201849809,0 72.8379614170255,19.293435368506,0 72.8380153593947,19.293449953193,0 72.8380694779608,19.2934639370414,0 72.83812376530079,19.293477318133,0 72.8381782139686,19.2934900946323,0 72.83823281649561,19.2935022647869,0 72.83828756539261,19.2935138269272,0 72.83834245314981,19.2935247794674,0 72.8383974722388,19.2935351209053,0 72.8384526151128,19.2935448498221,0 72.8385934503666,19.2935668778046,0 72.83861541891289,19.2935698184509,0 72.8386373989435,19.2935726806873,0 72.8386593901478,19.2935754644731,0 72.83868139221531,19.2935781697691,0 72.8387034048354,19.293580796537,0 72.8387254276971,19.2935833447398,0 72.8387474604892,19.2935858143414,0 72.8387695029009,19.2935882053071,0 72.8387915546207,19.293590517603,0 72.838813615337,19.2935927511964,0 72.8388356847385,19.2935949060558,0 72.8388577625133,19.2935969821508,0 72.8396577835239,19.2936713333799,0 72.8400358697736,19.2937050007863,0 72.84167793690089,19.2938562363016,0 72.84215740316441,19.2939021323684,0 72.84216603560191,19.293822391069,0 72.8443903092618,19.294031261068,0 72.8443835233147,19.2941074908079,0 72.84445332205961,19.2941142414636,0 72.8464349034423,19.2942972869548,0 72.8482036498127,19.2944601628383,0 72.8482114595422,19.2943817438966,0 72.8504368188666,19.2945899283267,0 72.85042839337839,19.2946664117624,0 72.85065702138979,19.2946820687661,0 72.85074007532749,19.2946844894017,0 72.85074513889229,19.2946847337938,0 72.8507502031305,19.2946849652649,0 72.8507552680055,19.2946851838133,0 72.85076033348091,19.2946853894375,0 72.8507653995199,19.2946855821359,0 72.850770466086,19.2946857619072,0 72.8507755331427,19.29468592875,0 72.8507806006533,19.2946860826633,0 72.8507856685811,19.2946862236457,0 72.85079073688981,19.2946863516964,0 72.8507958055425,19.2946864668144,0 72.8508008745028,19.2946865689989,0 72.8508115285773,19.2946870568934,0 72.8508221857482,19.2946874794461,0 72.85083284557101,19.2946878366392,0 72.8508435076011,19.2946881284579,0 72.85085417139391,19.29468835489,0 72.8508648365044,19.294688515926,0 72.850875502488,19.2946886115594,0 72.85088616889961,19.2946886417859,0 72.85089683529451,19.2946886066045,0 72.8509075012277,19.2946885060165,0 72.8509181662543,19.2946883400261,0 72.8509288299296,19.2946881086404,0 72.8509522124985,19.294688126039,0 72.8509755948345,19.2946880253726,0 72.8509989762765,19.2946878066441,0 72.851022356163,19.2946874698598,0 72.85104573383291,19.2946870150289,0 72.8510691086254,19.2946864421646,0 72.851092479879,19.2946857512829,0 72.851115846933,19.2946849424033,0 72.8511392091265,19.2946840155489,0 72.8511625657989,19.2946829707456,0 72.8511859162895,19.2946818080232,0 72.8512092599382,19.2946805274144,0 72.8512696915757,19.2946757884788,0 72.8513301380066,19.2946712228021,0 72.8513905986802,19.2946668304259,0 72.8514510730453,19.2946626113905,0 72.8515115605509,19.2946585657342,0 72.8515720606455,19.2946546934939,0 72.8516325727777,19.294650994705,0 72.8516930963961,19.2946474694011,0 72.85175363094901,19.2946441176144,0 72.8518141758849,19.2946409393755,0 72.8518747306516,19.2946379347134,0 72.8519352946974,19.2946351036556,0 72.85197834123269,19.29463420627,0 72.85202139385839,19.29463362954,0 72.85206444992519,19.2946333735011,0 72.8521075067836,19.2946334381692,0 72.852150561784,19.2946338235402,0 72.85219361227711,19.2946345295904,0 72.85223665561369,19.2946355562765,0 72.85227968914489,19.2946369035351,0 72.85232271022269,19.2946385712836,0 72.8523657161997,19.2946405594193,0 72.85240870442961,19.2946428678198,0 72.8524516722669,19.2946454963431,0 72.85249673822349,19.2946490408484,0 72.85254179436851,19.2946526961013,0 72.85258684040031,19.2946564620778,0 72.8526318760168,19.2946603387523,0 72.85267690091651,19.294664326099,0 72.8527219147975,19.2946684240912,0 72.85276691735859,19.2946726327015,0 72.85281190829809,19.2946769519015,0 72.8528568873146,19.2946813816625,0 72.85290185410671,19.2946859219547,0 72.8529468083732,19.2946905727478,0 72.8529917498132,19.2946953340105,0 72.8536325221052,19.2947591973824,0 72.8547314800208,19.2948687210963,0 72.8551718612167,19.2949126082349,0 72.8562455885356,19.2950196083408,0 72.85744376131009,19.2951386899854,0 72.8575209174701,19.2951470924992,0 72.85759838828071,19.2951522635783,0 72.85767602369511,19.2951541932069,0 72.8577536733478,19.2951528776471,0 72.8578311868452,19.2951483194466,0 72.857908414058,19.2951405274332,0 72.857985205411,19.2951295166983,0 72.8580614121732,19.2951153085672,0 72.8581368867462,19.295097930558,0 72.8582114829497,19.2950774163283,0 72.8582850563045,19.2950538056101,0 72.8583574643129,19.2950271441326,0 72.8583951860559,19.2950115257225,0 72.85843249976109,19.2949950473317,0 72.85846938368511,19.2949777185621,0 72.8585058163353,19.2949595495117,0 72.8585417764815,19.2949405507678,0 72.85857724316971,19.2949207334012,0 72.8586121957326,19.2949001089598,0 72.8586466138031,19.2948786894618,0 72.85868047732529,19.2948564873886,0 72.8587137665666,19.2948335156777,0 72.85874646212901,19.294809787715,0 72.8587785449605,19.2947853173272,0 72.8587206387549,19.2947345872468,0 72.8602690489718,19.2932075563681,0 72.86033041482131,19.2932622847815,0 72.86095421654341,19.2926403967969,0 72.8628539496448,19.2907466323258,0 72.86424039141269,19.2893623026538,0 72.86503122391311,19.2885750352272,0 72.865098400454,19.288505737156,0 72.8653889933952,19.2882220564706,0 72.8654116236571,19.2882009021226,0 72.8654343779338,19.2881798680618,0 72.86545725551611,19.2881589549438,0 72.8654802556912,19.2881381634201,0 72.8655033777422,19.2881174941388,0 72.8655266209484,19.288096947744,0 72.8655499845857,19.288076524876,0 72.8655734679255,19.2880562261713,0 72.8655970702365,19.2880360522624,0 72.8656207907826,19.288016003778,0 72.8656446288248,19.2879960813431,0 72.86566858362031,19.2879762855783,0 72.8656817628592,19.2879649342497,0 72.86569502129881,19.2879536663861,0 72.8657083583531,19.2879424824857,0 72.8657217734321,19.2879313830428,0 72.8657352659427,19.2879203685484,0 72.8657488352883,19.2879094394895,0 72.8657624808689,19.2878985963492,0 72.86577620208099,19.2878878396071,0 72.86578999831811,19.2878771697388,0 72.86580386896991,19.2878665872161,0 72.86581781342331,19.2878560925068,0 72.8658318310617,19.2878456860752,0 72.86588479684811,19.2878061427025,0 72.8659378276098,19.2877666779368,0 72.86599092321769,19.2877272918743,0 72.86604408354199,19.287687984611,0 72.86609730845311,19.2876487562429,0 72.866150597821,19.2876096068656,0 72.8662039515157,19.2875705365748,0 72.866257369407,19.2875315454657,0 72.8663108513646,19.2874926336334,0 72.866364397258,19.2874538011729,0 72.86641800695659,19.2874150481789,0 72.8664716803294,19.2873763747459,0 72.86679874696139,19.2871379192213,0 72.8681215684728,19.2861749476296,0 72.8695516866042,19.2851335406276,0 72.8699166131705,19.2848677982392,0 72.8698672683057,19.2848067003371,0 72.87081910139111,19.2841135601812,0 72.8716409525818,19.2835150657089,0 72.87169050964209,19.2835760089097,0 72.872088496685,19.2832861807689,0 72.8737130287119,19.2821031187148,0 72.8740330887329,19.2818700317362,0 72.87421925147881,19.2817344562193,0 72.875413886807,19.2808644365828,0 72.87595621926511,19.2804694650003,0 72.8762458589683,19.2802585237651,0 72.87709711296409,19.2796367221498,0 72.8780950332676,19.2789069166194,0 72.8790557986663,19.2782037864805,0 72.87915739284171,19.278129434734,0 72.87912479346831,19.2780892682644,0 72.8791078975603,19.278068450402,0 72.87921750408709,19.2779882346758,0 72.880302682343,19.2771940368477,0 72.88087826131181,19.276772787933,0 72.88092818092061,19.2768322489956,0 72.8809325126533,19.2768291232108,0 72.8809368340317,19.2768259845287,0 72.8809411450132,19.2768228329805,0 72.8809454455551,19.2768196685971,0 72.8809497356153,19.2768164914098,0 72.8809540151513,19.2768133014498,0 72.88095828412121,19.2768100987486,0 72.88096254248261,19.2768068833376,0 72.8809667901938,19.2768036552487,0 72.88097102721279,19.2768004145136,0 72.88097525349789,19.2767971611643,0 72.8809794690075,19.2767938952328,0 72.8809997237295,19.2767780059368,0 72.8810197884585,19.2767619007382,0 72.8810396606424,19.2767455816854,0 72.8810593377538,19.2767290508541,0 72.8810788172901,19.2767123103468,0 72.8810980967735,19.2766953622926,0 72.8811171737522,19.2766782088472,0 72.88113604579971,19.2766608521924,0 72.8811547105158,19.2766432945357,0 72.88117316552641,19.2766255381101,0 72.8811914084846,19.2766075851744,0 72.88120943707,19.2765894380117,0 72.8812249656205,19.2765732763022,0 72.8812402458552,19.2765569025589,0 72.8812552745639,19.2765403202215,0 72.881270048589,19.2765235327742,0 72.8812845648269,19.2765065437436,0 72.8812988202276,19.2764893566992,0 72.88131281179631,19.2764719752519,0 72.88132653659361,19.2764544030534,0 72.8813399917362,19.2764366437955,0 72.88135317439691,19.2764187012094,0 72.8813660818066,19.2764005790646,0 72.8813787112534,19.2763822811686,0 72.8814137412972,19.2763283199786,0 72.8814465517129,19.2762731149448,0 72.8814770935946,19.2762167483569,0 72.8815053214183,19.2761593042359,0 72.8815311931094,19.2761008682087,0 72.8815546701056,19.2760415273812,0 72.88157571741441,19.2759813702076,0 72.8815943036648,19.2759204863587,0 72.8816104011547,19.2758589665888,0 72.88162398589181,19.2757969025996,0 72.8816350376293,19.2757343869042,0 72.8816435398963,19.275671512689,0 72.88165257390639,19.2755976440862,0 72.8816615276847,19.2755237666746,0 72.881670401222,19.2754498805327,0 72.8816791945091,19.2753759857389,0 72.8816879075365,19.275302082372,0 72.8816965402951,19.2752281705106,0 72.881705092776,19.2751542502333,0 72.88171356497,19.2750803216186,0 72.88172195686821,19.2750063847453,0 72.88173026846199,19.2749324396919,0 72.8817384997424,19.2748584865372,0 72.881746650701,19.2747845253598,0 72.8817539992568,19.2746959833577,0 72.8817630343636,19.2746075821773,0 72.881773753058,19.274519350786,0 72.8817861518252,19.2744313180953,0 72.88180022659959,19.2743435129519,0 72.8818159727667,19.2742559641275,0 72.881833385164,19.2741687003101,0 72.8818524580834,19.2740817500942,0 72.8818731852724,19.2739951419714,0 72.88189555993679,19.2739089043211,0 72.8819195747425,19.2738230654016,0 72.8819452218176,19.2737376533401,0 72.8820231377963,19.2735270362831,0 72.88209605141451,19.2733336589611,0 72.8821519977447,19.2731981560263,0 72.8822115666883,19.272976454498,0 72.8822185739258,19.2729293518917,0 72.8822230446788,19.2728819714106,0 72.8822249673342,19.2728344361491,0 72.8822243368991,19.2727868696035,0 72.8822211550138,19.2727393953515,0 72.8822154299469,19.2726921367307,0 72.8822071765743,19.2726452165186,0 72.88219641634031,19.2725987566133,0 72.882183177202,19.272552877717,0 72.88216749355669,19.2725076990221,0 72.882149406152,19.2724633379021,0 72.8821289619808,19.2724199096061,0 72.8820900026376,19.272364214617,0 72.88204870426,19.2723100607562,0 72.88200513436659,19.2722575365566,0 72.8819593641897,19.2722067278868,0 72.8819114685582,19.2721577178105,0 72.88186152577561,19.2721105864513,0 72.8818096174921,19.2720654108607,0 72.8817558285707,19.2720222648934,0 72.8817002469489,19.2719812190853,0 72.8816429634947,19.2719423405394,0 72.8815840718582,19.2719056928152,0 72.881523668318,19.2718713358253,0 72.8813001127963,19.2717200773739,0 72.88125135403359,19.2717839264731,0 72.8804219034914,19.2712127076661,0 72.87944336704879,19.2705388082286,0 72.8794924965667,19.2704737871456,0 72.879273648405,19.2703174785137,0 72.87913816406,19.2702210715656,0 72.8790334338424,19.2701465482732,0 72.87866286086,19.2698729599083,0 72.8786332546029,19.2698507460788,0 72.8786040188528,19.2698280940381,0 72.87857516080121,19.269805009358,0 72.8785466875463,19.2697814977172,0 72.8785186060922,19.2697575648992,0 72.87849092334611,19.269733216791,0 72.8784636461176,19.269708459382,0 72.87843678111589,19.2696832987621,0 72.87841033494951,19.2696577411204,0 72.87838431412339,19.2696317927439,0 72.878358725038,19.2696054600153,0 72.8783335739878,19.2695787494121,0 72.8783113220648,19.2695566188789,0 72.878289298466,19.2695342833227,0 72.87826750528571,19.2695117448675,0 72.8782459445967,19.2694890056572,0 72.8782246184491,19.2694660678543,0 72.8782035288714,19.2694429336402,0 72.87818267786901,19.2694196052153,0 72.878162067425,19.2693960847983,0 72.8781416994994,19.269372374626,0 72.8781215760292,19.2693484769536,0 72.87810169892831,19.2693243940538,0 72.87808207008681,19.2693001282169,0 72.87805976021291,19.2692728152874,0 72.8780376284134,19.2692453720195,0 72.8780156755324,19.26921779946,0 72.8779939024076,19.2691900986611,0 72.87797230986941,19.2691622706795,0 72.8779508987414,19.2691343165768,0 72.8779296698406,19.2691062374196,0 72.87790862397669,19.269078034279,0 72.87788776195229,19.2690497082312,0 72.87786708456351,19.2690212603567,0 72.877846592599,19.2689926917407,0 72.8778262868403,19.2689640034732,0 72.8778074307442,19.2689380849503,0 72.8777886212433,19.2689121359145,0 72.8777698583921,19.2688861564414,0 72.8777511422455,19.2688601466065,0 72.8777324728578,19.2688341064857,0 72.8777138502831,19.2688080361546,0 72.8776952745761,19.2687819356893,0 72.8776767457904,19.2687558051656,0 72.8776582639801,19.2687296446597,0 72.8776398291989,19.2687034542475,0 72.87762144150059,19.2686772340056,0 72.8776031009385,19.2686509840102,0 72.87757787372951,19.2686150376686,0 72.8775524271539,19.2685792310459,0 72.87752676206981,19.2685435653494,0 72.8775008793428,19.2685080417814,0 72.8774747798458,19.2684726615401,0 72.87744846445899,19.2684374258181,0 72.8774219340696,19.2684023358036,0 72.8773951895725,19.2683673926798,0 72.8773682318696,19.2683325976247,0 72.87734106187,19.2682979518117,0 72.87731368048981,19.2682634564089,0 72.8772860886525,19.2682291125794,0 72.87709849202901,19.2679621107419,0 72.87706689720029,19.2679147735005,0 72.87703539718279,19.2678673793159,0 72.8770039920903,19.2678199283591,0 72.8769726820362,19.2677724208018,0 72.87694146713351,19.2677248568155,0 72.8769103474951,19.267677236572,0 72.876879323233,19.2676295602435,0 72.8768483944595,19.2675818280021,0 72.876817561286,19.2675340400205,0 72.87678682382401,19.2674861964711,0 72.87675618218449,19.2674382975268,0 72.8767256364779,19.2673903433609,0 72.8767029040033,19.2673564523874,0 72.8766799718431,19.2673226829594,0 72.8766568407182,19.2672890361381,0 72.87663351135539,19.2672555129805,0 72.8766099844879,19.26722211454,0 72.87658626085501,19.2671888418661,0 72.8765623412024,19.2671556960043,0 72.8765382262819,19.2671226779959,0 72.8765139168511,19.2670897888786,0 72.87648941367419,19.2670570296857,0 72.876464717521,19.2670244014466,0 72.87643982916789,19.2669919051864,0 72.8758639367112,19.2662610867644,0 72.8755775055246,19.2658973784471,0 72.87551233007861,19.2659437660684,0 72.8750595944132,19.2653700842987,0 72.8748305437333,19.2650892546417,0 72.8744154515684,19.2645538537067,0 72.87417197713251,19.2642453306954,0 72.8742367311106,19.2641987163925,0 72.8741848356222,19.2641305403747,0 72.87410670405821,19.2640289433517,0 72.8740823343424,19.2639964712312,0 72.8740582042409,19.2639638381278,0 72.8740343149327,19.2639310456362,0 72.874010667585,19.2638980953586,0 72.8739872633531,19.2638649889054,0 72.8739641033805,19.2638317278939,0 72.8739411887986,19.2637983139497,0 72.8739185207271,19.2637647487053,0 72.8738961002735,19.2637310338011,0 72.8738739285331,19.2636971708843,0 72.8738520065891,19.2636631616098,0 72.87383033551259,19.2636290076393,0 72.8738058230615,19.2635894970313,0 72.8737816243607,19.2635498123796,0 72.87375774078011,19.2635099559308,0 72.87373417367171,19.2634699299417,0 72.8737109243698,19.2634297366785,0 72.87368799419021,19.2633893784171,0 72.87366538443131,19.2633488574425,0 72.8736430963728,19.2633081760488,0 72.87362113127639,19.2632673365396,0 72.8735994903856,19.2632263412272,0 72.8735781749254,19.2631851924325,0 72.8735571861023,19.2631438924857,0 72.873356235361,19.2627400849996,0 72.87333663111789,19.262700937369,0 72.8733165877547,19.2626619908082,0 72.87329610755801,19.2626232497596,0 72.873275192864,19.2625847186421,0 72.8732538460587,19.2625464018505,0 72.8732320695771,19.2625083037553,0 72.8732098659037,19.2624704287022,0 72.873187237571,19.2624327810111,0 72.8731641871606,19.2623953649763,0 72.87314071730189,19.2623581848656,0 72.8731168306723,19.2623212449196,0 72.8730925299965,19.2622845493519,0 72.87306627626469,19.262245478743,0 72.87303991931179,19.2622064708682,0 72.8730134593041,19.2621675259735,0 72.87298689640851,19.2621286443047,0 72.8729602307926,19.2620898261067,0 72.8729334626246,19.2620510716244,0 72.87290659207341,19.262012381102,0 72.87287961930851,19.2619737547837,0 72.87285254449991,19.2619351929129,0 72.87282536781881,19.2618966957328,0 72.8727980894362,19.2618582634861,0 72.8727707095244,19.2618198964153,0 72.87273569237929,19.2617702965235,0 72.8727013300628,19.2617202852856,0 72.87266762793151,19.2616698704983,0 72.87263459123859,19.2616190600211,0 72.872602225134,19.2615678617752,0 72.8725705346626,19.2615162837422,0 72.87253952476431,19.2614643339632,0 72.8725092002725,19.2614120205367,0 72.8724795659143,19.2613593516184,0 72.87245062630881,19.2613063354191,0 72.8724223859667,19.2612529802038,0 72.87239484929,19.2611992942904,0 72.87236797514311,19.2611454412318,0 72.8723416098359,19.2610913618018,0 72.87231575548159,19.2610370603365,0 72.872290414153,19.2609825411897,0 72.8722655878813,19.2609278087328,0 72.8722412786564,19.2608728673544,0 72.8722174884271,19.2608177214593,0 72.87219421910029,19.2607623754696,0 72.8721714725411,19.2607068338226,0 72.8721492505728,19.2606511009717,0 72.8721275549766,19.2605951813854,0 72.8721063874914,19.2605390795476,0 72.87208011057621,19.2604677262298,0 72.8720543077753,19.2603962170312,0 72.8720289801132,19.2603245547928,0 72.87200412859571,19.2602527423622,0 72.87197975420951,19.2601807825925,0 72.8719558579223,19.2601086783427,0 72.8719324406831,19.2600364324779,0 72.87190950342151,19.2599640478683,0 72.8718870470483,19.2598915273901,0 72.8718650724549,19.2598188739246,0 72.8718435805139,19.2597460903583,0 72.8718225720785,19.2596731795833,0 72.87181531428359,19.259648331762,0 72.87180770973239,19.2596235776519,0 72.87179975976601,19.2595989216171,0 72.8717914657862,19.2595743680047,0 72.8717828292554,19.2595499211436,0 72.8717738516964,19.2595255853441,0 72.8717645346922,19.2595013648967,0 72.8717548798857,19.2594772640716,0 72.87174488897909,19.2594532871179,0 72.87173456373419,19.259429438263,0 72.87172390597119,19.2594057217114,0 72.8717129175698,19.2593821416448,0 72.87170176496021,19.2593516316312,0 72.8716907162879,19.2593210875295,0 72.8716797716682,19.2592905096592,0 72.8716689312154,19.25925989834,0 72.871658195043,19.2592292538919,0 72.871647563263,19.2591985766353,0 72.8716370359866,19.2591678668908,0 72.8716266133237,19.2591371249797,0 72.87161629538331,19.2591063512235,0 72.8716060822732,19.2590755459435,0 72.8715959741001,19.2590447094622,0 72.8715859709697,19.2590138421019,0 72.8715780618664,19.2589803496118,0 72.8715693644959,19.2589470338482,0 72.8715598832265,19.2589139115421,0 72.8715496228201,19.2588809993273,0 72.87153858843,19.2588483137323,0 72.87152678559799,19.2588158711715,0 72.8715142202519,19.2587836879374,0 72.87150089870229,19.2587517801923,0 72.8714868276398,19.2587201639599,0 72.8714720141313,19.2586888551179,0 72.87145646561631,19.2586578693893,0 72.87144018990379,19.2586272223348,0 72.8714075029484,19.2585524570306,0 72.8713755283359,19.2584774144122,0 72.8713442686734,19.2584021006011,0 72.8713137265096,19.2583265217405,0 72.8712839043349,19.2582506839953,0 72.8712548045809,19.2581745935516,0 72.87122642962019,19.2580982566161,0 72.871198781766,19.2580216794154,0 72.87117186327291,19.257944868196,0 72.8711456763352,19.2578678292233,0 72.8711202230881,19.2577905687812,0 72.8710955056066,19.2577130931719,0 72.8710392793357,19.2575585201651,0 72.8709823381211,19.2574041834168,0 72.8709246830652,19.2572500859101,0 72.8708663152844,19.2570962306231,0 72.8708072359089,19.2569426205292,0 72.8707474460826,19.2567892585975,0 72.8706869469631,19.2566361477919,0 72.8706257397215,19.2564832910716,0 72.8705638255431,19.2563306913906,0 72.8705012056263,19.2561783516984,0 72.87043788118361,19.2560262749391,0 72.8703738534408,19.2558744640519,0 72.8703040389648,19.2557555723508,0 72.8702330937379,19.2556372859778,0 72.87016102358049,19.2555196146333,0 72.8700878344056,19.2554025679673,0 72.8700135322178,19.2552861555784,0 72.8699381231129,19.2551703870133,0 72.86986161327761,19.2550552717658,0 72.8697840089887,19.2549408192763,0 72.8697053166126,19.2548270389303,0 72.86962554260511,19.2547139400589,0 72.86954469351051,19.2546015319367,0 72.8694627759614,19.2544898237819,0 72.86812110248729,19.2525187225407,0 72.8677589524882,19.2519861669523,0 72.8676910692019,19.2520278451498,0 72.866467844562,19.2502634691499,0 72.8665345555854,19.2502208694011,0 72.8659840365339,19.2494443163258,0 72.86637868048869,19.2491919469455,0 72.8669326532517,19.249973368863,0 72.8670012797383,19.2499307030496,0 72.8675930135698,19.2507728680232,0 72.8682244315135,19.2516962487773,0 72.86815653612889,19.2517384601468,0 72.86828738971219,19.2519307047167,0 72.869051395333,19.2530531401816,0 72.8697340626981,19.2540576062449,0 72.8702966497863,19.2548857664555,0 72.87033937612971,19.2549489650831,0 72.87038181062979,19.2550123408333,0 72.8704239524721,19.2550758924905,0 72.8704658008481,19.2551396188355,0 72.8705073549543,19.2552035186462,0 72.87054861399361,19.2552675906964,0 72.870589577174,19.2553318337575,0 72.8706302437094,19.255396246597,0 72.8706706128195,19.2554608279793,0 72.8707106837293,19.2555255766656,0 72.87075045566991,19.2555904914139,0 72.87078992787799,19.255655570979,0 72.87083781722789,19.2557606242884,0 72.8708848639661,19.2558660204656,0 72.87093106536941,19.2559717534144,0 72.8709764187638,19.2560778170191,0 72.8710209215245,19.256184205145,0 72.87106457107571,19.2562909116386,0 72.8711073648909,19.2563979303276,0 72.871149300493,19.2565052550223,0 72.8711903754549,19.2566128795149,0 72.8712305873988,19.2567207975801,0 72.8712699339971,19.2568290029759,0 72.8713084129723,19.2569374894436,0 72.87192139231721,19.2585630380445,0 72.8721291815084,19.2591321613769,0 72.872158601321,19.2592147806948,0 72.872182280687,19.259281279129,0 72.87223751724569,19.2594363990009,0 72.8723290715927,19.2597103987889,0 72.8725454458112,19.2603571575776,0 72.8725549696472,19.2603852271336,0 72.8725647346163,19.2604132218648,0 72.8725747400669,19.2604411399033,0 72.8725849853313,19.2604689793857,0 72.87259546972599,19.2604967384542,0 72.8726061925514,19.2605244152563,0 72.87261715309199,19.2605520079449,0 72.8726283506165,19.2605795146785,0 72.8726397843777,19.2606069336215,0 72.8726514536127,19.260634262944,0 72.87266335754281,19.2606615008221,0 72.8726754953737,19.2606886454381,0 72.87272361038541,19.2607924512695,0 72.8727736852037,19.260895417739,0 72.8728257036053,19.260997511479,0 72.8728796487365,19.2610986994046,0 72.87293550311951,19.2611989487245,0 72.87299324865749,19.2612982269515,0 72.873052866641,19.261396501913,0 72.87311433775329,19.2614937417613,0 72.8731776420771,19.2615899149845,0 72.8732427591011,19.2616849904157,0 72.8733096677264,19.2617789372441,0 72.8733783462733,19.2618717250247,0 72.8734393306724,19.2619618100194,0 72.8734989053295,19.2620527418444,0 72.8735570572069,19.2621445006034,0 72.873613773578,19.2622370662195,0 72.8736690420307,19.2623304184388,0 72.87372285046921,19.2624245368353,0 72.8737751871172,19.2625194008156,0 72.8738260405207,19.2626149896231,0 72.8738753995496,19.2627112823421,0 72.8739232534014,19.2628082579034,0 72.8739695916024,19.2629058950879,0 72.87401440401069,19.2630041725321,0 72.87403892327561,19.2630513707965,0 72.8740638811079,19.2630983612869,0 72.8740892755557,19.2631451403283,0 72.8741151046333,19.2631917042619,0 72.874141366321,19.2632380494457,0 72.8741680585651,19.2632841722551,0 72.8741951792784,19.2633300690827,0 72.87422272634009,19.2633757363387,0 72.8742506975959,19.2634211704514,0 72.87427909085871,19.2634663678672,0 72.87430790390781,19.2635113250511,0 72.8743371344905,19.2635560384869,0 72.87435971666589,19.2635872130035,0 72.87438240996509,19.2636183146612,0 72.87440521412751,19.2636493431026,0 72.8744281288911,19.2636802979715,0 72.87445115399279,19.2637111789121,0 72.87447428916821,19.26374198557,0 72.8744975341518,19.2637727175911,0 72.8745208886765,19.2638033746227,0 72.8745443524741,19.2638339563124,0 72.8745679252753,19.2638644623091,0 72.8745916068093,19.2638948922623,0 72.8746153968043,19.2639252458226,0 72.87468062683099,19.2638791877782,0 72.8752594365068,19.2646126314596,0 72.876023073071,19.265580268294,0 72.87595796641629,19.2656266073121,0 72.87637307302521,19.2661529536336,0 72.87676061912499,19.2666438996789,0 72.8767810726566,19.2666696644055,0 72.8768013844339,19.266695530074,0 72.87682155390441,19.2667214959811,0 72.8768415805198,19.2667475614206,0 72.876861463735,19.2667737256838,0 72.8768812030096,19.2667999880591,0 72.8769007978064,19.2668263478322,0 72.87692024759281,19.2668528042866,0 72.8769395518396,19.2668793567027,0 72.8769587100219,19.2669060043584,0 72.8769777216186,19.266932746529,0 72.8769965861125,19.2669595824874,0 72.87701202225669,19.266980878338,0 72.8770273468421,19.2670022467295,0 72.8770425594906,19.2670236871349,0 72.8770576598267,19.2670451990253,0 72.8770726474782,19.2670667818701,0 72.8770875220753,19.267088435137,0 72.87710228325081,19.2671101582918,0 72.87711693064099,19.2671319507988,0 72.8771314638842,19.2671538121206,0 72.8771458826221,19.2671757417177,0 72.8771601864989,19.2671977390493,0 72.8771743751619,19.2672198035731,0 72.87719679534879,19.2672554978457,0 72.8772193150876,19.2672911355585,0 72.87724193422039,19.2673267164611,0 72.8772646525882,19.2673622403033,0 72.87728747003131,19.2673977068359,0 72.8773103863896,19.2674331158094,0 72.8773334015022,19.2674684669751,0 72.8773565152075,19.2675037600847,0 72.8773797273429,19.2675389948902,0 72.87740303774579,19.2675741711439,0 72.8774264462521,19.2676092885989,0 72.8774499526976,19.2676443470083,0 72.8774698315129,19.2676739866205,0 72.877489831917,19.2677035523748,0 72.8775099536057,19.2677330438213,0 72.877530196273,19.2677624605113,0 72.8775505596111,19.2677918019974,0 72.8775710433099,19.2678210678331,0 72.8775916470582,19.267850257573,0 72.87761237054239,19.2678793707733,0 72.8776332134474,19.2679084069909,0 72.877654175456,19.2679373657841,0 72.8776752562496,19.2679662467122,0 72.87769645550731,19.2679950493359,0 72.87771527941349,19.2680202698661,0 72.87773411339759,19.2680454836122,0 72.87775295745691,19.2680706905707,0 72.8777718115888,19.268095890738,0 72.87779067579029,19.2681210841104,0 72.8778095500591,19.2681462706841,0 72.8778284343921,19.2681714504559,0 72.8778473287868,19.2681966234218,0 72.8778662332405,19.2682217895783,0 72.87788514775041,19.2682469489218,0 72.8779040723139,19.2682721014487,0 72.8779230069281,19.2682972471553,0 72.8779438033564,19.2683253428642,0 72.87796454315919,19.2683534762988,0 72.87798522626071,19.2683816473565,0 72.8780058525852,19.2684098559339,0 72.8780264220572,19.2684381019279,0 72.8780469346013,19.2684663852353,0 72.87806739014251,19.2684947057524,0 72.878087788606,19.2685230633756,0 72.8781081299171,19.2685514580014,0 72.8781284140013,19.2685798895257,0 72.8781486407843,19.2686083578445,0 72.87816881019209,19.2686368628537,0 72.8782150949398,19.2687053981849,0 72.8782628063352,19.26877304549,0 72.878311925494,19.2688397779911,0 72.8783624329742,19.2689055692721,0 72.8784143087843,19.2689703932897,0 72.8784675323912,19.2690342243834,0 72.8785220827278,19.2690970372855,0 72.8785779382021,19.2691588071315,0 72.87863507670551,19.2692195094698,0 72.87869347562101,19.2692791202711,0 72.87875311183279,19.2693376159384,0 72.8788139617354,19.2693949733162,0 72.8788559692759,19.2694314916209,0 72.8788983955278,19.2694675707666,0 72.8789412354006,19.2695032064241,0 72.8789844837541,19.2695383943174,0 72.8790281353994,19.2695731302243,0 72.87907218509891,19.269607409977,0 72.8791166275674,19.2696412294619,0 72.87916145747251,19.2696745846212,0 72.87920666943531,19.2697074714525,0 72.879252258031,19.2697398860095,0 72.8792982177898,19.2697718244029,0 72.87934454319711,19.2698032828005,0 72.8797701810047,19.2701064427074,0 72.8798155686858,19.2700463733755,0 72.88041981392441,19.2704625247827,0 72.8816225174875,19.2712908304729,0 72.8816092555753,19.2713084952206,0 72.88157642493,19.2713522253221,0 72.881683025629,19.2714243453468,0 72.8819639630247,19.2716149704706,0 72.88205732044411,19.2716792595114,0 72.88207822737159,19.2716946140356,0 72.8821732780679,19.2717657189952,0 72.8822560039189,19.271834365401,0 72.88229301098301,19.2718714357876,0 72.8823315820834,19.2719100831277,0 72.88236853026,19.2719501348957,0 72.882403798854,19.2719915296748,0 72.88243733378221,19.2720342039892,0 72.8824690836195,19.2720780924009,0 72.88249899967801,19.2721231276098,0 72.8825270360818,19.2721692405575,0 72.88255314983731,19.2722163605327,0 72.8825773008989,19.27226441528,0 72.88259945223059,19.2723133311105,0 72.8826195698627,19.2723630330145,0 72.8826376229442,19.2724134447771,0 72.8826458214901,19.2724392655893,0 72.88265346035981,19.2724652407257,0 72.882660536336,19.2724913592477,0 72.8826670464387,19.2725176101563,0 72.8826729879261,19.2725439823966,0 72.88267835829571,19.2725704648629,0 72.8826831552859,19.2725970464027,0 72.88268737687601,19.2726237158221,0 72.8826910212881,19.2726504618899,0 72.8826940869872,19.272677273343,0 72.88269657268189,19.2727041388903,0 72.88269847732511,19.2727310472182,0 72.8826999203616,19.2727565832133,0 72.8827008335398,19.2727821412433,0 72.8827012165052,19.2728077113945,0 72.8827010691091,19.2728332837486,0 72.88270039140841,19.2728588483864,0 72.88269918366569,19.272884395392,0 72.8826974463492,19.2729099148557,0 72.8826951801326,19.2729353968792,0 72.8826923858946,19.2729608315781,0 72.8826890647188,19.2729862090867,0 72.8826852178933,19.2730115195614,0 72.88268084691011,19.2730367531846,0 72.88267068869391,19.2730818553366,0 72.8826598160572,19.2731268070317,0 72.8826482314678,19.2731715980654,0 72.8826359375549,19.2732162182698,0 72.88262293710859,19.2732606575158,0 72.88260923307961,19.2733049057151,0 72.88259482857851,19.2733489528232,0 72.8825797268744,19.2733927888408,0 72.8825639313953,19.2734364038169,0 72.8825474457261,19.2734797878504,0 72.88253027360889,19.2735229310927,0 72.8825124189414,19.2735658237499,0 72.88248196251701,19.2736415021516,0 72.8824531593616,19.2737177620377,0 72.88242602177751,19.273794570842,0 72.88240056135599,19.2738718957638,0 72.8823767889719,19.2739497037822,0 72.8823547147794,19.2740279616696,0 72.88233434820761,19.2741066360065,0 72.8823156979563,19.2741856931955,0 72.8822987719924,19.2742650994755,0 72.8822835775465,19.2743448209365,0 72.8822701211097,19.2744248235336,0 72.8822584084313,19.2745050731022,0 72.8821250456958,19.2756567756528,0 72.8821220363026,19.2756832126472,0 72.8821195107807,19.2757040036973,0 72.8820995010755,19.2758310563788,0 72.88209106885461,19.2758755247695,0 72.8820816906258,19.2759198219955,0 72.88207137023051,19.2759639299111,0 72.8820601118953,19.2760078304475,0 72.8820479202317,19.2760515056215,0 72.8820348002327,19.2760949375418,0 72.8820207572725,19.2761381084168,0 72.88200579710311,19.2761810005618,0 72.8819899258517,19.2762235964065,0 72.88197315001951,19.2762658785015,0 72.8819554764779,19.2763078295265,0 72.8819369124661,19.2763494322964,0 72.8819131010555,19.2763981512052,0 72.88188795485461,19.2764462615427,0 72.88186149109529,19.2764937303389,0 72.881833727912,19.2765405250631,0 72.88180468433031,19.2765866136466,0 72.88177438025249,19.2766319645048,0 72.8817428364454,19.2766765465585,0 72.8817100745253,19.2767203292553,0 72.8816761169432,19.2767632825907,0 72.8816409869697,19.2768053771285,0 72.88160470867891,19.276846584021,0 72.8815673069319,19.2768868750288,0 72.8815403347259,19.2769143219381,0 72.881512950608,19.2769413985503,0 72.88148516021511,19.2769680992912,0 72.8814569692676,19.2769944186648,0 72.8814283835687,19.2770203512529,0 72.8813994090026,19.2770458917171,0 72.88137005153369,19.2770710348001,0 72.8813403172054,19.277095775326,0 72.8813102121382,19.2771201082018,0 72.8812797425295,19.2771440284185,0 72.8812489146512,19.2771675310522,0 72.8812177348495,19.2771906112646,0 72.8812679728932,19.2772525094806,0 72.88038279296571,19.2779003449754,0 72.8794976062543,19.2785481754708,0 72.87944793365161,19.2784869730313,0 72.8783633886594,19.2792810118997,0 72.8763673531315,19.2807395007247,0 72.8730137211232,19.283181841809,0 72.8719814042995,19.2839332954962,0 72.8720311360004,19.2839944530887,0 72.8710425074908,19.2847143991012,0 72.8702574636371,19.2852860804533,0 72.8702079408562,19.2852251825633,0 72.8693171339084,19.2858737811454,0 72.8679899459997,19.2868402275446,0 72.866629831602,19.2878306275932,0 72.8665694297726,19.2878736803483,0 72.8665092140551,19.2879169675407,0 72.86644918545881,19.2879604884448,0 72.8663893449898,19.2880042423311,0 72.866329693651,19.2880482284665,0 72.8662702324422,19.2880924461139,0 72.8662109623601,19.288136894532,0 72.86615188439799,19.2881815729762,0 72.8660929995461,19.2882264806974,0 72.8660343087915,19.2882716169433,0 72.8659758131176,19.2883169809572,0 72.8659175135052,19.2883625719791,0 72.8645772294861,19.2896832412472,0 72.8629576549297,19.2912982431906,0 72.8616766400517,19.292575362443,0 72.86067748800851,19.2935714544957,0 72.8607376279311,19.2936250892309,0 72.8599658132469,19.2943926546694,0 72.8591939913233,19.2951602160895,0 72.8591256607547,19.2950982708371,0 72.8590491822217,19.2951592640419,0 72.8590003099261,19.2951951188545,0 72.8589503782612,19.2952296326798,0 72.8588994280269,19.2952627773159,0 72.8588475008559,19.2952945256793,0 72.8587946391787,19.2953248518278,0 72.85874088618981,19.2953537309809,0 72.8586862858122,19.295381139541,0 72.858630882661,19.2954070551117,0 72.8585747220075,19.2954314565167,0 72.8585178497422,19.2954543238172,0 72.8584603123369,19.2954756383276,0 72.8584021568072,19.2954953826314,0 72.85835213342899,19.2955109168447,0 72.85830171724319,19.2955252605999,0 72.8582509396695,19.2955384049579,0 72.8581998323527,19.2955503417273,0 72.85814842714311,19.295561063469,0 72.8580967560769,19.2955705635013,0 72.8580448513558,19.2955788359038,0 72.8579927453272,19.2955858755213,0 72.8579404704639,19.2955916779667,0 72.85788805934401,19.2955962396239,0 72.8578355446305,19.2955995576503,0 72.85778295905089,19.2956016299781,0 72.85773179135531,19.2956018352889,0 72.85768062474151,19.2956014587099,0 72.8576294665496,19.2956005002948,0 72.85757832411829,19.2955989601814,0 72.85752720478421,19.2955968385906,0 72.8574761158804,19.2955941358268,0 72.85742506473601,19.2955908522778,0 72.8573740586743,19.2955869884147,0 72.8573231050125,19.2955825447918,0 72.85727221105979,19.2955775220466,0 72.8572213841172,19.2955719208997,0 72.8571706314759,19.2955657421547,0 72.8571585947025,19.2955647342145,0 72.85714656063639,19.2955636975424,0 72.8571345293536,19.295562632145,0 72.8571225009302,19.295561538029,0 72.8571104754422,19.2955604152012,0 72.8570984529655,19.2955592636688,0 72.8570864335764,19.2955580834392,0 72.8570744173507,19.2955568745196,0 72.8570624043643,19.2955556369178,0 72.8570503946933,19.2955543706416,0 72.8570383884136,19.295553075699,0 72.857026385601,19.2955517520982,0 72.8568357202286,19.2955327530241,0 72.85617789943611,19.2954672021537,0 72.855635544701,19.2954131555004,0 72.8538845726182,19.2952386567567,0 72.85346348525771,19.295196689408,0 72.85315030448621,19.295165475849,0 72.8529847954289,19.2951489799592,0 72.8527193996964,19.2951226546657,0 72.8524924360964,19.2951010027174,0 72.85247602115911,19.2950998047488,0 72.85245960364411,19.2950986390659,0 72.8524431836217,19.295097505674,0 72.85242676116221,19.2950964045777,0 72.85241033633621,19.2950953357818,0 72.8523939092141,19.295094299291,0 72.85237747986641,19.2950932951095,0 72.8523610483637,19.2950923232418,0 72.8523446147763,19.2950913836921,0 72.85232817917481,19.2950904764642,0 72.85231174162981,19.2950896015623,0 72.8522953022116,19.2950887589899,0 72.8522637687784,19.2950874731451,0 72.8522322261431,19.2950864100949,0 72.85220067605189,19.2950855698981,0 72.85216912025111,19.2950849526012,0 72.85213756048741,19.2950845582382,0 72.8521059985077,19.2950843868312,0 72.852074436059,19.2950844383895,0 72.8520428748884,19.2950847129103,0 72.852011316743,19.2950852103782,0 72.8519797633694,19.295085930766,0 72.8519482165143,19.2950868740335,0 72.8519166779238,19.2950880401286,0 72.8518716165875,19.2950900003471,0 72.85182656293971,19.2950921138854,0 72.8517815175592,19.2950943807164,0 72.8517364810243,19.2950968008109,0 72.8516914539134,19.2950993741377,0 72.8516464368048,19.2951021006641,0 72.8516014302766,19.2951049803547,0 72.8515564349068,19.2951080131726,0 72.8515114512733,19.2951111990791,0 72.8514664799538,19.2951145380328,0 72.85142152152569,19.2951180299913,0 72.8513765765664,19.2951216749095,0 72.8513131273681,19.29512640863,0 72.8512496244108,19.2951304403984,0 72.8511860763082,19.295133769668,0 72.8511224916805,19.295136395987,0 72.8510588791527,19.2951383189994,0 72.85099524735369,19.2951395384445,0 72.85093160491461,19.2951400541567,0 72.85086796046861,19.2951398660665,0 72.8508043226486,19.2951389741991,0 72.8507407000871,19.2951373786758,0 72.85067710141389,19.295135079713,0 72.8506135352562,19.2951320776228,0 72.8505942578055,19.2951303804938,0 72.8505749751445,19.2951287375981,0 72.85055568744259,19.29512714895,0 72.850536394869,19.2951256145636,0 72.8505170975928,19.2951241344523,0 72.8504977957838,19.2951227086291,0 72.85047848961101,19.2951213371066,0 72.850459179244,19.2951200198966,0 72.85043986485231,19.2951187570109,0 72.85042054660531,19.2951175484605,0 72.85040122467279,19.2951163942559,0 72.850381899224,19.2951152944073,0 72.8503735628986,19.2951953242347,0 72.8492086703699,19.295085926258,0 72.84814907608769,19.2949864105798,0 72.8481569162485,19.2949098799979,0 72.8467327483182,19.2947787858474,0 72.84433562868369,19.294556911436,0 72.84432729650609,19.2946368734993,0 72.8431202059998,19.2945234720647,0 72.84210283276801,19.2944278875632,0 72.8421106304444,19.2943517987212,0 72.8408415179651,19.2942345385601,0 72.839038561324,19.2940670833216,0 72.8386321034035,19.2940282125575,0 72.8385962399511,19.2940237548209,0 72.838560410092,19.2940190598639,0 72.8385246155669,19.2940141279144,0 72.8384888581143,19.2940089592123,0 72.8384531394712,19.2940035540084,0 72.8384174613727,19.2939979125655,0 72.83838182555201,19.2939920351575,0 72.8383462337399,19.29398592207,0 72.8383106876656,19.2939795735999,0 72.83827518905559,19.2939729900557,0 72.8382397396344,19.2939661717571,0 72.8382043411237,19.2939591190355,0 72.8381913259711,19.2939568636629,0 72.8381783283664,19.293954518832,0 72.8381653489916,19.2939520846658,0 72.8381523885279,19.2939495612922,0 72.83813944765529,19.2939469488434,0 72.83812652705279,19.2939442474566,0 72.8381136273985,19.2939414572734,0 72.8381007493691,19.2939385784404,0 72.83808789364061,19.2939356111086,0 72.83807506088741,19.2939325554336,0 72.8380622517828,19.2939294115759,0 72.8380494669991,19.2939261797005,0 72.8380348792537,19.2939225389738,0 72.8380202880094,19.2939189109116,0 72.8380056932784,19.2939152955168,0 72.83799109507299,19.2939116927926,0 72.83797649340529,19.2939081027418,0 72.8379618882874,19.2939045253674,0 72.83794727973179,19.2939009606727,0 72.83793266775039,19.2938974086603,0 72.8379180523556,19.2938938693334,0 72.8379034335595,19.2938903426949,0 72.8378888113744,19.2938868287477,0 72.8378741858126,19.2938833274948,0 72.8378664191747,19.2938810979048,0 72.83785865021611,19.2938788756163,0 72.83785087894471,19.2938766606312,0 72.8378431053678,19.2938744529517,0 72.8378353294932,19.2938722525802,0 72.8378275513285,19.2938700595186,0 72.8378197708813,19.2938678737693,0 72.8378119881592,19.2938656953342,0 72.8378042031699,19.2938635242155,0 72.83779641592091,19.2938613604155,0 72.83778862641989,19.293859203936,0 72.8377808346746,19.2938570547794,0 72.8377761874865,19.293855766601,0 72.83777154528249,19.2938544623216,0 72.83776690812449,19.2938531419586,0 72.8377622760743,19.2938518055296,0 72.83775764919371,19.2938504530524,0 72.8377530275443,19.293849084545,0 72.8377484111878,19.2938477000257,0 72.83774380018551,19.2938462995129,0 72.8377391945991,19.2938448830254,0 72.8377345944899,19.2938434505817,0 72.83772999991921,19.2938420022014,0 72.8377254109483,19.2938405379035,0 72.8376929135696,19.2938300375871,0 72.8376604601459,19.2938194154244,0 72.8376280511839,19.2938086715812,0 72.83759568718961,19.2937978062254,0 72.8375633686684,19.2937868195264,0 72.83753109612481,19.2937757116561,0 72.8374988700629,19.2937644827878,0 72.83746669098591,19.2937531330968,0 72.8374345593962,19.2937416627603,0 72.8374024757955,19.2937300719576,0 72.83737044068489,19.2937183608695,0 72.8373384545644,19.2937065296791,0 72.837284785682,19.2936861468362,0 72.8372314247372,19.2936650477026,0 72.83717838233321,19.2936432364711,0 72.83712566901011,19.2936207174758,0 72.83707329524231,19.2935974951916,0 72.8370212714372,19.2935735742331,0 72.83696960793201,19.2935489593538,0 72.8369183149928,19.2935236554449,0 72.83686740281181,19.2934976675345,0 72.8368168815057,19.2934710007871,0 72.8367667611133,19.2934436605014,0 72.83671705159389,19.2934156521104,0 72.83629212525921,19.2931886599758,0 72.83452118518591,19.2922333177579,0 72.8327385737344,19.2912716520275,0 72.83106697501211,19.2903698484817,0 72.82976451659221,19.289666518084,0 72.82732593976409,19.288351521567,0 72.82660721939639,19.2879637507252,0 72.82684230706811,19.2875708907821,0 
					</coordinates>
				</LinearRing>
			</outerBoundaryIs>
		</Polygon>
	</Placemark>
	<Placemark>
		<name>Dahisar(E) (M) Station</name>
		<LookAt>
			<longitude>72.86642737544905</longitude>
			<latitude>19.24993753747902</latitude>
			<altitude>0</altitude>
			<heading>1.575500302939693</heading>
			<tilt>30.0016431934275</tilt>
			<range>365.8160866098402</range>
			<gx:altitudeMode>relativeToSeaFloor</gx:altitudeMode>
		</LookAt>
		<styleUrl>#m_ylw-pushpin0</styleUrl>
		<Point>
			<gx:drawOrder>1</gx:drawOrder>
			<coordinates>72.86726447601028,19.2507979459546,0</coordinates>
		</Point>
	</Placemark>
	<Placemark>
		<name>Pandurang Wadi(M) Station</name>
		<LookAt>
			<longitude>72.87384659953136</longitude>
			<latitude>19.26418968503386</latitude>
			<altitude>0</altitude>
			<heading>1.577946980500854</heading>
			<tilt>30.00240595127858</tilt>
			<range>535.6548814680749</range>
			<gx:altitudeMode>relativeToSeaFloor</gx:altitudeMode>
		</LookAt>
		<styleUrl>#m_ylw-pushpin0</styleUrl>
		<Point>
			<gx:drawOrder>1</gx:drawOrder>
			<coordinates>72.87515928454522,19.26504720295334,0</coordinates>
		</Point>
	</Placemark>
	<Placemark>
		<name>Amar Palace(M) Station</name>
		<LookAt>
			<longitude>72.87970732444326</longitude>
			<latitude>19.27077104578924</latitude>
			<altitude>0</altitude>
			<heading>1.987401908803006</heading>
			<tilt>8.881665583235236</tilt>
			<range>595.0070130756411</range>
			<gx:altitudeMode>relativeToSeaFloor</gx:altitudeMode>
		</LookAt>
		<styleUrl>#m_ylw-pushpin0</styleUrl>
		<Point>
			<gx:drawOrder>1</gx:drawOrder>
			<coordinates>72.8808649736778,19.2711311179,0</coordinates>
		</Point>
	</Placemark>
	<Placemark>
		<name>Zankar Company (M) Station</name>
		<LookAt>
			<longitude>72.87962876980811</longitude>
			<latitude>19.27717303407543</latitude>
			<altitude>0</altitude>
			<heading>1.987375752935344</heading>
			<tilt>8.882196219237237</tilt>
			<range>977.6422605545582</range>
			<gx:altitudeMode>relativeToSeaFloor</gx:altitudeMode>
		</LookAt>
		<styleUrl>#m_ylw-pushpin0</styleUrl>
		<Point>
			<gx:drawOrder>1</gx:drawOrder>
			<coordinates>72.88016037504715,19.27769304256498,0</coordinates>
		</Point>
	</Placemark>
	<Placemark>
		<name>Sai Baba Nagar (M) Station</name>
		<LookAt>
			<longitude>72.87276481085894</longitude>
			<latitude>19.28373182548521</latitude>
			<altitude>0</altitude>
			<heading>2.083187415451719</heading>
			<tilt>12.66177350271748</tilt>
			<range>712.6006709133544</range>
			<gx:altitudeMode>relativeToSeaFloor</gx:altitudeMode>
		</LookAt>
		<styleUrl>#m_ylw-pushpin0</styleUrl>
		<Point>
			<gx:drawOrder>1</gx:drawOrder>
			<coordinates>72.87103466155411,19.28436652539033,0</coordinates>
		</Point>
	</Placemark>
	<Placemark>
		<name>Deepak Hospital (M) Station</name>
		<LookAt>
			<longitude>72.86080483757071</longitude>
			<latitude>19.29371935677607</latitude>
			<altitude>0</altitude>
			<heading>2.129582223686402</heading>
			<tilt>16.15482208195571</tilt>
			<range>716.2989441155449</range>
			<gx:altitudeMode>relativeToSeaFloor</gx:altitudeMode>
		</LookAt>
		<styleUrl>#m_ylw-pushpin0</styleUrl>
		<Point>
			<gx:drawOrder>1</gx:drawOrder>
			<coordinates>72.85972479163715,19.29412391665475,0</coordinates>
		</Point>
	</Placemark>
	<Placemark>
		<name>Shahid Bhagatsingh Garden (M) Station</name>
		<LookAt>
			<longitude>72.84990797111571</longitude>
			<latitude>19.29461728035433</latitude>
			<altitude>0</altitude>
			<heading>2.125981716227208</heading>
			<tilt>16.15482208195564</tilt>
			<range>716.2989441145439</range>
			<gx:altitudeMode>relativeToSeaFloor</gx:altitudeMode>
		</LookAt>
		<styleUrl>#m_ylw-pushpin0</styleUrl>
		<Point>
			<gx:drawOrder>1</gx:drawOrder>
			<coordinates>72.8492076798854,19.29466977714638,0</coordinates>
		</Point>
	</Placemark>
	<Placemark>
		<name>Subhash Chandra Bose Stadium (M) station</name>
		<LookAt>
			<longitude>72.84623791040885</longitude>
			<latitude>19.29464808661984</latitude>
			<altitude>0</altitude>
			<heading>2.124769003307236</heading>
			<tilt>16.15577742228879</tilt>
			<range>1098.600614753723</range>
			<gx:altitudeMode>relativeToSeaFloor</gx:altitudeMode>
		</LookAt>
		<styleUrl>#m_ylw-pushpin0</styleUrl>
		<Point>
			<gx:drawOrder>1</gx:drawOrder>
			<coordinates>72.84321287412998,19.29412904187779,0</coordinates>
		</Point>
	</Placemark>
</Document>
</kml>
