<?xml version="1.0" encoding="UTF-8"?>
<kml xmlns="http://www.opengis.net/kml/2.2" xmlns:gx="http://www.google.com/kml/ext/2.2" xmlns:kml="http://www.opengis.net/kml/2.2" xmlns:atom="http://www.w3.org/2005/Atom">
<Document>
	<name>ML-6.kml</name>
	<open>1</open>
	<Style id="sh_ylw-pushpin">
		<IconStyle>
			<scale>1.3</scale>
			<Icon>
				<href>http://maps.google.com/mapfiles/kml/pushpin/ylw-pushpin.png</href>
			</Icon>
			<hotSpot x="20" y="2" xunits="pixels" yunits="pixels"/>
		</IconStyle>
		<LabelStyle>
			<color>e3ffffff</color>
			<scale>1.1</scale>
		</LabelStyle>
		<ListStyle>
		</ListStyle>
		<LineStyle>
			<color>ff0000ff</color>
			<width>4</width>
		</LineStyle>
		<PolyStyle>
			<color>99ffe875</color>
		</PolyStyle>
	</Style>
	<StyleMap id="msn_ylw-pushpin">
		<Pair>
			<key>normal</key>
			<styleUrl>#sn_ylw-pushpin1</styleUrl>
		</Pair>
		<Pair>
			<key>highlight</key>
			<styleUrl>#sh_ylw-pushpin0</styleUrl>
		</Pair>
	</StyleMap>
	<Style id="sn_ylw-pushpin">
		<IconStyle>
			<scale>1.1</scale>
			<Icon>
				<href>http://maps.google.com/mapfiles/kml/pushpin/ylw-pushpin.png</href>
			</Icon>
			<hotSpot x="20" y="2" xunits="pixels" yunits="pixels"/>
		</IconStyle>
		<LabelStyle>
			<color>e3ffffff</color>
			<scale>1.1</scale>
		</LabelStyle>
		<ListStyle>
		</ListStyle>
		<LineStyle>
			<color>ff0000ff</color>
			<width>4</width>
		</LineStyle>
		<PolyStyle>
			<color>99ffe875</color>
		</PolyStyle>
	</Style>
	<Style id="sn_ylw-pushpin0">
		<IconStyle>
			<scale>1.1</scale>
			<Icon>
				<href>http://maps.google.com/mapfiles/kml/pushpin/ylw-pushpin.png</href>
			</Icon>
			<hotSpot x="20" y="2" xunits="pixels" yunits="pixels"/>
		</IconStyle>
		<LineStyle>
			<color>ffffff55</color>
			<width>3.8</width>
		</LineStyle>
		<PolyStyle>
			<color>99ffaaff</color>
		</PolyStyle>
	</Style>
	<Style id="sn_ylw-pushpin1">
		<IconStyle>
			<scale>1.1</scale>
			<Icon>
				<href>http://maps.google.com/mapfiles/kml/pushpin/ylw-pushpin.png</href>
			</Icon>
			<hotSpot x="20" y="2" xunits="pixels" yunits="pixels"/>
		</IconStyle>
		<LabelStyle>
			<color>e3ffffff</color>
			<scale>1.1</scale>
		</LabelStyle>
		<ListStyle>
		</ListStyle>
		<LineStyle>
			<color>ff0000ff</color>
			<width>4</width>
		</LineStyle>
		<PolyStyle>
			<color>99ffe875</color>
		</PolyStyle>
	</Style>
	<StyleMap id="msn_ylw-pushpin0">
		<Pair>
			<key>normal</key>
			<styleUrl>#sn_ylw-pushpin2</styleUrl>
		</Pair>
		<Pair>
			<key>highlight</key>
			<styleUrl>#sh_ylw-pushpin3</styleUrl>
		</Pair>
	</StyleMap>
	<Style id="sh_ylw-pushpin0">
		<IconStyle>
			<scale>1.3</scale>
			<Icon>
				<href>http://maps.google.com/mapfiles/kml/pushpin/ylw-pushpin.png</href>
			</Icon>
			<hotSpot x="20" y="2" xunits="pixels" yunits="pixels"/>
		</IconStyle>
		<LabelStyle>
			<color>e3ffffff</color>
			<scale>1.1</scale>
		</LabelStyle>
		<ListStyle>
		</ListStyle>
		<LineStyle>
			<color>ff0000ff</color>
			<width>4</width>
		</LineStyle>
		<PolyStyle>
			<color>99ffe875</color>
		</PolyStyle>
	</Style>
	<Style id="sn_ylw-pushpin2">
		<IconStyle>
			<Icon>
				<href>http://maps.google.com/mapfiles/kml/pushpin/ylw-pushpin.png</href>
			</Icon>
			<hotSpot x="20" y="2" xunits="pixels" yunits="pixels"/>
		</IconStyle>
		<LabelStyle>
			<color>e3ffffff</color>
			<scale>1.1</scale>
		</LabelStyle>
		<ListStyle>
		</ListStyle>
		<LineStyle>
			<color>ff0000ff</color>
			<width>4</width>
		</LineStyle>
		<PolyStyle>
			<color>99ffe875</color>
		</PolyStyle>
	</Style>
	<Style id="sn_ylw-pushpin3">
		<IconStyle>
			<scale>1.1</scale>
			<Icon>
				<href>http://maps.google.com/mapfiles/kml/pushpin/ylw-pushpin.png</href>
			</Icon>
			<hotSpot x="20" y="2" xunits="pixels" yunits="pixels"/>
		</IconStyle>
		<LabelStyle>
			<color>e3ffffff</color>
			<scale>1.1</scale>
		</LabelStyle>
		<ListStyle>
		</ListStyle>
		<LineStyle>
			<color>ff0000ff</color>
			<width>4</width>
		</LineStyle>
		<PolyStyle>
			<color>99ffe875</color>
		</PolyStyle>
	</Style>
	<Style id="sh_ylw-pushpin1">
		<IconStyle>
			<scale>1.3</scale>
			<Icon>
				<href>http://maps.google.com/mapfiles/kml/pushpin/ylw-pushpin.png</href>
			</Icon>
			<hotSpot x="20" y="2" xunits="pixels" yunits="pixels"/>
		</IconStyle>
		<LineStyle>
			<color>ffffff55</color>
			<width>3.8</width>
		</LineStyle>
		<PolyStyle>
			<color>99ffaaff</color>
		</PolyStyle>
	</Style>
	<StyleMap id="msn_ylw-pushpin1">
		<Pair>
			<key>normal</key>
			<styleUrl>#sn_ylw-pushpin</styleUrl>
		</Pair>
		<Pair>
			<key>highlight</key>
			<styleUrl>#sh_ylw-pushpin2</styleUrl>
		</Pair>
	</StyleMap>
	<Style id="sn_ylw-pushpin4">
		<IconStyle>
			<scale>1.1</scale>
			<Icon>
				<href>http://maps.google.com/mapfiles/kml/pushpin/ylw-pushpin.png</href>
			</Icon>
			<hotSpot x="20" y="2" xunits="pixels" yunits="pixels"/>
		</IconStyle>
		<LabelStyle>
			<color>e3ffffff</color>
			<scale>1.1</scale>
		</LabelStyle>
		<ListStyle>
		</ListStyle>
		<LineStyle>
			<color>ff0000ff</color>
			<width>4</width>
		</LineStyle>
		<PolyStyle>
			<color>99ffe875</color>
		</PolyStyle>
	</Style>
	<Style id="sh_ylw-pushpin2">
		<IconStyle>
			<scale>1.3</scale>
			<Icon>
				<href>http://maps.google.com/mapfiles/kml/pushpin/ylw-pushpin.png</href>
			</Icon>
			<hotSpot x="20" y="2" xunits="pixels" yunits="pixels"/>
		</IconStyle>
		<LabelStyle>
			<color>e3ffffff</color>
			<scale>1.1</scale>
		</LabelStyle>
		<ListStyle>
		</ListStyle>
		<LineStyle>
			<color>ff0000ff</color>
			<width>4</width>
		</LineStyle>
		<PolyStyle>
			<color>99ffe875</color>
		</PolyStyle>
	</Style>
	<Style id="sh_ylw-pushpin3">
		<IconStyle>
			<scale>1.16667</scale>
			<Icon>
				<href>http://maps.google.com/mapfiles/kml/pushpin/ylw-pushpin.png</href>
			</Icon>
			<hotSpot x="20" y="2" xunits="pixels" yunits="pixels"/>
		</IconStyle>
		<LabelStyle>
			<color>e3ffffff</color>
			<scale>1.1</scale>
		</LabelStyle>
		<ListStyle>
		</ListStyle>
		<LineStyle>
			<color>ff0000ff</color>
			<width>4</width>
		</LineStyle>
		<PolyStyle>
			<color>99ffe875</color>
		</PolyStyle>
	</Style>
	<StyleMap id="msn_ylw-pushpin2">
		<Pair>
			<key>normal</key>
			<styleUrl>#sn_ylw-pushpin4</styleUrl>
		</Pair>
		<Pair>
			<key>highlight</key>
			<styleUrl>#sh_ylw-pushpin</styleUrl>
		</Pair>
	</StyleMap>
	<StyleMap id="msn_ylw-pushpin3">
		<Pair>
			<key>normal</key>
			<styleUrl>#sn_ylw-pushpin3</styleUrl>
		</Pair>
		<Pair>
			<key>highlight</key>
			<styleUrl>#sh_ylw-pushpin4</styleUrl>
		</Pair>
	</StyleMap>
	<StyleMap id="msn_ylw-pushpin4">
		<Pair>
			<key>normal</key>
			<styleUrl>#sn_ylw-pushpin0</styleUrl>
		</Pair>
		<Pair>
			<key>highlight</key>
			<styleUrl>#sh_ylw-pushpin1</styleUrl>
		</Pair>
	</StyleMap>
	<StyleMap id="msn_ylw-pushpin5">
		<Pair>
			<key>normal</key>
			<styleUrl>#sn_ylw-pushpin5</styleUrl>
		</Pair>
		<Pair>
			<key>highlight</key>
			<styleUrl>#sh_ylw-pushpin5</styleUrl>
		</Pair>
	</StyleMap>
	<Style id="sh_ylw-pushpin4">
		<IconStyle>
			<scale>1.3</scale>
			<Icon>
				<href>http://maps.google.com/mapfiles/kml/pushpin/ylw-pushpin.png</href>
			</Icon>
			<hotSpot x="20" y="2" xunits="pixels" yunits="pixels"/>
		</IconStyle>
		<LabelStyle>
			<color>e3ffffff</color>
			<scale>1.1</scale>
		</LabelStyle>
		<ListStyle>
		</ListStyle>
		<LineStyle>
			<color>ff0000ff</color>
			<width>4</width>
		</LineStyle>
		<PolyStyle>
			<color>99ffe875</color>
		</PolyStyle>
	</Style>
	<Style id="sn_ylw-pushpin5">
		<IconStyle>
			<scale>1.1</scale>
			<Icon>
				<href>http://maps.google.com/mapfiles/kml/pushpin/ylw-pushpin.png</href>
			</Icon>
			<hotSpot x="20" y="2" xunits="pixels" yunits="pixels"/>
		</IconStyle>
		<LabelStyle>
			<color>e3ffffff</color>
			<scale>1.1</scale>
		</LabelStyle>
		<ListStyle>
		</ListStyle>
		<LineStyle>
			<color>ff0000ff</color>
			<width>4</width>
		</LineStyle>
		<PolyStyle>
			<color>99ffe875</color>
		</PolyStyle>
	</Style>
	<Style id="sh_ylw-pushpin5">
		<IconStyle>
			<scale>1.3</scale>
			<Icon>
				<href>http://maps.google.com/mapfiles/kml/pushpin/ylw-pushpin.png</href>
			</Icon>
			<hotSpot x="20" y="2" xunits="pixels" yunits="pixels"/>
		</IconStyle>
		<LabelStyle>
			<color>e3ffffff</color>
			<scale>1.1</scale>
		</LabelStyle>
		<ListStyle>
		</ListStyle>
		<LineStyle>
			<color>ff0000ff</color>
			<width>4</width>
		</LineStyle>
		<PolyStyle>
			<color>99ffe875</color>
		</PolyStyle>
	</Style>
	<Placemark>
		<styleUrl>#msn_ylw-pushpin4</styleUrl>
		<Polygon>
			<outerBoundaryIs>
				<LinearRing>
					<coordinates>
						72.8276329884612,19.1414075625403,0.3 72.8275253420353,19.1415267181731,0.3 72.82717750277961,19.1412451195077,0.3 72.82679170101061,19.1409654813476,0.3 72.82632637215831,19.1406601571945,0.3 72.82610760704669,19.1405318641679,0.3 72.8262047653526,19.140390955734,0.3 72.8261003186701,19.1403232922847,0.3 72.8259763368638,19.140244856831,0.3 72.82585678251159,19.1401737018304,0.3 72.8255345411426,19.140020493164,0.3 72.8253191712105,19.1399477821559,0.3 72.8250606118451,19.139875128784,0.3 72.8244661376536,19.1397149594132,0.3 72.824256578551,19.1396714505034,0.3 72.82414841399731,19.1396602832977,0.3 72.8240734372565,19.1396604060084,0.3 72.8239986770008,19.1396658184919,0.3 72.82392454582821,19.1396764908761,0.3 72.8238514528652,19.1396923642601,0.3 72.82377980150829,19.1397133510387,0.3 72.8237099871985,19.1397393353862,0.3 72.82364239523849,19.1397701738955,0.3 72.8235773986664,19.1398056963697,0.3 72.82351535619711,19.1398457067609,0.3 72.8234566102425,19.139889984253,0.3 72.823401485022,19.1399382844793,0.3 72.8233502847729,19.139990340872,0.3 72.8210883237232,19.1424685237711,0.3 72.8207290889338,19.1421729475137,0.3 72.82283889507851,19.1398568173204,0.3 72.823091377918,19.1395977618685,0.3 72.8232455781143,19.1394737757332,0.3 72.82331343371651,19.1394287968986,0.3 72.8233839205196,19.1393876350597,0.3 72.8234568011038,19.1393504288607,0.3 72.8235318299874,19.1393173036224,0.3 72.82360875445281,19.1392883709197,0.3 72.8236873153985,19.1392637282058,0.3 72.8237672482105,19.1392434584844,0.3 72.8238482836547,19.1392276300295,0.3 72.82393014878321,19.1392162961562,0.3 72.8240125678535,19.1392094950405,0.3 72.8240952632575,19.1392072495908,0.3 72.8241779564561,19.1392095673711,0.3 72.8241988286869,19.1392109749675,0.3 72.82421968187261,19.139212617874,0.3 72.8242405130765,19.1392144958588,0.3 72.82426131936499,19.1392166086579,0.3 72.8242820978077,19.1392189559734,0.3 72.8243028454785,19.1392215374749,0.3 72.82432355945539,19.1392243527989,0.3 72.8243442368213,19.1392274015488,0.3 72.8243648746642,19.1392306832953,0.3 72.8243854700775,19.1392341975762,0.3 72.82440602016079,19.1392379438967,0.3 72.82442652202001,19.139241921729,0.3 72.82445277068911,19.1392474625621,0.3 72.82447898334,19.139253155337,0.3 72.8245051589991,19.1392589998421,0.3 72.82453129669401,19.1392649958605,0.3 72.82455739545389,19.1392711431693,0.3 72.82458345430931,19.1392774415401,0.3 72.8246094722921,19.1392838907393,0.3 72.824635448436,19.139290490527,0.3 72.8246613817762,19.1392972406582,0.3 72.82468727134921,19.1393041408822,0.3 72.82471311619339,19.1393111909427,0.3 72.8247389153488,19.1393183905778,0.3 72.82526039401471,19.1394596895777,0.3 72.82529857508111,19.139469557596,0.3 72.82533665311691,19.1394797788982,0.3 72.8253746245035,19.1394903525128,0.3 72.8254124856323,19.139501277435,0.3 72.8254502329049,19.1395125526267,0.3 72.82548786273421,19.1395241770162,0.3 72.8255253715438,19.1395361494989,0.3 72.8255627557691,19.139548468937,0.3 72.82560001185711,19.1395611341597,0.3 72.8256371362672,19.1395741439634,0.3 72.82567412547139,19.1395874971117,0.3 72.825710975954,19.1396011923356,0.3 72.8257467716585,19.1396152001908,0.3 72.82578235563059,19.1396296871412,0.3 72.8258177207716,19.139644650297,0.3 72.8258528600267,19.1396600866735,0.3 72.825887766386,19.1396759931911,0.3 72.8259224328862,19.139692366677,0.3 72.8259568526118,19.1397092038647,0.3 72.8259910186964,19.1397265013957,0.3 72.8260249243244,19.1397442558193,0.3 72.8260585627319,19.1397624635938,0.3 72.82609192720869,19.139781121087,0.3 72.8261250110986,19.1398002245771,0.3 72.8261533876656,19.1398169706198,0.3 72.8261816792505,19.1398338460476,0.3 72.8262098852001,19.1398508504709,0.3 72.8262380048635,19.1398679834971,0.3 72.8262660375912,19.1398852447309,0.3 72.8262939827363,19.1399026337737,0.3 72.8263218396536,19.1399201502241,0.3 72.8263496076999,19.1399377936778,0.3 72.8263772862344,19.1399555637274,0.3 72.82640487461789,19.1399734599629,0.3 72.8264323722136,19.139991481971,0.3 72.82645977838671,19.1400096293357,0.3 72.8265366581664,19.1398893544929,0.3 72.826776310255,19.1400277217224,0.3 72.8273224787192,19.1403855226793,0.3 72.8278423506758,19.1407771145165,0.3 72.8280595199612,19.1409496451117,0.3 72.8279479758544,19.1410694621981,0.3 72.82840948599269,19.1414417673082,0.3 72.8284351563992,19.1414614341422,0.3 72.8284618423493,19.1414798395385,0.3 72.828489475287,19.1414969362134,0.3 72.8285179842227,19.1415126802451,0.3 72.82854729591671,19.1415270311866,0.3 72.828577335067,19.1415399521702,0.3 72.8286080245023,19.1415514100013,0.3 72.8286392853809,19.1415613752444,0.3 72.82867103739289,19.1415698222987,0.3 72.82870319896681,19.1415767294632,0.3 72.8287356874785,19.141582078993,0.3 72.8287684194644,19.1415858571452,0.3 72.8291654199739,19.1416226547616,0.3 72.8302860861411,19.1416744668721,0.3 72.8318709278921,19.1417408347021,0.3 72.8322666291063,19.1417257914787,0.3 72.8325906970496,19.1416954113001,0.3 72.8325788370958,19.1415229703773,0.3 72.8334791767533,19.1414537902142,0.3 72.8341268397062,19.1414012719935,0.3 72.8343920889242,19.1413797625741,0.3 72.8343930045102,19.141536604001,0.3 72.83531652566811,19.1414803445558,0.3 72.83567188302931,19.1414761260044,0.3 72.8360292078936,19.1414629245178,0.3 72.8361035810353,19.1414564696083,0.3 72.8361777616127,19.1414482535059,0.3 72.8362517034591,19.1414382813236,0.3 72.8363253605561,19.1414265592675,0.3 72.8363986870631,19.1414130946325,0.3 72.8364716373448,19.1413978957983,0.3 72.8365441660002,19.1413809722238,0.3 72.8366162278907,19.141362334441,0.3 72.8366877781684,19.1413419940493,0.3 72.8367587723037,19.1413199637073,0.3 72.83682916611301,19.1412962571254,0.3 72.83689891578671,19.1412708890574,0.3 72.8376637370158,19.1409258040427,0.3 72.83814625923,19.1407164699168,0.3 72.83860105200981,19.1405635826337,0.3 72.8389731730164,19.1404490390109,0.3 72.8395924948253,19.1402728186324,0.3 72.8399028276629,19.1402155781777,0.3 72.84013971358971,19.140197639234,0.3 72.8405801513766,19.1402063460127,0.3 72.8408023976162,19.1402169143268,0.3 72.8410207080873,19.1402272940681,0.3 72.84114176136811,19.1402315867238,0.3 72.8413562540577,19.1402146164589,0.3 72.84148449378429,19.1401810673845,0.3 72.84145226455961,19.1401208494886,0.3 72.8430616138273,19.1393428212339,0.3 72.84310156523151,19.1394174660014,0.3 72.8431358586562,19.1394047682184,0.3 72.8431704911763,19.1393929309089,0.3 72.8432054388939,19.1393819622414,0.3 72.8432406776937,19.1393718697845,0.3 72.8432761832597,19.1393626605026,0.3 72.84331193109141,19.1393543407505,0.3 72.84334789652171,19.139346916269,0.3 72.84338405473289,19.1393403921817,0.3 72.8434203807745,19.1393347729901,0.3 72.84345684958031,19.1393300625721,0.3 72.8434934359853,19.1393262641778,0.3 72.8435301147435,19.1393233804285,0.3 72.8435650863937,19.1393214860431,0.3 72.8436000969339,19.1393204228565,0.3 72.8436351244964,19.1393201915331,0.3 72.843670147203,19.139320792217,0.3 72.8437051431782,19.1393222245335,0.3 72.8437400905634,19.1393244875877,0.3 72.84377496753029,19.1393275799664,0.3 72.8438097522947,19.1393314997378,0.3 72.8438444231298,19.1393362444541,0.3 72.8438789583801,19.1393418111513,0.3 72.8439133364747,19.1393481963528,0.3 72.8439475359408,19.1393553960703,0.3 72.8446381850635,19.1395705131827,0.3 72.84467714772779,19.1395822882495,0.3 72.844716322834,19.1395934084303,0.3 72.84475569819681,19.1396038702663,0.3 72.84479526156871,19.1396136705033,0.3 72.8448350006438,19.1396228060928,0.3 72.8448749030614,19.1396312741935,0.3 72.84491495641019,19.1396390721712,0.3 72.84495514823171,19.1396461976002,0.3 72.8449954660243,19.1396526482643,0.3 72.8450358972477,19.1396584221571,0.3 72.8450764293257,19.1396635174823,0.3 72.8451170496509,19.1396679326552,0.3 72.8451554145593,19.139671859708,0.3 72.8451938628473,19.1396749640167,0.3 72.84523237498399,19.1396772440044,0.3 72.84527093140559,19.1396786985127,0.3 72.8453095125262,19.1396793268028,0.3 72.8453480987471,19.1396791285554,0.3 72.84538667046731,19.1396781038712,0.3 72.84542520809291,19.1396762532707,0.3 72.8454636920472,19.1396735776938,0.3 72.8455021027813,19.1396700784997,0.3 72.8455404207829,19.1396657574658,0.3 72.8455786265872,19.1396606167872,0.3 72.845821352692,19.1396245268914,0.3 72.8469535812182,19.139460833844,0.3 72.84808580824731,19.1392971335947,0.3 72.84856936160649,19.1392360774524,0.3 72.8487010727588,19.139226004734,0.3 72.8489231670612,19.1392173569589,0.3 72.8498051165746,19.1392237105935,0.3 72.8501468871618,19.1392145134296,0.3 72.8503956708938,19.1392040666794,0.3 72.85081345858811,19.1391974585098,0.3 72.8515329784029,19.1392856539331,0.3 72.85158080944031,19.1392966405288,0.3 72.8516284763008,19.1393082537838,0.3 72.85167596989579,19.1393204914836,0.3 72.8517232811695,19.1393333512953,0.3 72.85177040110079,19.1393468307665,0.3 72.85181732070529,19.1393609273273,0.3 72.8518640310365,19.13937563829,0.3 72.8519105231883,19.1393909608495,0.3 72.8519567882955,19.1394068920844,0.3 72.8520028175366,19.139423428957,0.3 72.8520486021352,19.1394405683142,0.3 72.85209413336121,19.1394583068882,0.3 72.8529675015245,19.1398640895267,0.3 72.85300966420481,19.1397813002589,0.3 72.85382046396769,19.1401195451928,0.3 72.85466168934281,19.1403822446226,0.3 72.85463589364269,19.1404711463224,0.3 72.8551545399485,19.1405925359221,0.3 72.85558701828001,19.1406851750445,0.3 72.8560194971986,19.1407778131946,0.3 72.85640728205929,19.1408501219484,0.3 72.85686369148451,19.1408569260226,0.3 72.8569086619131,19.1408566542699,0.3 72.8569535760529,19.1408544992915,0.3 72.85699834663539,19.1408504652745,0.3 72.8570428866706,19.1408445600568,0.3 72.8570871096171,19.1408367951124,0.3 72.8571309295492,19.1408271855282,0.3 72.8571742613241,19.1408157499758,0.3 72.857217020748,19.1408025106743,0.3 72.857259124739,19.1407874933478,0.3 72.8573004914887,19.1407707271749,0.3 72.85734104062141,19.1407522447322,0.3 72.8573806933501,19.1407320819314,0.3 72.8577703907059,19.1405474249975,0.3 72.8586527287811,19.1400927686741,0.3 72.8596480191984,19.1395802131266,0.3 72.85997899967261,19.1394265561531,0.3 72.8603004939088,19.1393181482533,0.3 72.86036615587931,19.1393008709995,0.3 72.8607770768589,19.1392162430477,0.3 72.8607370248272,19.139040577633,0.3 72.8625016690883,19.1386771425403,0.3 72.86254221883949,19.1388549824324,0.3 72.8627727511072,19.1388084140958,0.3 72.8632066924,19.1387386507895,0.3 72.86359179604671,19.1387306903167,0.3 72.8640244922746,19.1387766307547,0.3 72.86469890457219,19.1388670521797,0.3 72.8651980818762,19.1389572108135,0.3 72.8657966365833,19.1391384860547,0.3 72.8665335802924,19.1393899159156,0.3 72.8666716924388,19.1394319909843,0.3 72.8667609236105,19.1394580270704,0.3 72.8668508026244,19.1394819659415,0.3 72.8669412749193,19.1395037930648,0.3 72.8670322855733,19.1395234951898,0.3 72.867123779338,19.1395410603558,0.3 72.8672157006713,19.1395564778992,0.3 72.8673079937715,19.1395697384604,0.3 72.8674006026116,19.1395808339891,0.3 72.86749347097231,19.1395897577495,0.3 72.867586542477,19.1395965043236,0.3 72.86767976062571,19.1396010696157,0.3 72.86777306882939,19.139603450854,0.3 72.86786628282449,19.139603875111,0.3 72.8679594878424,19.1396025741709,0.3 72.86805264853631,19.1395995485267,0.3 72.8681457295763,19.1395947993254,0.3 72.8682386956627,19.1395883283681,0.3 72.8683315115391,19.1395801381082,0.3 72.8684241420064,19.1395702316517,0.3 72.8685165519359,19.1395586127552,0.3 72.8686087062822,19.1395452858247,0.3 72.86870057009701,19.139530255914,0.3 72.8687921085422,19.1395135287225,0.3 72.8688832869032,19.1394951105938,0.3 72.8692676785262,19.1393949126286,0.3 72.8698891288167,19.1392199809787,0.3 72.870467626189,19.1390246665321,0.3 72.8706565740242,19.1389318627549,0.3 72.8708965608057,19.1387915271257,0.3 72.8710975939223,19.1386739697509,0.3 72.8711663415135,19.1386222322832,0.3 72.87130679844221,19.1385338310666,0.3 72.87138407383689,19.138485104344,0.3 72.8717218907084,19.1382588704534,0.3 72.8720491721262,19.1379848708184,0.3 72.8723472846101,19.1376595639186,0.3 72.8727632810545,19.137077508678,0.3 72.87305449889411,19.136653769962,0.3 72.8732785758077,19.1362826746024,0.3 72.873366889164,19.1361097362028,0.3 72.8732602823241,19.1360605598987,0.3 72.8735934587083,19.1354070706816,0.3 72.87392663225749,19.1347535805636,0.3 72.8740359158521,19.1348039914287,0.3 72.8741889931573,19.1344706988112,0.3 72.8742620179458,19.1342318155876,0.3 72.87432332512179,19.1338496563247,0.3 72.8744016175621,19.1332006817855,0.3 72.87448374381719,19.1325203398955,0.3 72.8745575516613,19.1320788803995,0.3 72.8746763211137,19.1317147930551,0.3 72.87470319733799,19.1316528172788,0.3 72.8747318234189,19.1315915534113,0.3 72.8747621785043,19.1315310460749,0.3 72.8747942404831,19.1314713393406,0.3 72.8748279860009,19.1314124766966,0.3 72.8748633904772,19.1313545010159,0.3 72.8749004281234,19.1312974545256,0.3 72.87493907196109,19.1312413787758,0.3 72.8749792938425,19.13118631461,0.3 72.8750210644702,19.1311323021343,0.3 72.87506435341921,19.1310793806892,0.3 72.8751091291584,19.1310275888201,0.3 72.87515887297469,19.1309802824971,0.3 72.8752093202111,19.1309336539516,0.3 72.87526046064561,19.1308877126317,0.3 72.87531228391561,19.1308424678458,0.3 72.8753647795202,19.1307979287617,0.3 72.8754179368221,19.1307541044041,0.3 72.87547174505041,19.1307110036524,0.3 72.8755261933017,19.1306686352401,0.3 72.87558127054351,19.1306270077518,0.3 72.8756369656157,19.130586129622,0.3 72.8756932672329,19.1305460091337,0.3 72.87575016398699,19.1305066544161,0.3 72.875899163694,19.1304274247955,0.3 72.8760500676856,19.1303515208997,0.3 72.87620279380531,19.1302789840528,0.3 72.8763572589055,19.1302098537457,0.3 72.8765133788918,19.1301441676147,0.3 72.8766710687693,19.1300819614212,0.3 72.8768302426886,19.1300232690319,0.3 72.87699081399271,19.1299681224006,0.3 72.8771526952639,19.1299165515505,0.3 72.8773157983719,19.1298685845587,0.3 72.877480034521,19.1298242475398,0.3 72.877645314299,19.1297835646323,0.3 72.87920643815311,19.1295173839658,0.3 72.8802907948868,19.1293374587197,0.3 72.88046440668241,19.129308971805,0.3 72.88045607502509,19.129100462248,0.3 72.8807410083777,19.1290777325667,0.3 72.8822910956349,19.1290217690371,0.3 72.8822970007211,19.1291695097177,0.3 72.88365297765419,19.12914309076,0.3 72.8850089552201,19.1291166617532,0.3 72.88551108290039,19.1290934269353,0.3 72.88562105082261,19.1290801389692,0.3 72.8857303800208,19.1290627289991,0.3 72.88583889952881,19.1290412242491,0.3 72.8859464396463,19.1290156583474,0.3 72.88605283220539,19.1289860712723,0.3 72.8861579108324,19.1289525092908,0.3 72.8862615112087,19.1289150248851,0.3 72.8863634713275,19.1288736766719,0.3 72.8864636317474,19.1288285293096,0.3 72.8865618358417,19.1287796533975,0.3 72.8866579300431,19.1287271253658,0.3 72.8867517640841,19.1286710273555,0.3 72.8875505084204,19.1280898643688,0.3 72.8895587639543,19.1265882208315,0.3 72.8895023578619,19.1265140720156,0.3 72.890272476017,19.1260128149558,0.3 72.8910887363424,19.1255825513152,0.3 72.8911353734464,19.1256624821524,0.3 72.89166842473421,19.1254309593261,0.3 72.89233716201871,19.1251900394225,0.3 72.8933627193549,19.1248639723923,0.3 72.8936444442414,19.1247854584677,0.3 72.89393591259029,19.1247240569496,0.3 72.8942313565633,19.1246832880376,0.3 72.8947685334814,19.1246516830876,0.3 72.8954220875511,19.1246276464199,0.3 72.8958507739107,19.1245992342749,0.3 72.8959684136663,19.1245835267414,0.3 72.8960853050345,19.1245633947552,0.3 72.8962012638959,19.1245388700259,0.3 72.8963161076006,19.1245099911821,0.3 72.89642965525491,19.124476803711,0.3 72.89654172800699,19.1244393598864,0.3 72.8966521493287,19.124397718686,0.3 72.89676074529299,19.1243519456995,0.3 72.8968673448486,19.1243021130243,0.3 72.8969717800891,19.1242482991524,0.3 72.8970738865178,19.1241905888466,0.3 72.89717350330631,19.1241290730071,0.3 72.897275179738,19.1240605379278,0.3 72.8973737666237,19.1239880394378,0.3 72.8974690930711,19.123911703209,0.3 72.8975609938406,19.1238316615657,0.3 72.89764930963131,19.1237480532554,0.3 72.8977338873576,19.1236610232082,0.3 72.89781458041421,19.1235707222851,0.3 72.89789124893009,19.1234773070171,0.3 72.89796376001151,19.1233809393332,0.3 72.898031987972,19.1232817862803,0.3 72.8980958145501,19.1231800197333,0.3 72.8981551291147,19.1230758160969,0.3 72.89827049999781,19.1228472198578,0.3 72.8981819055057,19.1228098751722,0.3 72.89854562080291,19.1220303170609,0.3 72.8989093323744,19.1212507578423,0.3 72.898998368149,19.1212882882434,0.3 72.8991804182203,19.1209119695537,0.3 72.899318914503,19.1206914858408,0.3 72.8993363452425,19.1206647635663,0.3 72.8993547077657,19.1206386111779,0.3 72.89937398146959,19.1206130580184,0.3 72.8993941447287,19.1205881327587,0.3 72.8994151749194,19.1205638633646,0.3 72.89943704844571,19.1205402770665,0.3 72.8994597407652,19.120517400328,0.3 72.89948322641681,19.120495258817,0.3 72.8995074790495,19.120473877376,0.3 72.89953247145171,19.120453279995,0.3 72.8995581755818,19.1204334897842,0.3 72.8995845625998,19.1204145289481,0.3 72.89960986631969,19.1203944764033,0.3 72.8996356077042,19.1203749336276,0.3 72.8996617753879,19.1203559092489,0.3 72.89968835781821,19.1203374116667,0.3 72.89971534325861,19.1203194490475,0.3 72.8997427197952,19.1203020293219,0.3 72.8997704753411,19.1202851601807,0.3 72.8997985976422,19.1202688490715,0.3 72.8998270742826,19.1202531031957,0.3 72.8998558926898,19.120237929505,0.3 72.8998850401406,19.1202233346987,0.3 72.8999145037664,19.1202093252202,0.3 72.8999524255467,19.1201930635825,0.3 72.89999061947231,19.1201773879512,0.3 72.9000290755211,19.1201623024393,0.3 72.9000677836024,19.1201478110056,0.3 72.9001067335589,19.1201339174525,0.3 72.9001459151704,19.1201206254257,0.3 72.90018531815549,19.120107938413,0.3 72.90022493217511,19.1200958597436,0.3 72.9002647468343,19.120084392587,0.3 72.90030475168599,19.120073539952,0.3 72.9003449362328,19.1200633046865,0.3 72.9003852899305,19.1200536894763,0.3 72.90095867936211,19.1199100439783,0.3 72.9014654020791,19.1197831652368,0.3 72.9019405146643,19.1196554688909,0.3 72.90227302400869,19.1195447660089,0.3 72.9028294335059,19.1193455962205,0.3 72.9032118818687,19.1192339688729,0.3 72.9032460372879,19.1192245096138,0.3 72.9032804653894,19.1192159901779,0.3 72.9033151375571,19.119208417646,0.3 72.9033500249725,19.1192017983125,0.3 72.9033850986379,19.1191961376793,0.3 72.9034203294007,19.1191914404513,0.3 72.9034556879781,19.119187710533,0.3 72.90349114498081,19.1191849510245,0.3 72.90352667093779,19.1191831642196,0.3 72.9035622363208,19.1191823516034,0.3 72.9035978115685,19.1191825138516,0.3 72.90363336711179,19.1191836508292,0.3 72.90366874521671,19.1191850212252,0.3 72.9037041139328,19.1191865954502,0.3 72.90373947196019,19.119188373446,0.3 72.9037748179997,19.1191903551473,0.3 72.90381015075241,19.1191925404815,0.3 72.9038454689199,19.1191949293681,0.3 72.9038807712042,19.1191975217195,0.3 72.90391605630811,19.1192003174403,0.3 72.903951322935,19.1192033164277,0.3 72.9039865697888,19.1192065185718,0.3 72.9040217955743,19.1192099237548,0.3 72.90405699899711,19.1192135318514,0.3 72.9040932289419,19.1192202289045,0.3 72.9041293795579,19.1192273026881,0.3 72.9041654465096,19.1192347523538,0.3 72.9042014254714,19.1192425770082,0.3 72.9042373121282,19.1192507757129,0.3 72.90427310217621,19.1192593474848,0.3 72.904308791323,19.1192682912956,0.3 72.9043443752883,19.119277606073,0.3 72.9043798498046,19.1192872906996,0.3 72.9044152106172,19.1192973440143,0.3 72.9044504534854,19.1193077648111,0.3 72.9044855741823,19.1193185518403,0.3 72.9051182506489,19.1195121031219,0.3 72.9051502564476,19.1194199467709,0.3 72.9060216347895,19.1197441809411,0.3 72.9068578396614,19.1201382900435,0.3 72.90681164128419,19.1202192468621,0.3 72.9075568397142,19.1206171322341,0.3 72.90761199919849,19.1206525145871,0.3 72.9076659771836,19.1206895066434,0.3 72.9077187216939,19.1207280727837,0.3 72.907770181941,19.1207681758734,0.3 72.9078203083733,19.1208097772974,0.3 72.9078690527234,19.1208528369984,0.3 72.9079163680543,19.1208973135144,0.3 72.9079622088054,19.1209431640194,0.3 72.9080065308352,19.1209903443643,0.3 72.90804929146501,19.1210388091195,0.3 72.90809044951899,19.1210885116185,0.3 72.90812996536501,19.1211394040028,0.3 72.9081628424416,19.1211844440594,0.3 72.9081944283643,19.1212303113124,0.3 72.9082247001095,19.1212769723301,0.3 72.9082536356112,19.1213243931019,0.3 72.9082812137777,19.1213725390634,0.3 72.9083074145063,19.1214213751218,0.3 72.90833221869831,19.1214708656812,0.3 72.908355608273,19.1215209746684,0.3 72.9083775661806,19.1215716655596,0.3 72.9083980764149,19.1216229014068,0.3 72.90841712402479,19.1216746448647,0.3 72.9084346951251,19.121726858218,0.3 72.908592289757,19.1224813625694,0.3 72.9087245226285,19.1231149177647,0.3 72.90875029553941,19.1232086866525,0.3 72.9087876354732,19.1232988701383,0.3 72.90883601080439,19.1233841841925,0.3 72.9088947327828,19.1234634141143,0.3 72.9089629653394,19.1235354318267,0.3 72.9090397369895,19.1235992119384,0.3 72.90912395466459,19.123653846344,0.3 72.9092144192756,19.1236985571537,0.3 72.90930984278489,19.12373270777,0.3 72.9094088665469,19.1237558119515,0.3 72.9095100806526,19.1237675407364,0.3 72.9096120440047,19.1237677271273,0.3 72.90996700653111,19.1237463596325,0.3 72.91054519504959,19.1236631043259,0.3 72.9110075392211,19.1235961906603,0.3 72.91152343291221,19.1235401112685,0.3 72.9117814226759,19.1235430406882,0.3 72.91206004450559,19.123576322542,0.3 72.9124036483521,19.123652617322,0.3 72.9128464225241,19.1237672706057,0.3 72.9128877366457,19.1236355598532,0.3 72.9132114898904,19.1237273068529,0.3 72.91438175595481,19.1240280209968,0.3 72.9146335356359,19.1240886795665,0.3 72.91458851220391,19.124219015522,0.3 72.915180721338,19.1243725782948,0.3 72.91590081624091,19.1245596721022,0.3 72.91622484185331,19.1246588135455,0.3 72.91626185359701,19.1246706398365,0.3 72.9162985327572,19.1246833678811,0.3 72.9163348550199,19.1246969892424,0.3 72.9163707963077,19.1247114948911,0.3 72.9164063327956,19.1247268752115,0.3 72.9164414409269,19.1247431200085,0.3 72.916476097429,19.1247602185136,0.3 72.91651027932871,19.1247781593928,0.3 72.9165439639669,19.1247969307532,0.3 72.9165771290147,19.1248165201518,0.3 72.9166097524872,19.1248369146031,0.3 72.9166418127586,19.1248581005881,0.3 72.9166418127586,19.1248581005881,0.3 72.9166688876421,19.1248748804068,0.3 72.9166957041829,19.1248920309309,0.3 72.91672225676341,19.1249095485675,0.3 72.916748539821,19.124927429647,0.3 72.9167745478498,19.1249456704236,0.3 72.9168002754012,19.1249642670761,0.3 72.9168257170856,19.1249832157087,0.3 72.9168508675732,19.125002512352,0.3 72.9168757215952,19.1250221529636,0.3 72.9169002739449,19.125042133429,0.3 72.9169245194788,19.1250624495627,0.3 72.9169484531176,19.1250830971086,0.3 72.91696938307339,19.125101820238,0.3 72.91699012576839,19.1251207307043,0.3 72.9170106793466,19.1251398268156,0.3 72.9170310419688,19.1251591068634,0.3 72.9170512118133,19.1251785691224,0.3 72.917071187075,19.1251982118515,0.3 72.91709096596659,19.1252180332931,0.3 72.9171105467186,19.1252380316736,0.3 72.9171299275788,19.1252582052038,0.3 72.917149106813,19.1252785520787,0.3 72.9171680827051,19.1252990704778,0.3 72.9171868535573,19.1253197585652,0.3 72.9176579164392,19.125853631734,0.3 72.9179945915578,19.1262366661727,0.3 72.91856117872619,19.1269328059181,0.3 72.9188909194267,19.1273810106071,0.3 72.9191521691052,19.1277362611851,0.3 72.9193042319757,19.1279350693038,0.3 72.91944823692791,19.1280866868579,0.3 72.919565336971,19.1281758343225,0.3 72.9196950693179,19.1282474614208,0.3 72.9198345559301,19.128299979133,0.3 72.91998070236321,19.1283322223707,0.3 72.9201302664187,19.1283434758251,0.3 72.920279930074,19.1283334898372,0.3 72.9204263730953,19.1283024859372,0.3 72.9205663466991,19.1282511519297,0.3 72.9206967456291,19.1281806266354,0.3 72.9208146770485,19.1280924746258,0.3 72.9209175247173,19.1279886515119,0.3 72.9210030070347,19.1278714605593,0.3 72.9210808427861,19.1277213149251,0.3 72.9211816230608,19.1274552972601,0.3 72.9213005724402,19.127115027794,0.3 72.9214450803409,19.1267020365912,0.3 72.9216345117991,19.1262757778763,0.3 72.921656637578,19.1262399256935,0.3 72.92167980664991,19.1262046739256,0.3 72.92170400099261,19.126170049993,0.3 72.92172920178579,19.1261360808274,0.3 72.92175538942711,19.1261027928516,0.3 72.921782543546,19.1260702119583,0.3 72.92181064302039,19.12603836349,0.3 72.92183966599311,19.12600727222,0.3 72.9218695898884,19.1259769623322,0.3 72.92190039143,19.1259474574028,0.3 72.9219320466587,19.1259187803819,0.3 72.9219645309517,19.1258909535755,0.3 72.92200201684329,19.125860706034,0.3 72.92204048216681,19.1258315905965,0.3 72.9220798890923,19.1258036358972,0.3 72.9221201988636,19.1257768694289,0.3 72.92216137183679,19.1257513175159,0.3 72.9222033675191,19.1257270052877,0.3 72.92224614460849,19.1257039566551,0.3 72.9222896610347,19.1256821942857,0.3 72.9223338740004,19.1256617395824,0.3 72.92237874002311,19.1256426126617,0.3 72.92242421497809,19.1256248323348,0.3 72.9224702541423,19.125608416088,0.3 72.9227384939724,19.1255358509973,0.3 72.92295785362759,19.125493461636,0.3 72.9233692220275,19.1254186771974,0.3 72.9233548808391,19.1253474091298,0.3 72.92424457548471,19.1251813746585,0.3 72.9251389517828,19.1250400000772,0.3 72.92515398666031,19.125125928425,0.3 72.9257464921902,19.1250732311846,0.3 72.9263409555531,19.1250472005377,0.3 72.9270548041827,19.125038761601,0.3 72.92778614017119,19.1250296927606,0.3 72.9284772941612,19.1249871400371,0.3 72.92946307329819,19.1249037750938,0.3 72.93015054364901,19.1248575510013,0.3 72.9324384550273,19.1247518377744,0.3 72.9332670671165,19.1247063373061,0.3 72.9341885244407,19.1246469602575,0.3 72.9341816546045,19.1245457572905,0.3 72.9359907286528,19.124434703545,0.3 72.9359958467517,19.1245302730735,0.3 72.93697675497521,19.1244715554182,0.3 72.9372140165211,19.1244752141036,0.3 72.93730660184519,19.1244825869344,0.3 72.93739878440231,19.1244936138409,0.3 72.93749040463371,19.1245082757374,0.3 72.9375813039541,19.1245265472459,0.3 72.9376713250258,19.1245483967413,0.3 72.9377603120312,19.1245737864043,0.3 72.937848110942,19.124602672289,0.3 72.93793456978619,19.1246350043972,0.3 72.93801953891131,19.1246707267654,0.3 72.93810287124261,19.1247097775625,0.3 72.9381844225386,19.1247520891955,0.3 72.93826405164,19.1247975884276,0.3 72.9383454156964,19.1248536596869,0.3 72.9384245168344,19.1249125837498,0.3 72.93850124439621,19.1249742781874,0.3 72.93857549104369,19.1250386566952,0.3 72.9386471529093,19.1251056292135,0.3 72.938716129741,19.125175102054,0.3 72.9387823250421,19.1252469780304,0.3 72.9388456462072,19.1253211565945,0.3 72.9389060046508,19.1253975339766,0.3 72.9389633159318,19.1254760033311,0.3 72.9390174998716,19.1255564548856,0.3 72.939068480666,19.1256387760946,0.3 72.93971848119121,19.1271479316546,0.3 72.9398890612507,19.1274911198895,0.3 72.9412673651044,19.1298948151208,0.3 72.94251310320389,19.1320638632084,0.3 72.9420960345047,19.1322802481618,0.3 72.9408502792633,19.130111160114,0.3 72.93935252573149,19.1275032187945,0.3 72.9391626717244,19.1270482236617,0.3 72.9387073787359,19.1259694905673,0.3 72.9386709409455,19.1258893354304,0.3 72.9386301122118,19.1258111156247,0.3 72.9385850058751,19.1257350482757,0.3 72.938535747149,19.1256613445331,0.3 72.9384824727731,19.1255902089857,0.3 72.938425330633,19.1255218390932,0.3 72.93836447935,19.1254564246377,0.3 72.9383000878408,19.1253941471975,0.3 72.93823233484829,19.1253351796428,0.3 72.93816140844601,19.125279685656,0.3 72.9380875055149,19.1252278192772,0.3 72.9380108311984,19.1251797244769,0.3 72.93794066210801,19.1251398720428,0.3 72.93786862324551,19.1251031569895,0.3 72.9377948697728,19.1250696583953,0.3 72.9377195605443,19.1250394484105,0.3 72.9376428577653,19.1250125921021,0.3 72.9375649266418,19.1249891473139,0.3 72.93748593502581,19.1249691645418,0.3 72.9374060530525,19.1249526868251,0.3 72.9373254527753,19.1249397496534,0.3 72.93724430779371,19.124930380891,0.3 72.9371627928811,19.124924600716,0.3 72.937081083607,19.1249224215774,0.3 72.936020004575,19.1249813685856,0.3 72.9360269647653,19.1250776064041,0.3 72.9342257458399,19.1251952866481,0.3 72.9342187822205,19.1250976616146,0.3 72.93246151058879,19.12520291979,0.3 72.9294518934967,19.1253581103552,0.3 72.9284480965259,19.1254429816716,0.3 72.92755768208259,19.1254851733447,0.3 72.9263864410398,19.1254980033318,0.3 72.9257907604112,19.1255230104764,0.3 72.9252320276841,19.1255719527342,0.3 72.9252446748712,19.1256442344652,0.3 72.92347451565711,19.1259419290338,0.3 72.9234584606006,19.1258621999187,0.3 72.92300294387741,19.1259450895021,0.3 72.922595234383,19.1260462376964,0.3 72.9222776727168,19.1262306085009,0.3 72.92225452960071,19.1262504417021,0.3 72.92223199172641,19.1262708949094,0.3 72.9222100774731,19.1262919514442,0.3 72.9221888047109,19.1263135941356,0.3 72.9221681907873,19.1263358053348,0.3 72.9221482525124,19.1263585669297,0.3 72.9221290061451,19.1263818603586,0.3 72.92211046738071,19.126405666627,0.3 72.9220926513368,19.1264299663217,0.3 72.9220755725421,19.1264547396272,0.3 72.9220592449241,19.1264799663418,0.3 72.9220436817975,19.126505625894,0.3 72.92203067479301,19.1265404455835,0.3 72.9220174052041,19.1265751756485,0.3 72.922003873714,19.1266098142999,0.3 72.9219900810194,19.1266443597537,0.3 72.92197602783111,19.1266788102304,0.3 72.9219617148722,19.1267131639555,0.3 72.9219471428802,19.1267474191594,0.3 72.92193231260541,19.1267815740778,0.3 72.92191722481169,19.1268156269512,0.3 72.9219018802759,19.1268495760257,0.3 72.9218862797883,19.1268834195525,0.3 72.9218704241524,19.1269171557884,0.3 72.9214385961849,19.128056628047,0.3 72.9212844775748,19.1282714072112,0.3 72.92109216447859,19.1284562763879,0.3 72.9208679521746,19.1286051838844,0.3 72.920619180223,19.1287132552068,0.3 72.92035399219699,19.1287769526358,0.3 72.9200810690856,19.1287941910414,0.3 72.9198093450994,19.1287644061414,0.3 72.9195477151836,19.1286885729728,0.3 72.91930474381979,19.1285691739682,0.3 72.9190883846489,19.1284101176851,0.3 72.91890572009891,19.1282166108475,0.3 72.9187627295408,19.1279949878944,0.3 72.9180369057309,19.1270123467813,0.3 72.91729330498561,19.1261431997536,0.3 72.91671898317451,19.1255017054645,0.3 72.9166779239677,19.1254577966317,0.3 72.9166349128691,19.1254156097159,0.3 72.91659002973179,19.1253752230384,0.3 72.916543357884,19.1253367115782,0.3 72.9164949839747,19.1253001468326,0.3 72.9164449978127,19.1252655966849,0.3 72.9163934921994,19.1252331252782,0.3 72.9163405627574,19.1252027928962,0.3 72.9162863077521,19.1251746558515,0.3 72.91623082791,19.125148766381,0.3 72.91617422623101,19.1251251725487,0.3 72.9161166077979,19.1251039181568,0.3 72.9157310274792,19.1249834893154,0.3 72.9150623154225,19.124808342017,0.3 72.9144639048008,19.1246531806693,0.3 72.9144250463529,19.1247885648422,0.3 72.9141009647486,19.1246982230667,0.3 72.9135561120936,19.1245564427112,0.3 72.9129290155376,19.1243940155998,0.3 72.9126795619229,19.1243351730451,0.3 72.91272137383049,19.1242029578782,0.3 72.9123778157026,19.124113866811,0.3 72.9123499754061,19.1241066507585,0.3 72.9123221298026,19.1240994548464,0.3 72.9122945323617,19.1240923655537,0.3 72.9122670912418,19.1240853797235,0.3 72.9122398013358,19.124078516214,0.3 72.9122126578292,19.1240717935562,0.3 72.91218565623591,19.124065229964,0.3 72.9121587924366,19.1240588433405,0.3 72.91213206271991,19.1240526512844,0.3 72.9121054638196,19.1240466710964,0.3 72.912078992952,19.1240409197818,0.3 72.9120526478508,19.1240354140532,0.3 72.9120264268017,19.1240301703297,0.3 72.91200032867501,19.1240252047366,0.3 72.9119743529582,19.1240205331008,0.3 72.9119484997851,19.1240161709457,0.3 72.9119227699786,19.1240121334853,0.3 72.91189637544061,19.1240083215764,0.3 72.9118693565258,19.1240047929554,0.3 72.9118422871222,19.1240016332163,0.3 72.911815172804,19.1239988430097,0.3 72.9117880191546,19.1239964229102,0.3 72.91176083176541,19.1239943734161,0.3 72.9117336162351,19.1239926949495,0.3 72.91170637816769,19.123991387856,0.3 72.91167912317221,19.1239904524045,0.3 72.911651856861,19.123989888788,0.3 72.9116245848487,19.1239896971222,0.3 72.9115973127512,19.1239898774468,0.3 72.91157004618439,19.1239904297245,0.3 72.91154336564441,19.1239913316657,0.3 72.9115173180448,19.1239925303104,0.3 72.9114911086282,19.1239940380096,0.3 72.91146474005301,19.1239958397405,0.3 72.9114382143249,19.1239979200986,0.3 72.9114115328486,19.1240002633062,0.3 72.9113846964523,19.1240028532221,0.3 72.9113577054183,19.1240056733486,0.3 72.9113305595158,19.1240087068367,0.3 72.9113032580357,19.1240119364899,0.3 72.9112757998255,19.1240153447653,0.3 72.91124818332641,19.124018913775,0.3 72.91122040661109,19.1240226252845,0.3 72.9111924674239,19.1240264607106,0.3 72.9111643632213,19.124030401118,0.3 72.9111360912151,19.1240344272147,0.3 72.91110773701379,19.1240385065356,0.3 72.9110790607384,19.1240426532902,0.3 72.9101543072301,19.1241764885734,0.3 72.91013260834041,19.1241796260306,0.3 72.9101109043135,19.1241827490644,0.3 72.9100889365742,19.1241858786578,0.3 72.9100667890431,19.1241889864375,0.3 72.91004445933289,19.1241920560797,0.3 72.91002194515021,19.1241950708786,0.3 72.9099992443364,19.1241980137415,0.3 72.9099763549165,19.1242008671846,0.3 72.90995327512439,19.1242036133324,0.3 72.9099300034585,19.1242062339098,0.3 72.90990653876401,19.1242087102436,0.3 72.90988288022111,19.1242110232638,0.3 72.9098590274324,19.124213153502,0.3 72.9098349804664,19.1242150810945,0.3 72.90981073991161,19.1242167857867,0.3 72.9097863069304,19.1242182469397,0.3 72.90976168331601,19.1242194435386,0.3 72.9097368715494,19.1242203542034,0.3 72.9097118748583,19.1242209572022,0.3 72.9096866972771,19.1242212304684,0.3 72.909661343708,19.1242211516199,0.3 72.9096358199828,19.1242206979818,0.3 72.9096101329032,19.1242198466127,0.3 72.90958539530971,19.1242186287305,0.3 72.9094470445702,19.1242045089722,0.3 72.90931071306009,19.1241780429453,0.3 72.9091776175251,19.1241394668598,0.3 72.90904894582749,19.1240891250064,0.3 72.90892584634371,19.1240274666835,0.3 72.9088094177153,19.123955042187,0.3 72.9087006990427,19.1238724978987,0.3 72.9086006606116,19.1237805705164,0.3 72.90851019523321,19.1236800804797,0.3 72.9084301102759,19.1235719246462,0.3 72.908361120461,19.1234570682871,0.3 72.9083038414831,19.1233365364724,0.3 72.9082949060045,19.1233145772523,0.3 72.9082860406364,19.1232916462503,0.3 72.9082776239382,19.1232687390794,0.3 72.90826963466429,19.1232458681229,0.3 72.9082620522569,19.123223045832,0.3 72.9082548560496,19.1232002845768,0.3 72.9082480250562,19.1231775943133,0.3 72.9082415385645,19.1231549847398,0.3 72.9082353759796,19.1231324647694,0.3 72.9082295168563,19.1231100425763,0.3 72.9082239409297,19.1230877256562,0.3 72.9082186281382,19.1230655208604,0.3 72.9082135586489,19.1230434344503,0.3 72.9082087128786,19.1230214721432,0.3 72.90820407151141,19.1229996391584,0.3 72.90819961551649,19.1229779402625,0.3 72.9081953261625,19.1229563798133,0.3 72.9081911850309,19.1229349618037,0.3 72.9081871740276,19.1229136899034,0.3 72.9081832753931,19.1228925675005,0.3 72.9081794717123,19.1228715977408,0.3 72.90817574592251,19.1228507835673,0.3 72.9081720668763,19.1228300459723,0.3 72.9081684566802,19.1228096052527,0.3 72.9080789784576,19.1223026037289,0.3 72.90807445427269,19.1222769881274,0.3 72.90806990955881,19.1222513762291,0.3 72.9080653693506,19.1222260253215,0.3 72.908060798975,19.1222008538405,0.3 72.9080561792461,19.1221758651305,0.3 72.9080514914135,19.1221510626264,0.3 72.908046717177,19.1221264499092,0.3 72.9080418386927,19.1221020307377,0.3 72.908036838583,19.1220778090799,0.3 72.9080316999468,19.1220537891477,0.3 72.90802640637151,19.1220299754283,0.3 72.9080209419451,19.1220063727135,0.3 72.90801529126961,19.121982986128,0.3 72.90800943947561,19.1219598211541,0.3 72.9080033722388,19.1219368836565,0.3 72.907997075796,19.121914179904,0.3 72.907990536965,19.1218917165885,0.3 72.90798374316761,19.1218695008571,0.3 72.9079764348963,19.1218467703775,0.3 72.9079480332573,19.1217680866107,0.3 72.9079153158623,19.1216909320752,0.3 72.9078783733362,19.121615520469,0.3 72.9078373080056,19.1215420606618,0.3 72.90779223361631,19.1214707561173,0.3 72.9077432750171,19.1214018043294,0.3 72.9076905678151,19.1213353962751,0.3 72.90763425799869,19.1212717158858,0.3 72.9075745015346,19.1212109395378,0.3 72.9075114639349,19.1211532355637,0.3 72.907445319799,19.1210987637863,0.3 72.9073762523299,19.1210476750761,0.3 72.90735600872399,19.1210337223708,0.3 72.90733611009929,19.121020399271,0.3 72.907315882326,19.1210072249676,0.3 72.9072953365979,19.1209941904736,0.3 72.9072744838554,19.1209812861122,0.3 72.907253334801,19.1209685015445,0.3 72.90723189992229,19.1209558257977,0.3 72.9072101895034,19.1209432472854,0.3 72.9071882136431,19.1209307538288,0.3 72.90716598227679,19.1209183326792,0.3 72.9071435051991,19.1209059705387,0.3 72.9071207920895,19.1208936535812,0.3 72.9070978525393,19.1208813674723,0.3 72.90707469608169,19.1208690973897,0.3 72.9070513322224,19.1208568280433,0.3 72.90702777047351,19.1208445436945,0.3 72.9070040203876,19.1208322281768,0.3 72.9069801711275,19.1208199059328,0.3 72.9069560199368,19.1208074504034,0.3 72.9065917268061,19.1206196293151,0.3 72.9065459664112,19.1207023993875,0.3 72.9057532233935,19.1203276002331,0.3 72.90492629002389,19.1200268696252,0.3 72.9049594844104,19.1199378549932,0.3 72.9042797410462,19.1197307638807,0.3 72.90410645688181,19.1196849732548,0.3 72.90397347277219,19.1196581081498,0.3 72.90364545074149,19.1196351115959,0.3 72.9033069131882,19.1196766553475,0.3 72.9029421772064,19.1197874266246,0.3 72.9020852520826,19.1200856098518,0.3 72.9019128622662,19.1201354636792,0.3 72.90163241133951,19.1202083525943,0.3 72.9010797375872,19.1203467446094,0.3 72.9005730431726,19.120473614512,0.3 72.90025564804959,19.1205624732543,0.3 72.9001210807541,19.1206160146047,0.3 72.8998926275529,19.1207583368679,0.3 72.89970844440541,19.1209500656219,0.3 72.899529563912,19.1212643440449,0.3 72.8994267385776,19.1214768983517,0.3 72.89952473796281,19.1215197302976,0.3 72.8991663139029,19.1222967355316,0.3 72.8988044656348,19.1230722978592,0.3 72.8987047599085,19.1230302699092,0.3 72.89854021988209,19.1233495353839,0.3 72.8984763755967,19.1234661048841,0.3 72.89840688395741,19.1235797189681,0.3 72.8983318960308,19.1236901306356,0.3 72.8982515748333,19.1237970998478,0.3 72.8981660949773,19.1239003940498,0.3 72.8980756422912,19.1239997886757,0.3 72.8979804134157,19.1240950676376,0.3 72.8978806153762,19.1241860237946,0.3 72.89777646513279,19.1242724594037,0.3 72.8976681891084,19.1243541865499,0.3 72.8975560226968,19.1244310275539,0.3 72.8974402097506,19.1245028153597,0.3 72.8973151514453,19.124573579302,0.3 72.8971875511366,19.1246401172957,0.3 72.89705756682631,19.1247023469496,0.3 72.8969253594687,19.1247601912073,0.3 72.89679109277139,19.1248135784427,0.3 72.89665493299221,19.1248624425488,0.3 72.8965170487337,19.1249067230192,0.3 72.89637761073411,19.1249463650236,0.3 72.89623679165619,19.1249813194753,0.3 72.89609476587251,19.125011543092,0.3 72.8959517092508,19.1250369984497,0.3 72.895807798935,19.1250576540287,0.3 72.895723197921,19.1250677699819,0.3 72.8956384536299,19.1250767372772,0.3 72.8955535833241,19.1250845540883,0.3 72.89546860429169,19.1250912188229,0.3 72.895383533843,19.1250967301237,0.3 72.8952983893069,19.1251010868681,0.3 72.8952131880275,19.1251042881689,0.3 72.89512794736029,19.1251063333741,0.3 72.89504268466899,19.1251072220674,0.3 72.89495741732151,19.1251069540676,0.3 72.8948721626868,19.1251055294299,0.3 72.8947869381316,19.1251029484443,0.3 72.894749374822,19.1251018388886,0.3 72.8947117977351,19.1251012950257,0.3 72.8946742163,19.1251013169922,0.3 72.894636639947,19.1251019047822,0.3 72.8945990781048,19.1251030582485,0.3 72.89456154019869,19.1251047771013,0.3 72.894524035648,19.1251070609097,0.3 72.8944865738636,19.1251099091002,0.3 72.8944491642457,19.1251133209581,0.3 72.89441181618111,19.1251172956275,0.3 72.89437453904171,19.1251218321108,0.3 72.8943373421813,19.1251269292697,0.3 72.8942479340045,19.125140462449,0.3 72.8941587283017,19.1251551532505,0.3 72.89406974166231,19.1251709989419,0.3 72.8939809906345,19.1251879965762,0.3 72.89389249172309,19.1252061429924,0.3 72.893804261386,19.1252254348157,0.3 72.8937163160309,19.1252458684582,0.3 72.8936286720129,19.12526744012,0.3 72.8935413456306,19.1252901457889,0.3 72.893454353124,19.1253139812427,0.3 72.8933677106709,19.1253389420483,0.3 72.8932814343837,19.1253650235639,0.3 72.89322794725349,19.1253816171972,0.3 72.89317448613051,19.1253982863845,0.3 72.8931210511326,19.1254150310893,0.3 72.8930676423781,19.1254318512746,0.3 72.8930142599848,19.1254487469029,0.3 72.89296090407071,19.1254657179371,0.3 72.89290757475371,19.1254827643396,0.3 72.8928542721517,19.1254998860728,0.3 72.89280099638231,19.1255170830989,0.3 72.89274774756341,19.1255343553798,0.3 72.8926945258125,19.1255517028774,0.3 72.89264133124721,19.1255691255534,0.3 72.89185794378921,19.1258451159668,0.3 72.8913540062244,19.1260635348145,0.3 72.8914000144412,19.1261469559552,0.3 72.89062516310629,19.1265541903491,0.3 72.8898950200186,19.1270302457566,0.3 72.8898372292514,19.1269542771818,0.3 72.8887181073703,19.127790274266,0.3 72.8874492772013,19.128740668819,0.3 72.8874137177706,19.128767171006,0.3 72.8873780234521,19.1287935088775,0.3 72.88734219508621,19.1288196818134,0.3 72.8873062335163,19.1288456891975,0.3 72.8872701395895,19.1288715304173,0.3 72.8872339141553,19.1288972048644,0.3 72.8871975580668,19.1289227119342,0.3 72.88716107218011,19.1289480510261,0.3 72.8871244573542,19.1289732215434,0.3 72.8870877144512,19.1289982228934,0.3 72.8870508443365,19.1290230544876,0.3 72.8870138478779,19.1290477157411,0.3 72.88695923379289,19.1290811180529,0.3 72.8869039342738,19.1291134855594,0.3 72.88684797102179,19.1291448055587,0.3 72.88679136599799,19.1291750657598,0.3 72.8867341414161,19.1292042542879,0.3 72.8866763197324,19.1292323596884,0.3 72.886617923638,19.1292593709321,0.3 72.8865589760493,19.1292852774188,0.3 72.88649950009879,19.1293100689823,0.3 72.886439519127,19.1293337358935,0.3 72.886379056672,19.1293562688648,0.3 72.8863181364615,19.1293776590538,0.3 72.8862135035162,19.1294103978301,0.3 72.8861078845509,19.1294401391704,0.3 72.88600137459549,19.1294668563157,0.3 72.8858940694813,19.129490525228,0.3 72.8857860657553,19.1295111246119,0.3 72.8856774605933,19.1295286359338,0.3 72.885568351712,19.1295430434386,0.3 72.8854588372818,19.1295543341639,0.3 72.88534901583751,19.1295624979513,0.3 72.8852389861906,19.1295675274562,0.3 72.8851288473397,19.1295694181541,0.3 72.8850186983817,19.1295681683442,0.3 72.8836667861783,19.1295945177739,0.3 72.88231487460379,19.1296208572143,0.3 72.88231326924669,19.1297467731103,0.3 72.88174710035371,19.1297780764113,0.3 72.88142616780149,19.1297896631248,0.3 72.8810977129603,19.1298178558845,0.3 72.88077057287821,19.1298575232526,0.3 72.8805371797844,19.1298858229579,0.3 72.880531850951,19.1297561505407,0.3 72.8792881838272,19.1299622501028,0.3 72.87806443051289,19.1301654822277,0.3 72.8778818590289,19.13019791412,0.3 72.87733358356761,19.1303297872052,0.3 72.8768885084119,19.1304850388494,0.3 72.87611836923951,19.1308270893566,0.3 72.876055819389,19.1308563219667,0.3 72.87599453988911,19.1308878917632,0.3 72.8759346273625,19.1309217489683,0.3 72.87587617627641,19.1309578401976,0.3 72.8758192787942,19.1309961085442,0.3 72.8757640246296,19.1310364936686,0.3 72.8757105009054,19.1310789318935,0.3 72.8756587920161,19.1311233563041,0.3 72.875608979495,19.1311696968544,0.3 72.8755611418854,19.1312178804766,0.3 72.8755153546168,19.1312678311971,0.3 72.8754716898861,19.1313194702558,0.3 72.87542108339621,19.1313839475248,0.3 72.8753727008495,19.1314499489701,0.3 72.87532659302541,19.1315174053237,0.3 72.8752828083164,19.1315862457904,0.3 72.8752413926768,19.1316563981227,0.3 72.87520238957519,19.1317277886961,0.3 72.8751658399477,19.1318003425863,0.3 72.8751317821564,19.1318739836484,0.3 72.8751002519478,19.1319486345961,0.3 72.8750712824164,19.1320242170832,0.3 72.8750449039688,19.132100651786,0.3 72.8750211442929,19.1321778584859,0.3 72.8748736682993,19.1332521434878,0.3 72.87477494107711,19.1340599796688,0.3 72.8747722405778,19.1340812574406,0.3 72.87476934278661,19.134102511754,0.3 72.874766247929,19.1341237409569,0.3 72.87476295624531,19.1341449433985,0.3 72.8747594679914,19.1341661174306,0.3 72.8747557834385,19.1341872614067,0.3 72.8747519028728,19.1342083736833,0.3 72.87474782659621,19.1342294526186,0.3 72.8747435549254,19.1342504965739,0.3 72.8747390881924,19.1342715039133,0.3 72.8747344267444,19.1342924730033,0.3 72.8747295709439,19.1343134022137,0.3 72.87472193758251,19.1343447631168,0.3 72.8747139158199,19.1343760363257,0.3 72.87470550677,19.1344072174952,0.3 72.8746967116012,19.1344383022929,0.3 72.8746875315353,19.1344692863999,0.3 72.8746779678476,19.1345001655112,0.3 72.8746680218665,19.1345309353364,0.3 72.87465769497391,19.1345615916005,0.3 72.8746469886043,19.134592130044,0.3 72.8746359042452,19.1346225464237,0.3 72.8746244434363,19.1346528365137,0.3 72.87461260776981,19.1346829961054,0.3 72.8746016253773,19.1347101007876,0.3 72.8745903753034,19.1347371061194,0.3 72.87457885854271,19.1347640097128,0.3 72.87456707611349,19.1347908091887,0.3 72.8745550290574,19.1348175021777,0.3 72.8745427184398,19.1348440863192,0.3 72.8745301453489,19.1348705592626,0.3 72.87451731089639,19.134896918667,0.3 72.8745042162172,19.1349231622017,0.3 72.8744908624689,19.134949287546,0.3 72.8744772508323,19.1349752923897,0.3 72.8744633825109,19.1350011744335,0.3 72.8745704943277,19.1350505830488,0.3 72.8739041477738,19.1363575650549,0.3 72.873796720155,19.1363080105807,0.3 72.8735952346176,19.1366747103906,0.3 72.87329882483991,19.1371255636087,0.3 72.8727378691929,19.1379174438616,0.3 72.87238564289081,19.1383037395187,0.3 72.8720112528848,19.1386170736001,0.3 72.8716003000268,19.1388907429075,0.3 72.87087465423291,19.1393333833597,0.3 72.8704896387444,19.1395067380059,0.3 72.8697275537138,19.1397364669109,0.3 72.86914733714301,19.1398970566823,0.3 72.86903451024701,19.1399266969823,0.3 72.8689208713715,19.1399533887809,0.3 72.86880650580631,19.1399771120455,0.3 72.8686914993865,19.1399978489716,0.3 72.86857593842819,19.140015583996,0.3 72.8684599096639,19.1400303038086,0.3 72.8683435001772,19.1400419973624,0.3 72.8682267973373,19.1400506558815,0.3 72.8681098887338,19.140056272868,0.3 72.8679928621107,19.1400588441069,0.3 72.8678758053004,19.1400583676688,0.3 72.86775880615831,19.1400548439122,0.3 72.8676496790433,19.1400490597589,0.3 72.8675407010404,19.1400411332058,0.3 72.8674319187103,19.14003106764,0.3 72.8673233785299,19.1400188673624,0.3 72.86721512687291,19.1400045375859,0.3 72.8671072099894,19.1399880844333,0.3 72.8669996739865,19.1399695149346,0.3 72.86689256480869,19.1399488370239,0.3 72.86678592821779,19.1399260595362,0.3 72.8666798097737,19.1399011922035,0.3 72.86657425481479,19.1398742456507,0.3 72.86646930843889,19.1398452313909,0.3 72.8653434192538,19.1394665854449,0.3 72.8652741595582,19.1394462814482,0.3 72.8652045587901,19.139427059831,0.3 72.8651346356742,19.1394089257642,0.3 72.86506440902249,19.1393918841265,0.3 72.864993897728,19.1393759395023,0.3 72.86492312076081,19.1393610961813,0.3 72.864852097162,19.1393473581565,0.3 72.8647808460394,19.1393347291239,0.3 72.8647093865618,19.1393232124807,0.3 72.864637737954,19.1393128113254,0.3 72.8645659194918,19.139303528456,0.3 72.86449395049669,19.1392953663696,0.3 72.8637572878735,19.1391983102828,0.3 72.8635109922983,19.1391793226979,0.3 72.863452223278,19.1391796548096,0.3 72.86339347526641,19.139181184584,0.3 72.8633347752812,19.1391839113176,0.3 72.8632761503175,19.1391878337562,0.3 72.8632176273364,19.1391929500958,0.3 72.86315923325159,19.1391992579833,0.3 72.8631009949179,19.1392067545177,0.3 72.8630429391184,19.1392154362514,0.3 72.86298509255219,19.1392252991915,0.3 72.8629274818219,19.1392363388021,0.3 72.86287013342231,19.1392485500062,0.3 72.8628130737272,19.1392619271878,0.3 72.8626428534743,19.1392963365621,0.3 72.8626818037541,19.139467160623,0.3 72.8609171511112,19.1398305966404,0.3 72.8608767360614,19.1396533400833,0.3 72.8604320632643,19.1397520925903,0.3 72.8601664673057,19.1398415199406,0.3 72.8597615418286,19.1400351041705,0.3 72.858879176088,19.1404897818399,0.3 72.8579968058319,19.1409444547787,0.3 72.857547801208,19.1411550766012,0.3 72.8575026982591,19.1411719253445,0.3 72.8574572396451,19.1411878873942,0.3 72.8574114446631,19.1412029559746,0.3 72.8573653327523,19.1412171246892,0.3 72.8573189234869,19.1412303875237,0.3 72.8572722365673,19.1412427388482,0.3 72.8572252918115,19.1412541734197,0.3 72.8571781091474,19.1412646863843,0.3 72.85713070860341,19.1412742732796,0.3 72.85708311030091,19.1412829300359,0.3 72.857035334445,19.1412906529787,0.3 72.85698740131591,19.1412974388297,0.3 72.8569393312611,19.1413032847084,0.3 72.8568911446859,19.1413081881335,0.3 72.856842862045,19.1413121470235,0.3 72.85679450383429,19.1413151596979,0.3 72.8567460905813,19.1413172248781,0.3 72.85669764283711,19.1413183416874,0.3 72.8566491811674,19.1413185096517,0.3 72.8566007261438,19.1413177287001,0.3 72.8565522983351,19.1413159991639,0.3 72.8565039182986,19.1413133217774,0.3 72.8564556065712,19.1413096976774,0.3 72.8564073836608,19.1413051284021,0.3 72.85610796564021,19.141258460239,0.3 72.85548253294451,19.1411257150207,0.3 72.8544972174344,19.1408963174161,0.3 72.85446663054439,19.1409919192518,0.3 72.8537870308994,19.1407874120283,0.3 72.8532911767068,19.1406046569354,0.3 72.8531285122222,19.1405380793335,0.3 72.8529349258713,19.1404542130661,0.3 72.85272516992001,19.1403580155797,0.3 72.8527691744842,19.1402747201686,0.3 72.85273428869949,19.1402581925131,0.3 72.8527127438219,19.1402479453292,0.3 72.85269117928419,19.1402376566252,0.3 72.8526698239608,19.140227443963,0.3 72.8526485416854,19.14021725042,0.3 72.8526273176122,19.1402070768566,0.3 72.8523240894669,19.1400617080322,0.3 72.85229163226759,19.1400461532304,0.3 72.852259161634,19.14003062478,0.3 72.8522269329217,19.1400152768575,0.3 72.852194843254,19.1400000917799,0.3 72.8521628799446,19.1399850944523,0.3 72.85213103080331,19.1399703094719,0.3 72.8520992841935,19.1399557611512,0.3 72.85206762910271,19.1399414735474,0.3 72.852036055196,19.1399274704811,0.3 72.8520045528761,19.1399137755558,0.3 72.85197311334539,19.1399004121762,0.3 72.8519417286648,19.1398874035622,0.3 72.85190978554959,19.1398745283988,0.3 72.8518216314354,19.1398410471277,0.3 72.8517324362611,19.1398101566669,0.3 72.8516422843001,19.139781886202,0.3 72.85155126072971,19.1397562624425,0.3 72.8514594515507,19.1397333095979,0.3 72.8513669435058,19.1397130493539,0.3 72.8512738239981,19.1396955008522,0.3 72.85118018100791,19.1396806806722,0.3 72.8510861030106,19.1396686028158,0.3 72.8509916788918,19.1396592786939,0.3 72.8508969978647,19.1396527171156,0.3 72.85080214938461,19.1396489242797,0.3 72.85076746016,19.1396482277184,0.3 72.8507332227676,19.139647870381,0.3 72.8506987823794,19.1396478152889,0.3 72.8506641417673,19.1396480381696,0.3 72.85062930299441,19.1396485142476,0.3 72.8505942674863,19.1396492182546,0.3 72.85055903608431,19.139650124437,0.3 72.85052360911369,19.1396512065614,0.3 72.85048798644701,19.139652437918,0.3 72.8504521675678,19.1396537913222,0.3 72.8504161516417,19.1396552391148,0.3 72.8503800379554,19.1396567488838,0.3 72.8503435571175,19.1396583034405,0.3 72.850309828256,19.1396597452477,0.3 72.8502741286306,19.1396612689267,0.3 72.850238330468,19.1396627826295,0.3 72.85020258018029,19.1396642661844,0.3 72.85016663128531,19.139665715452,0.3 72.8501305815614,19.1396671119295,0.3 72.85009443050871,19.1396684410762,0.3 72.850058177721,19.1396696882322,0.3 72.8500220284236,19.1396708321134,0.3 72.8499868746715,19.1396718384879,0.3 72.8499517177127,19.139672737984,0.3 72.84991655790689,19.1396735305923,0.3 72.84988139561381,19.1396742163049,0.3 72.8498462311933,19.1396747951148,0.3 72.8498110650051,19.1396752670159,0.3 72.8497758974093,19.1396756320036,0.3 72.8497407287655,19.139675890074,0.3 72.8497055594338,19.1396760412245,0.3 72.84967038977391,19.1396760854537,0.3 72.849635220146,19.1396760227609,0.3 72.8496000509097,19.1396758531471,0.3 72.8495638828185,19.1396755697574,0.3 72.8495276085505,19.139675185588,0.3 72.8494914338312,19.1396747170329,0.3 72.84945535862801,19.1396741787571,0.3 72.8494193828451,19.139673585309,0.3 72.8493834078548,19.1396729493016,0.3 72.84934767947991,19.1396722895724,0.3 72.849312032952,19.1396716173322,0.3 72.84931141876101,19.1396716057065,0.3 72.84926845089861,19.1396707987778,0.3 72.8492254827471,19.1396700297821,0.3 72.8491828435031,19.1396693417805,0.3 72.84914042265321,19.1396687693826,0.3 72.849098220112,19.1396683485908,0.3 72.8490562362371,19.1396681148285,0.3 72.8490144719151,19.139668102937,0.3 72.8489729286599,19.1396683471704,0.3 72.84893160870919,19.1396688811878,0.3 72.8488905151159,19.1396697380423,0.3 72.84884903607301,19.1396709684335,0.3 72.84882955014589,19.139671685939,0.3 72.84881006813031,19.1396724937035,0.3 72.8487905904887,19.1396733917077,0.3 72.84877111768419,19.1396743799303,0.3 72.8487516501792,19.1396754583477,0.3 72.8487321884361,19.1396766269346,0.3 72.84871273291761,19.1396778856629,0.3 72.8486932840856,19.1396792345029,0.3 72.84867384240221,19.1396806734224,0.3 72.84865440832949,19.1396822023873,0.3 72.848634982329,19.1396838213613,0.3 72.8486155648621,19.1396855303058,0.3 72.84857427238531,19.1396894624731,0.3 72.8485334134073,19.1396937170974,0.3 72.8484923744097,19.1396983199039,0.3 72.8484511538727,19.1397032377444,0.3 72.8484097493853,19.1397084369708,0.3 72.8483681577375,19.1397138834345,0.3 72.84832637501989,19.1397195424829,0.3 72.8482843967104,19.1397253789524,0.3 72.8482422177829,19.1397313571588,0.3 72.8481999416653,19.1397374251622,0.3 72.84815727181309,19.1397435882012,0.3 72.8458927438361,19.14007099136,0.3 72.845863183566,19.1400752608199,0.3 72.8458336200014,19.140079506421,0.3 72.8458037494003,19.1400837468037,0.3 72.8457736678139,19.1400879426995,0.3 72.8457433715861,19.140092068666,0.3 72.8457128572626,19.1400960987399,0.3 72.8456821216553,19.140100006431,0.3 72.8456511619199,19.1401037647153,0.3 72.84561997563689,19.1401073460296,0.3 72.84558856088761,19.1401107222682,0.3 72.845556916344,19.1401138647819,0.3 72.8455250413468,19.1401167443796,0.3 72.84549293599901,19.1401193313317,0.3 72.84546060125371,19.1401215953782,0.3 72.84542803899301,19.1401235057407,0.3 72.8453960953867,19.1401249919013,0.3 72.84534241272129,19.1401266003011,0.3 72.84528870573701,19.1401270776321,0.3 72.845235000814,19.1401264236602,0.3 72.8451813243319,19.1401246387066,0.3 72.8451277026561,19.1401217236482,0.3 72.845074162125,19.140117679917,0.3 72.8450207290373,19.1401125094992,0.3 72.844967429639,19.1401062149347,0.3 72.84491429011,19.1400987993155,0.3 72.8448613365521,19.1400902662839,0.3 72.8448085949756,19.1400806200317,0.3 72.8447560912865,19.140069865297,0.3 72.84472494928281,19.1400629452563,0.3 72.844693279014,19.1400555022379,0.3 72.8446618994507,19.1400477501752,0.3 72.8446308066226,19.1400397196655,0.3 72.8445999957475,19.1400314406387,0.3 72.84456946130329,19.1400229423572,0.3 72.844539197122,19.1400142534241,0.3 72.8445091964773,19.1400054017947,0.3 72.8444794521679,19.1399964147894,0.3 72.8444499565983,19.1399873191085,0.3 72.8444207018625,19.1399781408512,0.3 72.84439167981201,19.1399689055314,0.3 72.8443628821387,19.1399596380999,0.3 72.844334300443,19.139950362964,0.3 72.8443058308428,19.1399410727717,0.3 72.8442777190204,19.1399318740362,0.3 72.84404205530851,19.1398547246306,0.3 72.84402182203139,19.1398481068705,0.3 72.8440019568457,19.1398416450986,0.3 72.8439824486142,19.1398353692251,0.3 72.8439632876522,19.1398293075946,0.3 72.8439444653856,19.139823486869,0.3 72.8439259744704,19.139817932059,0.3 72.84390780889839,19.1398126665447,0.3 72.843889964089,19.1398077120881,0.3 72.84387243696401,19.1398030888332,0.3 72.8438552260324,19.1397988153026,0.3 72.84383728633659,19.1397946666959,0.3 72.8437942949767,19.1397861755889,0.3 72.8437509285699,19.1397796300998,0.3 72.84370728453961,19.1397750449331,0.3 72.8436634609327,19.1397724303893,0.3 72.8436195561997,19.1397717923418,0.3 72.8435756689731,19.1397731322239,0.3 72.8435318978465,19.1397764470254,0.3 72.8434883411522,19.1397817292992,0.3 72.84344509674099,19.1397889671787,0.3 72.84340226176209,19.1397981444036,0.3 72.843359932445,19.139809240357,0.3 72.8433182038833,19.1398222301115,0.3 72.84335029125531,19.1398821814625,0.3 72.8417409375601,19.1406602118251,0.3 72.84170113078,19.1405858362614,0.3 72.84166482696,19.1405992500067,0.3 72.8416281450326,19.1406116999846,0.3 72.84159111331719,19.1406231765835,0.3 72.8415537604035,19.140633670943,0.3 72.8415161151293,19.1406431749614,0.3 72.8414782065578,19.1406516813011,0.3 72.8414400639555,19.1406591833953,0.3 72.84140171676989,19.1406656754519,0.3 72.8413631946062,19.140671152459,0.3 72.8413245272049,19.1406756101884,0.3 72.8412857444183,19.1406790451984,0.3 72.84124687618809,19.1406814548373,0.3 72.8412222764091,19.140682461891,0.3 72.8411968782947,19.1406830940032,0.3 72.84117187392,19.1406833554546,0.3 72.8411472690226,19.1406832971913,0.3 72.84112306744041,19.1406829682993,0.3 72.84109927140079,19.1406824159636,0.3 72.84107588181671,19.1406816854413,0.3 72.8410528985647,19.1406808200479,0.3 72.84103032074491,19.1406798611501,0.3 72.8410081469316,19.140678848167,0.3 72.84098630817481,19.1406778153878,0.3 72.8405710493314,19.140658065787,0.3 72.8405422228897,19.1406566980746,0.3 72.840513395843,19.1406553506658,0.3 72.8404848296272,19.1406540556174,0.3 72.8404564357356,19.1406528282599,0.3 72.84042821344789,19.1406516876573,0.3 72.84040016224429,19.1406506525113,0.3 72.84037228184761,19.1406497411624,0.3 72.8403445722527,19.1406489715887,0.3 72.840317033776,19.140648361405,0.3 72.8402896670823,19.1406479278601,0.3 72.84026247322549,19.1406476878328,0.3 72.840235453684,19.1406476578275,0.3 72.84020861038781,19.1406478539677,0.3 72.8401819457534,19.1406482919882,0.3 72.8401554627125,19.1406489872253,0.3 72.840129164738,19.1406499546068,0.3 72.840103055884,19.1406512086379,0.3 72.84007635999281,19.1406528102338,0.3 72.840057516356,19.1406541522852,0.3 72.84003868730351,19.1406556679943,0.3 72.8400198746068,19.1406573572183,0.3 72.8400010800363,19.1406592197985,0.3 72.83998230536049,19.1406612555594,0.3 72.83996355234569,19.1406634643094,0.3 72.83994482275681,19.1406658458409,0.3 72.839926118356,19.1406683999295,0.3 72.8399074409032,19.1406711263352,0.3 72.8398887921561,19.1406740248011,0.3 72.8398701738693,19.1406770950548,0.3 72.8398515877948,19.1406803368072,0.3 72.8398253367901,19.1406852193297,0.3 72.8397997462626,19.1406902966419,0.3 72.8397740492593,19.1406956968,0.3 72.8397482458324,19.1407014047962,0.3 72.8397223353558,19.1407074053556,0.3 72.83969631657401,19.1407136829364,0.3 72.83967018762711,19.1407202217364,0.3 72.83964394608,19.1407270056942,0.3 72.8396175889599,19.1407340184887,0.3 72.8395911127827,19.1407412435388,0.3 72.83956451359209,19.1407486639987,0.3 72.8395377869911,19.1407562627537,0.3 72.8395109281815,19.1407640224135,0.3 72.8394839319982,19.1407719253043,0.3 72.8394567929488,19.14077995346,0.3 72.83942950525871,19.1407880886106,0.3 72.83940214654091,19.1407962870444,0.3 72.8393744870569,19.1408045970015,0.3 72.8388584244276,19.1409597072182,0.3 72.8388132458675,19.1409732947885,0.3 72.8387683301664,19.1409868544659,0.3 72.8387236922875,19.1410004320807,0.3 72.8386793477131,19.1410140724627,0.3 72.8386353121323,19.1410278195314,0.3 72.8385916015821,19.1410417162483,0.3 72.8385482325934,19.1410558045641,0.3 72.83850522232279,19.1410701253656,0.3 72.8384620263702,19.1410849108942,0.3 72.8384388526672,19.1410930306269,0.3 72.83841572507821,19.1411012682641,0.3 72.8383926442676,19.1411096235693,0.3 72.8383696108979,19.1411180963025,0.3 72.83834662563071,19.1411266862206,0.3 72.8383236891259,19.1411353930767,0.3 72.8383008020423,19.1411442166208,0.3 72.83827796503699,19.1411531565997,0.3 72.83825517876581,19.1411622127565,0.3 72.838232443883,19.1411713848312,0.3 72.8382097610414,19.1411806725604,0.3 72.83818713089251,19.1411900756775,0.3 72.83814520305531,19.1412078553452,0.3 72.8381037478776,19.1412258478824,0.3 72.8380622034894,19.1412442442656,0.3 72.8380205524562,19.1412630037143,0.3 72.83797877611769,19.1412820850928,0.3 72.8379368547219,19.1413014468606,0.3 72.83789476756471,19.1413210470169,0.3 72.837852493133,19.1413408430388,0.3 72.83781004750141,19.1413607738511,0.3 72.83756699978029,19.1414749514841,0.3 72.8375333526555,19.141490752456,0.3 72.8374996922913,19.1415065268828,0.3 72.8374657404005,19.1415223717577,0.3 72.8374315710099,19.1415382184523,0.3 72.8373971701556,19.1415540390607,0.3 72.8373625239453,19.1415698051314,0.3 72.8373276186403,19.1415854876338,0.3 72.8372924407341,19.1416010569259,0.3 72.8372569770379,19.1416164827221,0.3 72.8372212147644,19.1416317340644,0.3 72.8371851416169,19.1416467792933,0.3 72.8371487458829,19.1416615860217,0.3 72.83711201651791,19.1416761211148,0.3 72.8370756057554,19.1416900963797,0.3 72.8369977767688,19.1417184771584,0.3 72.8369192526479,19.1417450722568,0.3 72.8368400787445,19.141769866315,0.3 72.8367603007858,19.1417928450134,0.3 72.8366799648477,19.1418139950808,0.3 72.8365991173286,19.1418333043021,0.3 72.83651780492239,19.1418507615255,0.3 72.83643607459131,19.1418663566687,0.3 72.8363539735392,19.1418800807248,0.3 72.83627154918381,19.1418919257678,0.3 72.8361888491302,19.141901884957,0.3 72.83610592114169,19.1419099525403,0.3 72.8360667934051,19.1419131040804,0.3 72.83602711548561,19.141915892779,0.3 72.8359876062317,19.1419182959582,0.3 72.835948271532,19.1419203479221,0.3 72.835909116319,19.1419220825946,0.3 72.8358701446589,19.1419235335008,0.3 72.8358313598488,19.1419247337507,0.3 72.83579276450391,19.1419257160268,0.3 72.83575436065691,19.1419265125735,0.3 72.83571614983499,19.1419271551897,0.3 72.83567813316139,19.1419276752231,0.3 72.8356403114318,19.141928103566,0.3 72.835602587092,19.1419284715327,0.3 72.8355652216581,19.141928806753,0.3 72.835561278223,19.1419288416148,0.3 72.83553167361851,19.1419291051314,0.3 72.8355021615253,19.1419293786181,0.3 72.83547260370371,19.1419296743228,0.3 72.8354432301298,19.1419300005741,0.3 72.8354139490589,19.1419303688513,0.3 72.835384760723,19.1419307896119,0.3 72.83535566542589,19.1419312732111,0.3 72.83532647266441,19.1419318335653,0.3 72.83528531332721,19.1419327684342,0.3 72.8352441587151,19.141933875338,0.3 72.8352030096242,19.1419351542553,0.3 72.8351618668505,19.1419366051613,0.3 72.83512073118961,19.141938228028,0.3 72.83507960343729,19.1419400228241,0.3 72.8350384843892,19.1419419895147,0.3 72.8349973748404,19.1419441280617,0.3 72.83495627558641,19.1419464384239,0.3 72.8349151874219,19.1419489205564,0.3 72.8348741111418,19.1419515744114,0.3 72.8348330475405,19.1419543999375,0.3 72.8348039330583,19.1419565062144,0.3 72.83477492334561,19.1419586799973,0.3 72.8347458273736,19.1419609248188,0.3 72.8347166443963,19.141963230344,0.3 72.83468737359971,19.1419655861414,0.3 72.8346581056832,19.1419679741432,0.3 72.8346286107309,19.1419704025599,0.3 72.8345990399683,19.1419728481813,0.3 72.8344334018923,19.1419865726519,0.3 72.8344484997757,19.1421547410742,0.3 72.8326488069974,19.14230067194,0.3 72.8326348417545,19.1421451005172,0.3 72.8324020951957,19.1421679086304,0.3 72.832206041173,19.1421830290054,0.3 72.8318692074633,19.1421924198318,0.3 72.8313836706852,19.1421773258118,0.3 72.8291422648892,19.1420737044304,0.3 72.82898561106251,19.1420655169508,0.3 72.8289718262988,19.1420646339,0.3 72.8289580459418,19.1420636907712,0.3 72.8289442702814,19.1420626875843,0.3 72.8289304996074,19.1420616243603,0.3 72.8289167342094,19.1420605011215,0.3 72.8289029743771,19.1420593178917,0.3 72.8288892203998,19.1420580746957,0.3 72.82887547256701,19.1420567715597,0.3 72.82886173116781,19.142055408511,0.3 72.82884799649141,19.1420539855784,0.3 72.8288342688266,19.1420525027918,0.3 72.8288205484622,19.1420509601823,0.3 72.82879978195621,19.142048499514,0.3 72.82877904810989,19.1420458015312,0.3 72.82875834992571,19.1420428666248,0.3 72.8287376904008,19.1420396952197,0.3 72.8287170725268,19.1420362877752,0.3 72.82869649928929,19.1420326447846,0.3 72.8286759736676,19.1420287667756,0.3 72.82865549863359,19.1420246543097,0.3 72.8286350771525,19.1420203079825,0.3 72.82861471218151,19.1420157284232,0.3 72.8285944066694,19.1420109162951,0.3 72.8285741635566,19.142005872295,0.3 72.8285420799957,19.1419971174859,0.3 72.82851022065471,19.1419876519382,0.3 72.8284786029628,19.1419774808301,0.3 72.82844724421651,19.1419666097259,0.3 72.8284161615709,19.1419550445727,0.3 72.8283853720299,19.1419427916973,0.3 72.82835489243711,19.1419298578029,0.3 72.82832473946669,19.1419162499651,0.3 72.8282949296138,19.1419019756282,0.3 72.8282654791862,19.1418870426011,0.3 72.8282364042948,19.1418714590532,0.3 72.8282077208451,19.1418552335094,0.3 72.8281568866857,19.1418215037725,0.3 72.8281065548648,19.1417871003347,0.3 72.8280567352666,19.1417520299523,0.3 72.8280074376745,19.1417162995126,0.3 72.8279586717692,19.1416799160327,0.3 72.82791044712739,19.1416428866575,0.3 72.8278627732192,19.1416052186594,0.3 72.8278156594063,19.1415669194356,0.3 72.82776911494111,19.1415279965076,0.3 72.8277231489634,19.1414884575192,0.3 72.8276777704998,19.1414483102354,0.3 72.8276329884612,19.1414075625403,0.3 
					</coordinates>
				</LinearRing>
			</outerBoundaryIs>
		</Polygon>
	</Placemark>
	<Placemark>
		<name>SWAMI SAMARTH NAGAR (M) STATION</name>
		<LookAt>
			<longitude>72.82794643868952</longitude>
			<latitude>19.14141513342263</latitude>
			<altitude>0</altitude>
			<heading>-0.01037708683532642</heading>
			<tilt>0</tilt>
			<range>610.0624917914153</range>
			<gx:altitudeMode>relativeToSeaFloor</gx:altitudeMode>
		</LookAt>
		<styleUrl>#msn_ylw-pushpin0</styleUrl>
		<Point>
			<altitudeMode>relativeToGround</altitudeMode>
			<gx:drawOrder>1</gx:drawOrder>
			<coordinates>72.82694606310068,19.14075972120789,36</coordinates>
		</Point>
	</Placemark>
	<Placemark>
		<name>ADARSH NAGAR (M) STATION</name>
		<LookAt>
			<longitude>72.83222650291783</longitude>
			<latitude>19.14316300461055</latitude>
			<altitude>0</altitude>
			<heading>-0.008973681267733406</heading>
			<tilt>0</tilt>
			<range>1751.837892298772</range>
			<gx:altitudeMode>relativeToSeaFloor</gx:altitudeMode>
		</LookAt>
		<styleUrl>#msn_ylw-pushpin3</styleUrl>
		<Point>
			<gx:drawOrder>1</gx:drawOrder>
			<coordinates>72.83333019427892,19.14167511841614,0</coordinates>
		</Point>
	</Placemark>
	<Placemark>
		<name>JOGESHWARI (M) STATION</name>
		<LookAt>
			<longitude>72.84080199692147</longitude>
			<latitude>19.14078360298285</latitude>
			<altitude>0</altitude>
			<heading>-0.006161801606911655</heading>
			<tilt>0</tilt>
			<range>645.5985807272775</range>
			<gx:altitudeMode>relativeToSeaFloor</gx:altitudeMode>
		</LookAt>
		<styleUrl>#msn_ylw-pushpin2</styleUrl>
		<Point>
			<gx:drawOrder>1</gx:drawOrder>
			<coordinates>72.84215143576014,19.14008983911587,0</coordinates>
		</Point>
	</Placemark>
	<Placemark>
		<name>JVLR (M)STATION</name>
		<LookAt>
			<longitude>72.85286234784846</longitude>
			<latitude>19.14109912760409</latitude>
			<altitude>0</altitude>
			<heading>-0.002208638045723908</heading>
			<tilt>0</tilt>
			<range>1208.615272645277</range>
			<gx:altitudeMode>relativeToSeaFloor</gx:altitudeMode>
		</LookAt>
		<styleUrl>#msn_ylw-pushpin2</styleUrl>
		<Point>
			<gx:drawOrder>1</gx:drawOrder>
			<coordinates>72.85378196080121,19.14026216252836,0</coordinates>
		</Point>
	</Placemark>
	<Placemark>
		<name>SHYAM NAGAR(M) STATION</name>
		<LookAt>
			<longitude>72.8601754481395</longitude>
			<latitude>19.14039087474425</latitude>
			<altitude>0</altitude>
			<heading>0.0001890883552025798</heading>
			<tilt>0</tilt>
			<range>1074.600693181586</range>
			<gx:altitudeMode>relativeToSeaFloor</gx:altitudeMode>
		</LookAt>
		<styleUrl>#msn_ylw-pushpin5</styleUrl>
		<Point>
			<gx:drawOrder>1</gx:drawOrder>
			<coordinates>72.86178951221324,19.1391180402727,0</coordinates>
		</Point>
	</Placemark>
	<Placemark>
		<name>MAHAKALI CAVES (M) STATION</name>
		<LookAt>
			<longitude>72.87491284309161</longitude>
			<latitude>19.13641766923663</latitude>
			<altitude>0</altitude>
			<heading>0.005020385912891172</heading>
			<tilt>0</tilt>
			<range>1301.843505063199</range>
			<gx:altitudeMode>relativeToSeaFloor</gx:altitudeMode>
		</LookAt>
		<styleUrl>#msn_ylw-pushpin1</styleUrl>
		<Point>
			<gx:drawOrder>1</gx:drawOrder>
			<coordinates>72.87383559826107,19.13578926027995,0</coordinates>
		</Point>
	</Placemark>
	<Placemark>
		<name>SEEPZ VILLAGE (M) STATION</name>
		<LookAt>
			<longitude>72.88090140687119</longitude>
			<latitude>19.13334527289141</latitude>
			<altitude>0</altitude>
			<heading>0.006982819981219032</heading>
			<tilt>0</tilt>
			<range>2262.903038345123</range>
			<gx:altitudeMode>relativeToSeaFloor</gx:altitudeMode>
		</LookAt>
		<styleUrl>#msn_ylw-pushpin1</styleUrl>
		<Point>
			<gx:drawOrder>1</gx:drawOrder>
			<coordinates>72.88138915363452,19.12923746137424,0</coordinates>
		</Point>
	</Placemark>
	<Placemark>
		<name>SAKI VIHAR ROAD(M) STATION</name>
		<LookAt>
			<longitude>72.88676211202011</longitude>
			<latitude>19.13167258077736</latitude>
			<altitude>0</altitude>
			<heading>0.0089032417135783</heading>
			<tilt>0</tilt>
			<range>2265.691596954865</range>
			<gx:altitudeMode>relativeToSeaFloor</gx:altitudeMode>
		</LookAt>
		<styleUrl>#msn_ylw-pushpin1</styleUrl>
		<Point>
			<gx:drawOrder>1</gx:drawOrder>
			<coordinates>72.8905524167939,19.12609103685916,0</coordinates>
		</Point>
	</Placemark>
	<Placemark>
		<name>RAMBAUG (M) STATION</name>
		<LookAt>
			<longitude>72.90098550013177</longitude>
			<latitude>19.12251860652844</latitude>
			<altitude>0</altitude>
			<heading>0.01356321590974651</heading>
			<tilt>0</tilt>
			<range>1658.929227296666</range>
			<gx:altitudeMode>relativeToSeaFloor</gx:altitudeMode>
		</LookAt>
		<styleUrl>#msn_ylw-pushpin1</styleUrl>
		<Point>
			<gx:drawOrder>1</gx:drawOrder>
			<coordinates>72.89881256868962,19.12219312292308,0</coordinates>
		</Point>
	</Placemark>
	<Placemark>
		<name>POWAI LAKE (M) STATION</name>
		<LookAt>
			<longitude>72.91135557692074</longitude>
			<latitude>19.12340058377242</latitude>
			<altitude>0</altitude>
			<heading>0.0169601562135695</heading>
			<tilt>0</tilt>
			<range>2664.569061522262</range>
			<gx:altitudeMode>relativeToSeaFloor</gx:altitudeMode>
		</LookAt>
		<styleUrl>#msn_ylw-pushpin1</styleUrl>
		<Point>
			<gx:drawOrder>1</gx:drawOrder>
			<coordinates>72.90577030615616,19.1198155563406,0</coordinates>
		</Point>
	</Placemark>
	<Placemark>
		<name>IIT POWAI (M) STATION</name>
		<LookAt>
			<longitude>72.91135557692074</longitude>
			<latitude>19.12340058377242</latitude>
			<altitude>0</altitude>
			<heading>0.0169601562135695</heading>
			<tilt>0</tilt>
			<range>2664.569061522262</range>
			<gx:altitudeMode>relativeToSeaFloor</gx:altitudeMode>
		</LookAt>
		<styleUrl>#msn_ylw-pushpin1</styleUrl>
		<Point>
			<gx:drawOrder>1</gx:drawOrder>
			<coordinates>72.91327456858952,19.1238481845558,0</coordinates>
		</Point>
	</Placemark>
	<Placemark>
		<name>KANJURMARG (M) STATION</name>
		<Camera>
			<longitude>72.92386268348157</longitude>
			<latitude>19.12372356869541</latitude>
			<altitude>1101.575409756483</altitude>
			<heading>-3.306718775975251</heading>
			<tilt>5.007168650020879</tilt>
			<roll>-1.643863063260147</roll>
			<gx:altitudeMode>relativeToSeaFloor</gx:altitudeMode>
		</Camera>
		<styleUrl>#msn_ylw-pushpin</styleUrl>
		<Point>
			<gx:drawOrder>1</gx:drawOrder>
			<coordinates>72.92438409215423,19.12535592901591,0</coordinates>
		</Point>
	</Placemark>
	<Placemark>
		<name>VIKHROLI(EEH) (M) STATION</name>
		<Camera>
			<longitude>72.9321391390957</longitude>
			<latitude>19.12360505541487</latitude>
			<altitude>2532.528142242565</altitude>
			<heading>-3.30401162922049</heading>
			<tilt>5.007705208095191</tilt>
			<roll>-1.643306078504794</roll>
			<gx:altitudeMode>relativeToSeaFloor</gx:altitudeMode>
		</Camera>
		<styleUrl>#msn_ylw-pushpin</styleUrl>
		<Point>
			<gx:drawOrder>1</gx:drawOrder>
			<coordinates>72.93499944056109,19.12459020536705,0</coordinates>
		</Point>
	</Placemark>
</Document>
</kml>
