<?xml version="1.0" encoding="UTF-8"?>
<kml xmlns="http://www.opengis.net/kml/2.2" xmlns:gx="http://www.google.com/kml/ext/2.2" xmlns:kml="http://www.opengis.net/kml/2.2" xmlns:atom="http://www.w3.org/2005/Atom">
<Document>
	<name>Line 1.kml</name>
	<open>1</open>
	<Style id="s_ylw-pushpin1">
		<IconStyle>
			<scale>1.1</scale>
			<Icon>
				<href>http://maps.google.com/mapfiles/kml/pushpin/ylw-pushpin.png</href>
			</Icon>
			<hotSpot x="20" y="2" xunits="pixels" yunits="pixels"/>
		</IconStyle>
		<LineStyle>
			<color>66ff00ff</color>
			<width>1.3</width>
		</LineStyle>
		<PolyStyle>
			<color>7fff00ff</color>
		</PolyStyle>
	</Style>
	<StyleMap id="m_ylw-pushpin1">
		<Pair>
			<key>normal</key>
			<styleUrl>#s_ylw-pushpin2</styleUrl>
		</Pair>
		<Pair>
			<key>highlight</key>
			<styleUrl>#s_ylw-pushpin_hl00</styleUrl>
		</Pair>
	</StyleMap>
	<Style id="s_ylw-pushpin_hl000">
		<IconStyle>
			<scale>1.18182</scale>
			<Icon>
				<href>http://maps.google.com/mapfiles/kml/shapes/rail.png</href>
			</Icon>
			<hotSpot x="0.5" y="0" xunits="fraction" yunits="fraction"/>
		</IconStyle>
		<LabelStyle>
			<scale>1.2</scale>
		</LabelStyle>
		<LineStyle>
			<color>66ff00ff</color>
			<width>1.3</width>
		</LineStyle>
		<PolyStyle>
			<color>7fff00ff</color>
		</PolyStyle>
	</Style>
	<Style id="sh_rail">
		<IconStyle>
			<scale>1.53636</scale>
			<Icon>
				<href>http://maps.google.com/mapfiles/kml/shapes/rail.png</href>
			</Icon>
			<hotSpot x="0.5" y="0" xunits="fraction" yunits="fraction"/>
		</IconStyle>
		<LabelStyle>
			<scale>1.3</scale>
		</LabelStyle>
		<LineStyle>
			<color>66ff00ff</color>
			<width>1.3</width>
		</LineStyle>
		<PolyStyle>
			<color>7fff00ff</color>
		</PolyStyle>
	</Style>
	<Style id="s_ylw-pushpin_hl00">
		<IconStyle>
			<scale>1.4</scale>
			<Icon>
				<href>http://maps.google.com/mapfiles/kml/shapes/rail.png</href>
			</Icon>
			<hotSpot x="0.5" y="0" xunits="fraction" yunits="fraction"/>
		</IconStyle>
		<LabelStyle>
			<scale>1.3</scale>
		</LabelStyle>
	</Style>
	<StyleMap id="m_ylw-pushpin00">
		<Pair>
			<key>normal</key>
			<styleUrl>#s_ylw-pushpin1</styleUrl>
		</Pair>
		<Pair>
			<key>highlight</key>
			<styleUrl>#s_ylw-pushpin_hl1</styleUrl>
		</Pair>
	</StyleMap>
	<Style id="s_ylw-pushpin_hl1">
		<IconStyle>
			<scale>1.3</scale>
			<Icon>
				<href>http://maps.google.com/mapfiles/kml/pushpin/ylw-pushpin.png</href>
			</Icon>
			<hotSpot x="20" y="2" xunits="pixels" yunits="pixels"/>
		</IconStyle>
		<LineStyle>
			<color>66ff00ff</color>
			<width>1.3</width>
		</LineStyle>
		<PolyStyle>
			<color>7fff00ff</color>
		</PolyStyle>
	</Style>
	<Style id="sn_rail">
		<IconStyle>
			<scale>1.3</scale>
			<Icon>
				<href>http://maps.google.com/mapfiles/kml/shapes/rail.png</href>
			</Icon>
			<hotSpot x="0.5" y="0" xunits="fraction" yunits="fraction"/>
		</IconStyle>
		<LabelStyle>
			<scale>1.3</scale>
		</LabelStyle>
		<LineStyle>
			<color>66ff00ff</color>
			<width>1.3</width>
		</LineStyle>
		<PolyStyle>
			<color>7fff00ff</color>
		</PolyStyle>
	</Style>
	<Style id="s_ylw-pushpin2">
		<IconStyle>
			<scale>1.2</scale>
			<Icon>
				<href>http://maps.google.com/mapfiles/kml/shapes/rail.png</href>
			</Icon>
			<hotSpot x="0.5" y="0" xunits="fraction" yunits="fraction"/>
		</IconStyle>
		<LabelStyle>
			<scale>1.3</scale>
		</LabelStyle>
	</Style>
	<StyleMap id="msn_rail">
		<Pair>
			<key>normal</key>
			<styleUrl>#sn_rail</styleUrl>
		</Pair>
		<Pair>
			<key>highlight</key>
			<styleUrl>#sh_rail</styleUrl>
		</Pair>
	</StyleMap>
	<StyleMap id="m_ylw-pushpin10">
		<Pair>
			<key>normal</key>
			<styleUrl>#s_ylw-pushpin00</styleUrl>
		</Pair>
		<Pair>
			<key>highlight</key>
			<styleUrl>#s_ylw-pushpin_hl000</styleUrl>
		</Pair>
	</StyleMap>
	<Style id="s_ylw-pushpin00">
		<IconStyle>
			<Icon>
				<href>http://maps.google.com/mapfiles/kml/shapes/rail.png</href>
			</Icon>
			<hotSpot x="0.5" y="0" xunits="fraction" yunits="fraction"/>
		</IconStyle>
		<LabelStyle>
			<scale>1.2</scale>
		</LabelStyle>
		<LineStyle>
			<color>66ff00ff</color>
			<width>1.3</width>
		</LineStyle>
		<PolyStyle>
			<color>7fff00ff</color>
		</PolyStyle>
	</Style>
	<Placemark>
		<styleUrl>#m_ylw-pushpin00</styleUrl>
		<Polygon>
			<outerBoundaryIs>
				<LinearRing>
					<coordinates>
						72.9025513214422,19.091875688964,0 72.9024927359241,19.0917840141335,0 72.90200844552891,19.0920765571775,0 72.90196403955871,19.0920070701453,0 72.90149082910889,19.0922929178221,0 72.90153523493311,19.092362404955,0 72.9012352509544,19.0925436121945,0 72.9011908452229,19.0924741249979,0 72.90080908251581,19.0927047298448,0 72.90087905257791,19.0928142211337,0 72.90078684274261,19.0928613537677,0 72.900738935139,19.09288573665,0 72.90069818072131,19.0929070535081,0 72.90067284745661,19.092920304226,0 72.90064830106461,19.0929323638163,0 72.90062753782,19.0929418186852,0 72.9005955124026,19.0929564019537,0 72.90057939240781,19.0929637424392,0 72.9005676003477,19.0929684719479,0 72.9005332032485,19.0929817619801,0 72.9005191821178,19.0929863818414,0 72.9004760625924,19.0929988099272,0 72.90041582928021,19.0930208787364,0 72.90038653923649,19.0930300309576,0 72.9003044116575,19.0930556932223,0 72.9002226011423,19.0930812563689,0 72.9001387193061,19.0931074666892,0 72.9000527825808,19.0931343190451,0 72.8999648052837,19.0931618089593,0 72.8999392436392,19.0931697962039,0 72.89987479260731,19.093190000124,0 72.89978099888209,19.0932224442337,0 72.899688850657,19.0932543190889,0 72.89959490332601,19.0932868162079,0 72.89949957872329,19.0933197896719,0 72.89942367128749,19.0933460465524,0 72.89934702639,19.0933725584841,0 72.8992984272746,19.0933970938753,0 72.8992066954042,19.0934434048939,0 72.89911623271151,19.0934890750922,0 72.8990934846545,19.0935005594645,0 72.8990226729549,19.0935363087705,0 72.8989328533621,19.0935816541522,0 72.89884455279631,19.093626232584,0 72.8987580336503,19.0936805434755,0 72.89867701757311,19.0937313998383,0 72.89861745848511,19.0937687869231,0 72.8985971033172,19.093781564484,0 72.8985178347598,19.093831323737,0 72.8984385661569,19.0938810829511,0 72.89835929750871,19.0939308421263,0 72.89828002881509,19.0939806012627,0 72.89820076007599,19.09403036036,0 72.8981214912916,19.0940801194184,0 72.8980422224617,19.0941298784378,0 72.8979629535865,19.0941796374184,0 72.8978836846658,19.09422939636,0 72.8978044156999,19.0942791552626,0 72.8977251466884,19.0943289141263,0 72.8976458776316,19.0943786729512,0 72.8975666085294,19.094428431737,0 72.8974873393818,19.0944781904839,0 72.8974301858543,19.0945140667949,0 72.8973069175123,19.0945914444607,0 72.8972022646758,19.0946571367246,0 72.8971539940717,19.0946840915561,0 72.8969984228584,19.0947833616103,0 72.8968720122721,19.0948640240621,0 72.8952395646733,19.095882205614,0 72.8951757640392,19.0959219821811,0 72.8951696565878,19.0959132740341,0 72.8946108695924,19.0962674729937,0 72.8946003281643,19.0962524433576,0 72.89419534961399,19.0965091454604,0 72.894223249853,19.0965603934011,0 72.8941690068211,19.0965947794431,0 72.8940899602396,19.0966448890312,0 72.8940288778326,19.0966836106372,0 72.8940107783511,19.0966950852993,0 72.8939311482701,19.0967457169931,0 72.8938509885016,19.09679730304,0 72.8937705300723,19.0968502183072,0 72.8936900535217,19.0969048220137,0 72.8936107189743,19.0969608689206,0 72.8935877209538,19.0969776107972,0 72.8935303306226,19.0970204766517,0 72.8934528032426,19.0970810017035,0 72.8933765974755,19.0971435916748,0 72.89330206126751,19.0972079729921,0 72.8932292412002,19.0972741054215,0 72.8931581827833,19.0973419476342,0 72.89308893042551,19.097411457233,0 72.8930237560398,19.0974802388005,0 72.8929147605696,19.0976455760302,0 72.8928022584134,19.0978033356162,0 72.89275430398971,19.0978685354323,0 72.89274465415861,19.0978820106075,0 72.8926905048144,19.0979598286917,0 72.89263788480319,19.0980387951255,0 72.8925869846689,19.0981178131884,0 72.8925374164586,19.0981966380913,0 72.892488787291,19.098275054428,0 72.8924720839282,19.0983020955885,0 72.8924405905841,19.0983530908401,0 72.892392487967,19.0984309803964,0 72.8923443853023,19.0985088699352,0 72.89229628259,19.0985867594565,0 72.89224817983011,19.0986646489603,0 72.89220007702249,19.0987425384466,0 72.8921519741675,19.0988204279154,0 72.8921038712647,19.0988983173667,0 72.89205576831429,19.0989762068004,0 72.8920076653163,19.0990540962166,0 72.8919595622708,19.0991319856154,0 72.89191145917761,19.0992098749965,0 72.89186335603679,19.0992877643602,0 72.8918152528484,19.0993656537063,0 72.89176714961251,19.099443543035,0 72.8917190463288,19.0995214323461,0 72.89167094299761,19.0995993216398,0 72.89162283961871,19.0996772109159,0 72.8915747361923,19.0997551001745,0 72.8915266327182,19.0998329894156,0 72.89147852919651,19.0999108786391,0 72.89143042562721,19.0999887678451,0 72.8913823220104,19.1000666570336,0 72.8913342183459,19.1001445462047,0 72.8912861146347,19.1002224353566,0 72.8912561668829,19.1002709264774,0 72.8912232828006,19.1003241545135,0 72.8911298185145,19.1005075453476,0 72.8910604704574,19.100608897911,0 72.8910086991004,19.1006803415493,0 72.8910036002533,19.1006871236491,0 72.8909564604498,19.1007476683982,0 72.89090100224929,19.1008144243635,0 72.8908433475472,19.1008792590619,0 72.8907827771795,19.1009429404425,0 72.8907209990432,19.1010037681595,0 72.8906561363257,19.101064266557,0 72.89058919486391,19.1011240928732,0 72.8905205331813,19.101183604332,0 72.8904505233706,19.1012431700986,0 72.8904137774153,19.1012742374906,0 72.8903797549564,19.1013029863661,0 72.8903087420284,19.1013629920209,0 72.8902377290497,19.1014229976432,0 72.8901667160204,19.1014830032326,0 72.8900957029405,19.1015430087895,0 72.89002468980991,19.1016030143136,0 72.88995367662871,19.101663019805,0 72.8898844552718,19.1017215111483,0 72.8898827590774,19.1017229444741,0 72.8898119717915,19.1017826688563,0 72.88974144950021,19.1018416595526,0 72.8896723634779,19.1018984888885,0 72.8896050735726,19.1019573969059,0 72.8895374713067,19.1020165783037,0 72.8894693983025,19.1020761717298,0 72.8894676491359,19.1020777030089,0 72.88940199462159,19.1021351791361,0 72.88933347348259,19.1021951647292,0 72.88926165966809,19.1022580327565,0 72.8892615953601,19.1022580890536,0 72.8891948090192,19.102316555803,0 72.8891252227305,19.1023774736355,0 72.88905106800181,19.1024423907279,0 72.8889808706225,19.1025038433683,0 72.8889106731916,19.1025652959766,0 72.888869580159,19.1026012698219,0 72.8888164648172,19.1026460747702,0 72.8887445077642,19.102696456625,0 72.8886956072587,19.1027306950424,0 72.8886584248967,19.1027567288079,0 72.8886072415276,19.1027925655526,0 72.8885482404532,19.1028338759329,0 72.8884858649524,19.102876936787,0 72.8884858649524,19.102876936787,0 72.8883062535393,19.1030033058247,0 72.88829464935981,19.1029884012182,0 72.8878732213506,19.1032453130684,0 72.8878642934166,19.1032320478727,0 72.88730331584451,19.1035752880941,0 72.88733449857971,19.1036243503712,0 72.8872076764858,19.1037014652529,0 72.8872092240768,19.10370376469,0 72.887174650421,19.1037245311798,0 72.8871570587059,19.1037350988769,0 72.8870757476294,19.1037841728284,0 72.8869699236874,19.1038563424911,0 72.88695674636971,19.1038644442513,0 72.8868919176479,19.1039037811419,0 72.88684193312341,19.1039331687433,0 72.88678599003541,19.1039723368768,0 72.8867080781905,19.1040268862081,0 72.8866800263627,19.1040465264445,0 72.88662861812099,19.1040825194408,0 72.8865702041202,19.1041234174148,0 72.88650422737921,19.104169610316,0 72.88643031781361,19.1042213572363,0 72.8863363593579,19.1042871410584,0 72.8862945685874,19.1043193205868,0 72.8862271181011,19.1043900379545,0 72.8861623797651,19.1044611974616,0 72.8860997924337,19.1045322865957,0 72.8860387627804,19.1046028756658,0 72.8860250254473,19.1046188348108,0 72.8859784523507,19.1046729472184,0 72.8859182870212,19.1047428521113,0 72.8858581216402,19.1048127569792,0 72.8857979562075,19.1048826618219,0 72.885737790723,19.1049525666396,0 72.885677625187,19.1050224714324,0 72.8856174595994,19.1050923762,0 72.88555729396011,19.1051622809426,0 72.88550621682219,19.1052216259475,0 72.8854970781653,19.1052322441082,0 72.88544592379159,19.1052917382335,0 72.8854367367971,19.105302443676,0 72.8853765349277,19.1053728024105,0 72.8853164516341,19.1054433822014,0 72.8852566272615,19.1055140181454,0 72.8852524569073,19.1055189557358,0 72.88519696336419,19.1055847768929,0 72.88519296233579,19.1055895268498,0 72.88513756538519,19.1056552935146,0 72.8850781781602,19.1057257973076,0 72.88501879088371,19.1057963010761,0 72.8849594035556,19.10586680482,0 72.88490001617601,19.1059373085394,0 72.8848406287449,19.1060078122343,0 72.8847812412623,19.1060783159047,0 72.8847277600361,19.1061418077082,0 72.88472193792219,19.1061487194555,0 72.8846629502965,19.1062185560455,0 72.8846041921021,19.1062871792468,0 72.8845452957834,19.1063542034736,0 72.884485878647,19.1064192952713,0 72.8844516105827,19.1064471068725,0 72.8844140254803,19.1064805998974,0 72.8843944195789,19.1065001956414,0 72.8843576555642,19.106535746752,0 72.8842937818021,19.1065943058425,0 72.8842284086611,19.1066503644295,0 72.88416110642331,19.1067043207801,0 72.88409194986321,19.1067561149464,0 72.884021015816,19.1068056893828,0 72.88394838309171,19.1068529890097,0 72.8838741323877,19.1068979612753,0 72.8837983461996,19.106940556213,0 72.88372110872881,19.1069807264981,0 72.88364250578989,19.1070184274995,0 72.8835626247138,19.1070536173298,0 72.8834815542531,19.1070862568912,0 72.8833993844803,19.10711630992,0 72.88331620669079,19.1071437430258,0 72.8832321132995,19.1071685257293,0 72.8831471977385,19.1071906304958,0 72.8830615543541,19.1072100327662,0 72.8829752485675,19.1072267167314,0 72.88288916503601,19.1072405597179,0 72.8828003653893,19.1072520268317,0 72.8827109213333,19.1072612326763,0 72.882620029555,19.1072687464023,0 72.8825277647355,19.1072750456166,0 72.88243418116561,19.1072806318539,0 72.88238875517931,19.1072832158713,0 72.8823396915088,19.1072859957859,0 72.8822448450849,19.1072913696853,0 72.88214999866,19.1072967435352,0 72.8820551522342,19.1073021173357,0 72.8819603058075,19.1073074910866,0 72.8818654593799,19.107312864788,0 72.8817706129513,19.1073182384399,0 72.8816913593212,19.1073227286229,0 72.88167557902079,19.1073236231222,0 72.88157974360939,19.1073292142788,0 72.8814826190101,19.1073356076553,0 72.8813842007486,19.1073434577711,0 72.8812845818849,19.1073534396909,0 72.88118520298571,19.1073660848262,0 72.88114951035659,19.1073713964924,0 72.8810829476195,19.1073824979786,0 72.8809841066079,19.1073991314625,0 72.8808857493618,19.1074153014835,0 72.88084093186281,19.1074226695025,0 72.8807827790634,19.1074322298338,0 72.8805643773897,19.1074976992699,0 72.8803595012166,19.1075838358701,0 72.8801845593752,19.1076452663523,0 72.8801454292169,19.1076590068002,0 72.8800509083152,19.1076921975104,0 72.8799882269422,19.1077142078374,0 72.8799562170056,19.1076318330907,0 72.87946785189111,19.1077966244413,0 72.87945800776011,19.1077768282038,0 72.8786308040761,19.1081072897914,0 72.8786626138718,19.1081818084155,0 72.8786626138718,19.1081818084155,0 72.8786626138718,19.1081818084155,0 72.8786626138718,19.1081818084155,0 72.87857866639151,19.1082149681154,0 72.8784941344024,19.1082483586453,0 72.878123377907,19.108400788664,0 72.877999168111,19.1084478085544,0 72.8779329226165,19.1084728739736,0 72.8778197080279,19.1085162406303,0 72.8777375893058,19.1085471950683,0 72.8776458455272,19.1085817775872,0 72.8775726844804,19.108609355361,0 72.87746957748411,19.1086482210774,0 72.87738161180729,19.1086813792795,0 72.8772934103504,19.1087146263,0 72.87720520886209,19.1087478732748,0 72.87711700734221,19.1087811202036,0 72.8770283093498,19.1088131770107,0 72.8769409439177,19.1088484753887,0 72.8768525709396,19.108880797259,0 72.87676424628761,19.1089140903707,0 72.876675921604,19.1089473834363,0 72.8765875968889,19.1089806764561,0 72.8764992721423,19.1090139694299,0 72.8764109474529,19.1090472623242,0 72.8763932568194,19.1090539305817,0 72.8763228085131,19.1090804851448,0 72.876305092693,19.1090871628846,0 72.8762346951918,19.1091136982513,0 72.8761466496363,19.1091468857569,0 72.8760604063956,19.1091793938501,0 72.8760154870794,19.1091963254893,0 72.87597230476371,19.109212602379,0 72.875926286219,19.1092299483251,0 72.8758821268045,19.1092465934874,0 72.8757938079517,19.1092798837775,0 72.8757054890674,19.1093131740215,0 72.8756171701514,19.1093464642197,0 72.8755292713701,19.1093807616229,0 72.8754405383438,19.1094130591467,0 72.8753518052869,19.1094453566242,0 72.8752630721994,19.1094776540554,0 72.8751743390813,19.1095099514403,0 72.8750856059326,19.109542248779,0 72.8749968727534,19.1095745460715,0 72.87490813954351,19.1096068433177,0 72.8748194063031,19.1096391405177,0 72.8747306730321,19.1096714376713,0 72.8746419397305,19.1097037347787,0 72.8745532063983,19.1097360318399,0 72.8744176669145,19.1097853652421,0 72.87440154424991,19.1097453376554,0 72.87392693209669,19.1099180849707,0 72.87392119017591,19.1099038301354,0 72.8735594368884,19.1100352083169,0 72.8735814039009,19.1100897436935,0 72.87339967029649,19.1101558894255,0 72.873310936536,19.110188185839,0 72.8732222027451,19.1102204822062,0 72.8731334689235,19.1102527785272,0 72.8730447350714,19.110285074802,0 72.8729560011886,19.1103173710305,0 72.8728672672753,19.1103496672127,0 72.8727785333314,19.1103819633487,0 72.87268979935691,19.1104142594383,0 72.8726010655769,19.1104465553998,0 72.8725873227291,19.1104515573178,0 72.8725125139499,19.1104787446319,0 72.87242414140521,19.1105105300385,0 72.87233563608309,19.1105416260712,0 72.87232231166669,19.1105462189382,0 72.8722474917361,19.1105715085235,0 72.87215868637441,19.1106004333649,0 72.872069386695,19.1106283385005,0 72.8720323926423,19.1106395548248,0 72.8719800496629,19.1106550958099,0 72.8718897543591,19.1106811987462,0 72.87179903825,19.1107068684003,0 72.87176121784449,19.1107174998281,0 72.8717080138037,19.1107324490119,0 72.87161689494491,19.1107580513957,0 72.8715257760625,19.1107836537315,0 72.8714346571563,19.1108092560193,0 72.8713435382265,19.1108348582592,0 72.87125241927301,19.1108604604512,0 72.8711613002959,19.1108860625952,0 72.8710701812951,19.1109116646913,0 72.87097906227061,19.1109372667395,0 72.8708879432225,19.1109628687397,0 72.8707968241507,19.110988470692,0 72.8707057050552,19.1110140725963,0 72.870614585936,19.1110396744527,0 72.8705234667932,19.1110652762612,0 72.8704323476268,19.1110908780217,0 72.8703412284367,19.1111164797343,0 72.870250111394,19.1111420807889,0 72.8702483167436,19.1111425850426,0 72.87015911869879,19.1111675977009,0 72.8701118830874,19.1111807425528,0 72.8700683771184,19.11119274407,0 72.86997742574449,19.1112174873859,0 72.8698862978556,19.1112418107414,0 72.869880599863,19.1112433160761,0 72.86979508870211,19.1112657307333,0 72.8697434452322,19.111279176944,0 72.8697035409534,19.1112895594333,0 72.8696118956169,19.1113134041238,0 72.8695202502587,19.1113372487662,0 72.86942860487881,19.1113610933601,0 72.8693369594771,19.1113849379059,0 72.8691536678337,19.111432627054,0 72.86905755070541,19.1114492572476,0 72.8689597118791,19.1114669437802,0 72.8688682466581,19.1114834780911,0 72.86877522622579,19.111500293489,0 72.86873574311841,19.1115074308748,0 72.868659480988,19.1115212168012,0 72.8685837596357,19.1115349049368,0 72.86849240643259,19.1115536961456,0 72.8683477384045,19.1115775702345,0 72.8683112998642,19.1115862439393,0 72.8682196542342,19.1116100878999,0 72.8681348673214,19.1116321473415,0 72.868132088293,19.1116235756384,0 72.8679007818014,19.1116913364834,0 72.867886990836,19.1116577555736,0 72.8672479348451,19.1118393022578,0 72.8672251803758,19.1117810211043,0 72.86677496796141,19.1119049754392,0 72.8667991390848,19.1120014886439,0 72.8666721992068,19.1120390739787,0 72.86659993981419,19.1120604690469,0 72.86648222169021,19.1120953237806,0 72.8663690985197,19.1121288179237,0 72.86631431658169,19.1121401601906,0 72.8662784295571,19.1121518467903,0 72.8662474671804,19.1121648311176,0 72.8661892573888,19.1121820661186,0 72.86612323145251,19.1122047882776,0 72.8660340687327,19.1122354726777,0 72.86594490598399,19.1122661570314,0 72.8658557243721,19.11229684782,0 72.8657654304172,19.1123279213508,0 72.865674751444,19.1123579699238,0 72.8656048554607,19.1123811315336,0 72.8654924901255,19.1124091022495,0 72.86540135943071,19.1124346683405,0 72.8653102287123,19.1124602343835,0 72.8652190979704,19.1124858003785,0 72.8651279672048,19.1125113663257,0 72.8650368369353,19.112536932079,0 72.8650280730472,19.1125393907344,0 72.8649453507732,19.1125626559785,0 72.8648534689419,19.1125889214219,0 72.8647612155889,19.1126162063682,0 72.864669367769,19.1126447685325,0 72.864659546795,19.1126479248741,0 72.86457656204379,19.1126754764752,0 72.8644850386228,19.1127077349113,0 72.8643941532241,19.112741748758,0 72.86430400157749,19.112777483482,0 72.8642146197403,19.1128149247907,0 72.8641260434614,19.112854057709,0 72.86403830816791,19.1128948665851,0 72.86395197603591,19.1129370773867,0 72.86394162641869,19.1129422764253,0 72.8638657442424,19.112981261125,0 72.8637813651674,19.1130261285714,0 72.8636980063678,19.1130715569552,0 72.8636154553632,19.1131171249773,0 72.8636064474119,19.1131221102418,0 72.86353327626181,19.1131626061941,0 72.8634511629907,19.1132080510261,0 72.8633690496772,19.113253495817,0 72.8632869363214,19.1132989405667,0 72.86320482292339,19.113344385275,0 72.86312270948299,19.1133898299422,0 72.8630405960003,19.1134352745681,0 72.86295848247519,19.1134807191528,0 72.86287636890781,19.1135261636961,0 72.8627942552981,19.1135716081983,0 72.8627121416462,19.1136170526592,0 72.8626300279518,19.1136624970788,0 72.8625479142151,19.1137079414573,0 72.86247689624911,19.1137472450279,0 72.8624658632956,19.1137533508162,0 72.8623840494337,19.1137985165546,0 72.8623024350525,19.1138430502391,0 72.86223166847211,19.1138808938299,0 72.8622212373474,19.1138863925229,0 72.862139017275,19.1139289641152,0 72.8620565465523,19.1139703197513,0 72.8619733722001,19.1140106899716,0 72.8619175233265,19.1140370568533,0 72.8618900624939,19.114049807806,0 72.86180526621909,19.1140884615475,0 72.8617199088267,19.1141266334981,0 72.86166255349561,19.1141520907455,0 72.8616340241807,19.1141647425712,0 72.8615479165654,19.1142029284651,0 72.8614618089161,19.1142411143137,0 72.8614073618008,19.1142652597492,0 72.8613758323224,19.1142792378765,0 72.86129017274369,19.1143170179024,0 72.8612048404142,19.1143539816342,0 72.8611194439266,19.1143898188157,0 72.8610655530875,19.1144116284447,0 72.8610347259315,19.1144237709442,0 72.8609485392749,19.1144564135388,0 72.8608620769155,19.1144872706116,0 72.8607749826184,19.1145164778401,0 72.86068729122241,19.1145440235416,0 72.8605990378058,19.1145698966973,0 72.86051025767119,19.1145940869578,0 72.8604209863317,19.1146165846469,0 72.8603312594982,19.1146373807654,0 72.8602411130621,19.1146564669947,0 72.86015058308431,19.1146738357003,0 72.8600597057776,19.1146894799346,0 72.8599685174953,19.11470339344,0 72.859877030505,19.1147155738741,0 72.85978811583,19.1147257243625,0 72.8597859301273,19.1147259528325,0 72.8596929943604,19.1147348241548,0 72.8595999548687,19.1147423836557,0 72.8595061763078,19.1147491224426,0 72.8594152990422,19.1147552369288,0 72.8594118157493,19.1147554687197,0 72.8593170299711,19.1147617760814,0 72.8592222441911,19.1147680833935,0 72.85912745840891,19.114774390656,0 72.85903267262491,19.114780697869,0 72.8589378868389,19.1147870050324,0 72.8588551732358,19.1147925088571,0 72.8588430283247,19.114793317128,0 72.8587478387357,19.1147997496277,0 72.8586521150133,19.1148066869774,0 72.85855586423151,19.114814553011,0 72.8584591396406,19.114823776057,0 72.85836254028369,19.1148347305937,0 72.8583256243039,19.1148394640144,0 72.85826449687789,19.1148480364114,0 72.8581678265252,19.1148635091869,0 72.8580712891105,19.1148813302313,0 72.8579752505,19.114901439504,0 72.8578797707108,19.1149238244378,0 72.8577849094105,19.1149484710434,0 72.8576907258809,19.1149753639181,0 72.8575953349349,19.1149977255961,0 72.8575021089561,19.115030450348,0 72.857412828156,19.1150693451376,0 72.85732262543419,19.1151065037813,0 72.85723280495699,19.115144563757,0 72.8571878408287,19.1151627478935,0 72.85706419799649,19.115215278254,0 72.8569442865588,19.115267004572,0 72.856812027389,19.1153240956544,0 72.8566512833835,19.115420539334,0 72.85662650652149,19.1153832234565,0 72.8560585832428,19.1157239615011,0 72.8560262140134,19.115673269129,0 72.85572305293761,19.1158551541289,0 72.85577919980339,19.1159397084751,0 72.8556561314557,19.1160135508771,0 72.85557578188249,19.1160617614465,0 72.855495432265,19.1161099719759,0 72.8554150826031,19.1161581824655,0 72.85533473289679,19.1162063929151,0 72.8552543831462,19.1162546033249,0 72.8551740333512,19.1163028136947,0 72.8550936835118,19.1163510240247,0 72.85501333362809,19.1163992343148,0 72.8549329837001,19.1164474445649,0 72.8548526337275,19.1164956547751,0 72.8547722837107,19.1165438649454,0 72.85469193364961,19.1165920750759,0 72.854611583544,19.1166402851664,0 72.8545312333941,19.116688495217,0 72.8544508831998,19.1167367052277,0 72.8543705329612,19.1167849151985,0 72.8542901826781,19.1168331251295,0 72.85420983235071,19.1168813350205,0 72.854129481979,19.1169295448715,0 72.8540491315628,19.1169777546827,0 72.8539687811024,19.117025964454,0 72.85388843059761,19.1170741741854,0 72.8538080800483,19.1171223838768,0 72.8537277294547,19.1171705935284,0 72.8536473788168,19.11721880314,0 72.85356702813441,19.1172670127117,0 72.85348667741211,19.117315222241,0 72.8534546677397,19.1173344276678,0 72.8534064337958,19.1173633578236,0 72.85337446783571,19.1173825022587,0 72.85332630423601,19.1174112717979,0 72.8532460592271,19.1174589917474,0 72.85316572309129,19.1175065006093,0 72.85308526220859,19.1175538183783,0 72.8530046280258,19.1176009734467,0 72.8529700341805,19.1176211230864,0 72.8529239372071,19.1176479057708,0 72.8528891177165,19.1176681090481,0 72.8528428428378,19.1176949544145,0 72.8527617361968,19.1177420066201,0 72.85268062951209,19.1177890587853,0 72.852599522784,19.1178361109099,0 72.8525184160123,19.1178831629941,0 72.8524373091971,19.1179302150378,0 72.8523562023384,19.1179772670409,0 72.8522750954361,19.1180243190036,0 72.8521939884903,19.1180713709258,0 72.852112881501,19.1181184228075,0 72.8520317744681,19.1181654746487,0 72.85195066739171,19.1182125264493,0 72.85186956031011,19.1182595781872,0 72.8518514405673,19.1182700897908,0 72.8517882889627,19.1183067528133,0 72.85172945919661,19.1183410526012,0 72.8517066687747,19.1183544061647,0 72.8516253797638,19.1184023768157,0 72.85154422044811,19.1184508069252,0 72.85146331685431,19.1184996221083,0 72.85138267100381,19.1185488211454,0 72.8513022849142,19.1185984028057,0 72.8512223182549,19.118648267538,0 72.85121675652771,19.1186517558464,0 72.8511425398469,19.1186985087881,0 72.85109760999499,19.1187269183598,0 72.8510632903393,19.1187486273673,0 72.85098418582631,19.1187986651302,0 72.8509050812676,19.1188487028544,0 72.8508259766633,19.1188987405394,0 72.8507468720134,19.1189487781856,0 72.8506677673178,19.1189988157927,0 72.8505886625768,19.119048853361,0 72.85050955779001,19.1190988908903,0 72.8504304529576,19.1191489283806,0 72.8503513480796,19.119198965832,0 72.8502722431559,19.1192490032444,0 72.8501931381867,19.1192990406179,0 72.85011403317181,19.1193490779524,0 72.8500349281114,19.1193991152479,0 72.8499558230055,19.1194491525044,0 72.84990211103241,19.1194831275139,0 72.84987659284759,19.1194992703518,0 72.8497974344903,19.1195494427448,0 72.84978307804489,19.1195585722667,0 72.84971796372059,19.1196001445474,0 72.8496387912478,19.1196510613227,0 72.8495599069572,19.1197021985496,0 72.8495519514112,19.1197073783459,0 72.8494811641894,19.1197536175005,0 72.849434233875,19.119784358125,0 72.8494028204854,19.1198049412209,0 72.8493245872438,19.11985620219,0 72.84928374669759,19.1198829622194,0 72.8492732813499,19.1198684010305,0 72.8490791013804,19.1199951123984,0 72.8490008679579,19.1200463732102,0 72.8489226344889,19.1200976339838,0 72.84884440097351,19.120148894719,0 72.8487661674117,19.120200155416,0 72.8486879338035,19.1202514160746,0 72.8486097001614,19.1203026766869,0 72.8485849017891,19.1203189251847,0 72.84853163059781,19.1203538104011,0 72.8484678792527,19.1203953962967,0 72.84841739114449,19.1204281803122,0 72.8483649514579,19.1203552165998,0 72.8481451079287,19.1204897553667,0 72.8479380132205,19.1206164917083,0 72.8479913149246,19.1206951832318,0 72.8479028942786,19.1207486997936,0 72.84786705036031,19.1207703212705,0 72.84782279587429,19.1207970094901,0 72.8477425615084,19.1208453957734,0 72.84766232709811,19.1208937820166,0 72.84758209264329,19.12094216822,0 72.847501858144,19.1209905543837,0 72.8474216236001,19.1210389405074,0 72.8473413890119,19.1210873265914,0 72.847261154379,19.1211357126355,0 72.8471809197017,19.1211840986398,0 72.84710068497991,19.1212324846042,0 72.84702045021371,19.1212808705288,0 72.8469402154028,19.1213292564136,0 72.84685998054751,19.1213776422585,0 72.84677974564779,19.1214260280636,0 72.8466995107035,19.1214744138288,0 72.8466192757147,19.1215227995542,0 72.84653904068151,19.1215711852398,0 72.8464588056037,19.1216195708855,0 72.8463785705237,19.1216679564659,0 72.8463703337647,19.121672923628,0 72.8462984609728,19.1217162406444,0 72.8462903543824,19.1217211197029,0 72.8462184307832,19.1217643112879,0 72.8461383007469,19.1218122290468,0 72.84605804296611,19.1218600104373,0 72.8460145478564,19.1218858165459,0 72.84597775438429,19.1219076012528,0 72.8459339742388,19.1219334928906,0 72.8458970878976,19.1219553027307,0 72.8458164036348,19.1220030089826,0 72.84573571932781,19.1220507151945,0 72.8456550349769,19.122098421366,0 72.8455743505819,19.1221461274975,0 72.845493666143,19.1221938335887,0 72.8454129816601,19.1222415396397,0 72.845332297136,19.1222892456487,0 72.8452923555783,19.1223128617086,0 72.8452517757503,19.1223368467266,0 72.84517156071659,19.1223840612989,0 72.8450914247381,19.1224306440306,0 72.84505203135269,19.122453211671,0 72.8450118945558,19.1224759250302,0 72.8449313625697,19.1225206355202,0 72.8448503312792,19.1225644827566,0 72.8448060557602,19.1225879643127,0 72.8447692772571,19.1226072216901,0 72.84468671813011,19.1226498013709,0 72.84460355622559,19.1226921074729,0 72.8445578782717,19.1227152331758,0 72.8445198746161,19.1227344649795,0 72.8444359997452,19.1227769099311,0 72.8443521248344,19.1228193548398,0 72.8442682498837,19.1228617997059,0 72.8441843748932,19.1229042445295,0 72.84410049986271,19.1229466893103,0 72.8440166249043,19.1229891339916,0 72.84400656740731,19.1229942235756,0 72.84393305196571,19.1230313843916,0 72.8438498034531,19.1230731512454,0 72.8438160031539,19.123089833566,0 72.8434956720881,19.1232409219373,0 72.8432952060999,19.1233354739208,0 72.8432296956737,19.1233663725584,0 72.84311001829479,19.1234228194785,0 72.84302273631781,19.1234639867371,0 72.84292205246879,19.1235114750179,0 72.84283567513251,19.1235491141389,0 72.84274929776041,19.1235867532153,0 72.84266292035279,19.1236243922472,0 72.84258149543911,19.1236598731704,0 72.8425763253595,19.1236621260807,0 72.8424886864436,19.1237006129942,0 72.84239967066461,19.1237413452004,0 72.8423098723505,19.1237857302144,0 72.84222021651431,19.1238351351209,0 72.84213343324591,19.1238899195008,0 72.84209361018701,19.1239180416009,0 72.8420471230085,19.1239537541109,0 72.8420063726483,19.1239879566329,0 72.8419672789686,19.1240236016957,0 72.84192976518889,19.1240607489227,0 72.84189306650561,19.1241002264875,0 72.8418367303712,19.1241682421724,0 72.84182667981,19.1241814628691,0 72.8417970163424,19.1242225763604,0 72.841767970216,19.1242661698593,0 72.84171707920591,19.124351203862,0 72.8416712046575,19.1244377783906,0 72.8416296149904,19.1245237615651,0 72.84159085366009,19.1246084590809,0 72.84157661123911,19.1246400996449,0 72.84157636666519,19.1246406435469,0 72.8415534118943,19.1246916297063,0 72.84151615120121,19.1247734901142,0 72.84147841051551,19.1248540347218,0 72.8414396626148,19.1249330284429,0 72.8413993429715,19.1250103511861,0 72.8413617135646,19.1250776351503,0 72.8413577777492,19.1250843882596,0 72.84131235373221,19.1251587295618,0 72.8412648112988,19.1252304145955,0 72.8412145632022,19.1253004125154,0 72.8411616756367,19.1253686311058,0 72.84110621827401,19.1254349804948,0 72.8410482641717,19.125499373273,0 72.8409878896766,19.1255617246088,0 72.8409251743247,19.1256219523597,0 72.8408602007361,19.125679977181,0 72.8407930545059,19.12573572263,0 72.8407238240921,19.125789115267,0 72.8406526006987,19.1258400847515,0 72.84057947815511,19.1258885639358,0 72.8405045527937,19.1259344889523,0 72.8404279233213,19.1259777992991,0 72.8403496906906,19.1260184379182,0 72.8402699579663,19.1260563512717,0 72.8401888301896,19.1260914894121,0 72.84009867544729,19.1261268405516,0 72.840042327579,19.1261564004237,0 72.8400057800347,19.126169380878,0 72.839960684331,19.1261815970283,0 72.8398629348156,19.1262068924739,0 72.83975490190031,19.1262308287492,0 72.8396350070189,19.1262573931327,0 72.83950281022671,19.126286683073,0 72.83939295342169,19.1263110232129,0 72.8390268612162,19.1263921349509,0 72.83877366986729,19.1264482317832,0 72.8385437594102,19.1265027650669,0 72.8384785563614,19.1265185346257,0 72.8383788550713,19.1265406240565,0 72.83819417998819,19.1265815397887,0 72.83810163946529,19.1266020425472,0 72.83803417578299,19.1266169893883,0 72.83802608746289,19.1265842930028,0 72.83737218450101,19.1267304385118,0 72.8373567551771,19.1266683392809,0 72.8369578005555,19.126757503253,0 72.836978911033,19.1268543915899,0 72.8368680349456,19.1268765595541,0 72.8367175198012,19.1269079840289,0 72.8366262332486,19.1269264509869,0 72.8365355305292,19.1269438095497,0 72.83644528145931,19.1269597204188,0 72.8363613271643,19.1269729798975,0 72.8363565689001,19.1269736796575,0 72.8362658919295,19.1269859013444,0 72.836175496954,19.1269960291933,0 72.8361236681239,19.1270009105613,0 72.83608625840699,19.1270040164804,0 72.83599454625509,19.1270103274057,0 72.8359025714779,19.1270151248942,0 72.83580972539551,19.127018802895,0 72.8357160356869,19.1270217214044,0 72.8356216570059,19.1270242471955,0 72.83561422704371,19.1270244397453,0 72.8356140271902,19.1270244449529,0 72.8355262204724,19.1270267670655,0 72.83543017456501,19.1270296377053,0 72.835333395048,19.1270332340523,0 72.83523591124001,19.1270379354075,0 72.83513819479791,19.1270441017153,0 72.8350809011192,19.1270485394582,0 72.8350386002905,19.1270522501069,0 72.83494022314309,19.1270550179843,0 72.8348093180575,19.1270609795197,0 72.834741359017,19.1270708302355,0 72.8346640134118,19.1270835213554,0 72.8346422517718,19.1270873249555,0 72.83454602066701,19.1271052893842,0 72.8344500215227,19.1271248344096,0 72.8343551104976,19.127145397283,0 72.8342612096459,19.1271665993554,0 72.83416821298199,19.1271880779618,0 72.8341410698948,19.1271943840699,0 72.8340757585256,19.1272095614621,0 72.8339834538511,19.127231011652,0 72.8338911491575,19.1272524617932,0 72.8337988444448,19.1272739118855,0 72.83370653971301,19.1272953619292,0 72.833614234962,19.127316811924,0 72.83352193019191,19.1273382618701,0 72.8334296254027,19.1273597117674,0 72.8333373205945,19.127381161616,0 72.83324501576701,19.1274026114158,0 72.8331527109206,19.1274240611668,0 72.8330749173704,19.1274421387492,0 72.8330604631938,19.1274454975133,0 72.8329827739302,19.1274635288273,0 72.8329684286465,19.1274668504852,0 72.832876231679,19.1274881215447,0 72.8327841355065,19.1275092369242,0 72.83270789604801,19.127526616667,0 72.8326920947555,19.1275302075434,0 72.83261559102139,19.1275475596071,0 72.8325996989911,19.1275511615192,0 72.8325072670292,19.1275721110964,0 72.8324148350486,19.1275930606248,0 72.8323224030495,19.1276140101042,0 72.83222997103179,19.1276349595349,0 72.8321375389956,19.1276559089166,0 72.8320451069409,19.1276768582496,0 72.83195267486759,19.1276978075338,0 72.8318602427757,19.127718756769,0 72.8317678106653,19.1277397059555,0 72.8316753785364,19.127760655093,0 72.83158294638891,19.1277816041817,0 72.83149051422281,19.1278025532217,0 72.83139808203811,19.1278235022127,0 72.8313056498351,19.1278444511549,0 72.8312132176133,19.1278654000482,0 72.831120785373,19.1278863488928,0 72.83102835311421,19.1279072976885,0 72.83093592083679,19.1279282464352,0 72.83084348854101,19.1279491951332,0 72.8307510562265,19.1279701437824,0 72.8306487938377,19.1279933202353,0 72.8306394095584,19.1279559922933,0 72.82965911861049,19.1281828276184,0 72.8296673923473,19.1282157389378,0 72.8295494344505,19.128242471776,0 72.82945700187631,19.1282634197413,0 72.8293645692836,19.1282843676577,0 72.8292721366724,19.1283053155253,0 72.8289754087326,19.1283447074222,0 72.8288957942696,19.1283627501469,0 72.8288033615802,19.1283836977682,0 72.8287109288723,19.1284046453408,0 72.82861849614579,19.1284255928646,0 72.8285260634007,19.1284465403394,0 72.82843363063721,19.1284674877655,0 72.8283411978551,19.1284884351426,0 72.8282487650544,19.128509382471,0 72.8281563322352,19.1285303297505,0 72.82806389939751,19.1285512769811,0 72.8279714665412,19.1285722241629,0 72.82787903366641,19.1285931712958,0 72.827786600773,19.1286141183799,0 72.8276941678611,19.1286350654152,0 72.8276017349307,19.1286560124015,0 72.82750930198171,19.1286769593391,0 72.8274168690141,19.1286979062277,0 72.82732443602799,19.1287188530676,0 72.8272320030235,19.1287397998586,0 72.8271395700003,19.1287607466006,0 72.8270471369586,19.1287816932939,0 72.8269547038983,19.1288026399383,0 72.8268622708196,19.1288235865339,0 72.8267698377223,19.1288445330806,0 72.8266774046064,19.1288654795784,0 72.8265849714719,19.1288864260275,0 72.826492538319,19.1289073724276,0 72.8264001051476,19.1289283187789,0 72.82630767195759,19.1289492650814,0 72.826215238749,19.128970211335,0 72.82612280552181,19.1289911575397,0 72.82603037227619,19.1290121036956,0 72.82593793901211,19.1290330498026,0 72.8258455057294,19.1290539958609,0 72.8257530724281,19.1290749418701,0 72.82566063910831,19.1290958878306,0 72.8255682057701,19.1291168337422,0 72.8254757724132,19.129137779605,0 72.8253833390378,19.1291587254189,0 72.8252909056438,19.1291796711839,0 72.82519847223141,19.1292006169002,0 72.8251060388004,19.1292215625675,0 72.8250136053509,19.129242508186,0 72.82492117188281,19.1292634537556,0 72.82482873839611,19.1292843992764,0 72.8247363048911,19.1293053447483,0 72.8246438713674,19.1293262901713,0 72.82455143782509,19.1293472355456,0 72.8244590042644,19.129368180871,0 72.8243665706851,19.1293891261474,0 72.8242741370873,19.1294100713751,0 72.824181703471,19.1294310165538,0 72.82408926983609,19.1294519616838,0 72.8239968361826,19.1294729067649,0 72.82390440251071,19.129493851797,0 72.82381196882029,19.1295147967804,0 72.8237195351112,19.1295357417148,0 72.82362710138371,19.1295566866005,0 72.8235346676377,19.1295776314373,0 72.823442233873,19.1295985762252,0 72.8233498000899,19.1296195209643,0 72.8232573662882,19.1296404656544,0 72.8231649324679,19.1296614102958,0 72.8230724986293,19.1296823548883,0 72.822980064772,19.1297032994319,0 72.8228876308962,19.1297242439267,0 72.8227951970019,19.1297451883726,0 72.8227407759789,19.1297575195202,0 72.82270255590071,19.1297661837392,0 72.8226093705411,19.1297874572305,0 72.8225157140466,19.1298093321561,0 72.8224601105771,19.129822695571,0 72.8224207331226,19.129832372781,0 72.8223267447064,19.1298562214291,0 72.8222326666024,19.1298811627119,0 72.8221395111655,19.1299069253696,0 72.8221368107405,19.129907687967,0 72.8220459392895,19.1299338177342,0 72.8219539247079,19.1299609844763,0 72.8219241741016,19.1299698852757,0 72.8218306340616,19.129995000665,0 72.8218201921665,19.1299612082071,0 72.82138733114481,19.1300660929934,0 72.8213527298484,19.1300533389013,0 72.82134257013961,19.1300547959957,0 72.8213411039367,19.130049400711,0 72.82128619001971,19.13006288196,0 72.82123812288209,19.1300697756726,0 72.82123307026271,19.1300759227284,0 72.8206818867497,19.1302112358575,0 72.82069286744731,19.1302749951215,0 72.82055020440841,19.1303084232551,0 72.82055277837451,19.1303178950177,0 72.82050194742401,19.1303292890219,0 72.82040946018741,19.1303500204437,0 72.8203169729324,19.1303707518167,0 72.8202746770025,19.1303802326345,0 72.8202253651947,19.1303912567591,0 72.82013564065861,19.1304107328619,0 72.82004837863779,19.1304280509119,0 72.81996343598971,19.1304423291452,0 72.81988063397959,19.1304527879057,0 72.81980197551469,19.1304586591359,0 72.8197208971967,19.1304595984352,0 72.81964185101781,19.1304555013852,0 72.819563267604,19.1304464084397,0 72.8194854960922,19.1304323599982,0 72.81940705809581,19.1304129675445,0 72.8193690145517,19.1304015722038,0 72.8193349289681,19.1303901788317,0 72.81925690903169,19.1303604278969,0 72.81917977935871,19.1303267784292,0 72.819101423875,19.1302892306178,0 72.81902152018721,19.1302485738128,0 72.8189398260988,19.1302057571078,0 72.818938022008,19.1302048067052,0 72.8189378386941,19.1302047101723,0 72.8188564576504,19.1301618929612,0 72.81877232853731,19.130117976486,0 72.8187275399404,19.1300948584408,0 72.8186867175565,19.1300739942849,0 72.8186011825802,19.1300309370716,0 72.8185150258423,19.1299884605425,0 72.818428928606,19.1299468985059,0 72.8184253570108,19.1299451931961,0 72.81834205253369,19.1299057889773,0 72.8182560263992,19.1298656189983,0 72.818230887669,19.1298539339094,0 72.818230887669,19.1298539339094,0 72.818230887669,19.1298539339094,0 72.818230887669,19.1298539339094,0 72.81797915247191,19.1302396198972,0 72.81797915247191,19.1302396198972,0 72.81797915247191,19.1302396198972,0 72.8180017333268,19.1302501117521,0 72.8180469072696,19.1302711097269,0 72.8181314556895,19.130310589733,0 72.8182128732868,19.1303491014766,0 72.8182147120303,19.1303499794123,0 72.81829806036571,19.1303902145109,0 72.81838060626809,19.1304309108952,0 72.81846301863681,19.1304723962791,0 72.8185016574795,19.1304921444605,0 72.8185445949137,19.1305143070391,0 72.8186270440593,19.1305573466042,0 72.8187077342641,19.1305998003964,0 72.8187076921855,19.1305997782671,0 72.8187099477981,19.1306009665348,0 72.8187946767392,19.1306453738928,0 72.81888232075291,19.1306899692056,0 72.8189736591938,19.1307337384794,0 72.81906923886579,19.1307754372007,0 72.81916757982449,19.1308129370874,0 72.819218754926,19.1308300427839,0 72.8192757640069,19.1308471189697,0 72.81938122048879,19.1308731913137,0 72.81949012162529,19.1308928629597,0 72.8196001596576,19.1309055955724,0 72.8197108456956,19.1309113325806,0 72.819817889509,19.1309100924992,0 72.8198296540038,19.1309095677494,0 72.8199305645549,19.130902035604,0 72.8200361367022,19.1308887007665,0 72.8201383285718,19.1308715230942,0 72.82023709878671,19.1308519211508,0 72.82033265185891,19.130831179899,0 72.8203834631574,19.1308198205621,0 72.820426032852,19.1308102784711,0 72.82051852035031,19.1307895470671,0 72.82061100783039,19.1307688156141,0 72.82070349529219,19.1307480841123,0 72.8207959827357,19.1307273525616,0 72.8208884701608,19.130706620962,0 72.8209152166569,19.1307006255679,0 72.820922430026,19.1307278074569,0 72.820982271489,19.1307131167165,0 72.82099705401011,19.1307675132644,0 72.821497383557,19.130644684321,0 72.8214896353762,19.1306165451661,0 72.8215069063718,19.1306044140896,0 72.8215333530663,19.1305767975501,0 72.821955423902,19.1304698692615,0 72.82194545021579,19.1304331690044,0 72.82200766225711,19.1304167177122,0 72.82227326310441,19.1303402500827,0 72.8222735432126,19.1303401709804,0 72.8223628679156,19.1303154677546,0 72.82245184985059,19.1302918775512,0 72.8225414786781,19.1302691351279,0 72.8225778173039,19.1302602047344,0 72.8226306435968,19.1302475087831,0 72.82272154472,19.1302262774397,0 72.82281315233161,19.130205364159,0 72.8228510046491,19.1301967833182,0 72.8229053773977,19.1301844631252,0 72.8229978115349,19.1301635186476,0 72.8230902456536,19.1301425741211,0 72.8231826797538,19.1301216295458,0 72.82327511383539,19.1301006849216,0 72.8233675478984,19.1300797402485,0 72.823459981943,19.1300587955267,0 72.8235524159691,19.1300378507559,0 72.8236448499766,19.1300169059363,0 72.8237372839655,19.1299959610678,0 72.82382971793589,19.1299750161504,0 72.8239221518879,19.1299540711843,0 72.8240145858212,19.1299331261692,0 72.82410701973601,19.1299121811052,0 72.8241994536323,19.1298912359925,0 72.8242918875101,19.1298702908308,0 72.82438432136929,19.1298493456204,0 72.8244767552101,19.129828400361,0 72.8245691890321,19.1298074550528,0 72.82466162283581,19.1297865096957,0 72.8247540566209,19.1297655642898,0 72.8248464903875,19.129744618835,0 72.8249389241355,19.1297236733314,0 72.8250313578649,19.1297027277789,0 72.82512379157591,19.1296817821775,0 72.82521622526831,19.1296608365273,0 72.82530865894221,19.1296398908283,0 72.8254010925975,19.1296189450803,0 72.8254935262343,19.1295979992836,0 72.8255859598526,19.1295770534379,0 72.82567839345231,19.1295561075434,0 72.8257708270334,19.1295351616001,0 72.82586326059609,19.1295142156079,0 72.82595569414021,19.1294932695668,0 72.8260481276658,19.1294723234769,0 72.82614056117291,19.1294513773381,0 72.8262329946613,19.1294304311506,0 72.8263254281313,19.129409484914,0 72.8264178615827,19.1293885386287,0 72.8265102950156,19.1293675922945,0 72.8266027284299,19.1293466459115,0 72.8266951618257,19.1293256994796,0 72.826787595203,19.1293047529988,0 72.8268800285617,19.1292838064692,0 72.8269724619019,19.1292628598908,0 72.8270648952235,19.1292419132635,0 72.8271573285266,19.1292209665874,0 72.8272497618111,19.1292000198623,0 72.82734219507719,19.1291790730884,0 72.8274346283247,19.1291581262657,0 72.8275270615535,19.1291371793941,0 72.82761949476389,19.1291162324738,0 72.8277119279558,19.1290952855044,0 72.8278043611291,19.1290743384863,0 72.8278967942838,19.1290533914193,0 72.82798922742001,19.1290324443035,0 72.82808166053771,19.1290114971388,0 72.8281740936369,19.1289905499253,0 72.8282665267174,19.1289696026628,0 72.82835895977939,19.1289486553517,0 72.8284513928229,19.1289277079915,0 72.8285438258479,19.1289067605826,0 72.8286362588543,19.1288858131248,0 72.8287286918421,19.1288648656181,0 72.8288211248115,19.1288439180627,0 72.82891355776221,19.1288229704583,0 72.8290059906945,19.1288020228052,0 72.8290919216423,19.1287825486194,0 72.8292899012238,19.1287655359054,0 72.82938233409639,19.1287445880549,0 72.8294739869247,19.1287238169316,0 72.82947439246691,19.1287254301041,0 72.8297246230338,19.1286685930605,0 72.8297350004849,19.1287069580712,0 72.8308261618263,19.1284591423602,0 72.8308150783737,19.1284199360495,0 72.8309193882516,19.1283976849029,0 72.8311386458917,19.1283465490491,0 72.8312309876535,19.1283256207867,0 72.8313234201366,19.1283046719104,0 72.8314158526011,19.1282837229853,0 72.83150828504709,19.1282627740113,0 72.8316007174745,19.1282418249885,0 72.83169314988341,19.1282208759168,0 72.8317855822737,19.1281999267962,0 72.8318780146454,19.1281789776269,0 72.8319704469987,19.1281580284086,0 72.83206287933341,19.1281370791415,0 72.8321553116495,19.1281161298257,0 72.83224774394699,19.1280951804609,0 72.832340176226,19.1280742310473,0 72.8324326084864,19.1280532815849,0 72.8325250407284,19.1280323320736,0 72.8326174729517,19.1280113825135,0 72.83270990515641,19.1279904329044,0 72.83272580175451,19.1279868299606,0 72.8328023886443,19.1279694590586,0 72.83281839863611,19.1279658207936,0 72.8328952471573,19.1279483023362,0 72.8329879750461,19.1279270421429,0 72.8330805247967,19.1279056897054,0 72.8330952439028,19.1279022816395,0 72.83317317767781,19.127884193659,0 72.83318775160291,19.1278808070888,0 72.833265547926,19.1278627288814,0 72.83335785301431,19.1278412790973,0 72.83345015808339,19.1278198292643,0 72.8335424631333,19.1277983793826,0 72.8336347681643,19.1277769294521,0 72.83372707317599,19.1277554794728,0 72.8338193781687,19.1277340294448,0 72.83391168314221,19.127712579368,0 72.8340039880968,19.1276911292424,0 72.83409629303201,19.1276696790681,0 72.8341885979482,19.127648228845,0 72.8342539079178,19.1276330517944,0 72.8342807130398,19.1276268242125,0 72.8343722094271,19.1276056921346,0 72.8344628140614,19.1275852343451,0 72.83455257883691,19.1275657864514,0 72.83464156839079,19.1275476685727,0 72.83473100313471,19.1275309729122,0 72.8347473930984,19.1275281082028,0 72.8348175933487,19.1275165895351,0 72.8348901591098,19.1275060710882,0 72.83501888309741,19.1275007649374,0 72.835085940958,19.1275016049504,0 72.83512202913241,19.1274984392884,0 72.8351732291902,19.1274944735474,0 72.8352636884473,19.1274887652221,0 72.83535471451729,19.1274843753289,0 72.8354469218104,19.1274809489112,0 72.8355402941165,19.1274781582054,0 72.8356271619035,19.1274758609467,0 72.8356271665193,19.1274758608273,0 72.83563464872719,19.1274756669072,0 72.8357305032349,19.1274731018072,0 72.8358273996125,19.1274700834332,0 72.8359254821254,19.1274661980229,0 72.8360247196335,19.1274610217301,0 72.83612408639689,19.1274541841003,0 72.83616776657971,19.1274505575915,0 72.8362267365326,19.1274450036706,0 72.8363270641003,19.1274337630012,0 72.83642624906351,19.1274203946115,0 72.83643659359061,19.1274188733272,0 72.8365275535644,19.1274045074173,0 72.8366257518387,19.1273871951333,0 72.8367225810812,19.1273686641102,0 72.8368179971979,19.1273493617803,0 72.8369120771619,19.1273296991874,0 72.8369657094263,19.1273183610961,0 72.8369868165324,19.1273138940078,0 72.8370046384257,19.1273944225102,0 72.8371779060671,19.1273547573604,0 72.83722030818301,19.12753470153,0 72.83762174851989,19.1274467304611,0 72.8375779872413,19.1272663243626,0 72.83759905989599,19.1272617362452,0 72.8375893990132,19.1272267491321,0 72.8382307121791,19.1270834172673,0 72.83822226675081,19.1270464716062,0 72.83847303364981,19.1269903471074,0 72.8384720649705,19.1269864677909,0 72.8384845867014,19.1269829987736,0 72.8385377844342,19.1269706813098,0 72.83878406544891,19.1269115218729,0 72.8392387603043,19.1268202434688,0 72.8396066379423,19.1267349024876,0 72.83969444660261,19.1267132796597,0 72.8396988154898,19.1267122038126,0 72.8397920090177,19.1266891360896,0 72.8398868870084,19.1266649857828,0 72.8399834043981,19.1266390860539,0 72.8400813337648,19.1266107756911,0 72.8401789145954,19.1265798379447,0 72.840199122199,19.1265729289033,0 72.84028083148699,19.1265439235945,0 72.8403779955771,19.1265058239859,0 72.8404748183474,19.1264638880235,0 72.84056997616681,19.1264186399542,0 72.8406633436723,19.1263701393887,0 72.84075479785911,19.1263184502231,0 72.8408442182445,19.1262636405535,0 72.84093148702431,19.1262057825879,0 72.8410164892297,19.1261449525495,0 72.84109911287879,19.1260812305773,0 72.8411792491228,19.1260147006199,0 72.84125679239079,19.1259454503253,0 72.8413316405281,19.1258735709256,0 72.8414036949309,19.1257991571159,0 72.8414728606768,19.1257223069302,0 72.84153904664871,19.1256431216128,0 72.8416021656559,19.1255617054834,0 72.8416621345486,19.1254781658009,0 72.841718874327,19.1253926126217,0 72.84177104872479,19.1253072232792,0 72.84177930969381,19.1252930489742,0 72.8418220386355,19.1252166463711,0 72.8418678772711,19.1251287392126,0 72.8419107556319,19.1250413244628,0 72.8419511973454,19.1249550149812,0 72.841989839779,19.1248701184773,0 72.8420131777698,19.1248182808262,0 72.8420134773331,19.1248176147122,0 72.8420271029263,19.1247873443648,0 72.8420633385259,19.1247081654049,0 72.8420993442501,19.1246337261935,0 72.84213599860919,19.1245645517137,0 72.8421753776617,19.1244987528382,0 72.8421937556148,19.1244711704369,0 72.84221520022891,19.1244414481689,0 72.8422160929491,19.1244402738648,0 72.8422580318537,19.1243896401123,0 72.84227931335551,19.1243667470978,0 72.8423032523294,19.1243430419968,0 72.8423281995052,19.1243202954844,0 72.8423538342517,19.1242987797489,0 72.8423847287209,19.1242750458922,0 72.84240672311761,19.12425951396,0 72.8424710241037,19.1242189221355,0 72.8425387397342,19.1241816073855,0 72.8426123646702,19.1241452164581,0 72.84269137883931,19.124109060833,0 72.8427749617682,19.124072355125,0 72.84277949493411,19.1240703797561,0 72.8428609170424,19.1240349000623,0 72.842947294639,19.1239972609555,0 72.84303367219989,19.123959621804,0 72.8431200497251,19.1239219826081,0 72.8432064272147,19.1238843433674,0 72.84329280466849,19.1238467040823,0 72.84337918208669,19.1238090647525,0 72.8434645462191,19.1237718669072,0 72.8438516516628,19.1235772325205,0 72.8439998120851,19.1235070120624,0 72.8440479910624,19.1234841776525,0 72.8440701702003,19.1234732310176,0 72.8441554844571,19.1234304277524,0 72.8442296726527,19.1233929268626,0 72.8442399006081,19.1233877510665,0 72.844323775845,19.1233453062423,0 72.84440765104191,19.1233028613755,0 72.84449152619889,19.1232604164659,0 72.84457540131601,19.1232179715137,0 72.8446592763931,19.1231755265189,0 72.84474315143029,19.1231330814812,0 72.84478116444851,19.1231138449378,0 72.8448273298166,19.1230904724747,0 72.8449121105929,19.1230473428181,0 72.8449971947129,19.1230034608746,0 72.845036426837,19.122982918769,0 72.8450836114215,19.1229578943843,0 72.8451687108833,19.1229118457924,0 72.8452532369235,19.1228649178372,0 72.8452961831394,19.1228406146258,0 72.8453379924574,19.1228166629422,0 72.84542056916401,19.1227686614107,0 72.84550228678189,19.1227205624025,0 72.8455432507795,19.1226963503095,0 72.8455832482221,19.1226727012052,0 72.84566393288711,19.1226249950972,0 72.8457446175082,19.1225772889489,0 72.8458253020853,19.1225295827606,0 72.84590598661841,19.1224818765321,0 72.8459866711074,19.1224341702633,0 72.84606735555241,19.1223864639543,0 72.84614803995341,19.1223387576052,0 72.8461849311115,19.1223169449097,0 72.8462287710567,19.1222910178916,0 72.8462657920383,19.1222690985082,0 72.8463099282209,19.1222429122398,0 72.8463908994836,19.1221947060623,0 72.8464718131923,19.1221463196504,0 72.8465441409885,19.1221028852907,0 72.84655265439341,19.1220977616432,0 72.8466247640646,19.1220543019387,0 72.8466330955215,19.1220492776844,0 72.846713330778,19.1220008919801,0 72.8467935659899,19.1219525062359,0 72.8468738011573,19.1219041204518,0 72.8469540362803,19.1218557346279,0 72.84703427135869,19.1218073487642,0 72.8471145063926,19.1217589628606,0 72.8471947413821,19.1217105769172,0 72.847274976327,19.121662190934,0 72.8473552112274,19.1216138049109,0 72.8474354460834,19.121565418848,0 72.8475156808949,19.1215170327452,0 72.8475959156618,19.1214686466026,0 72.8476761503842,19.1214202604202,0 72.8477563850622,19.1213718741979,0 72.8478366196956,19.1213234879358,0 72.84791685428461,19.1212751016338,0 72.8479970888291,19.121226715292,0 72.84807732332909,19.1211783289104,0 72.8481215832655,19.1211516373937,0 72.84815777283239,19.1211298074125,0 72.8481906473869,19.1211099101032,0 72.848318507527,19.1213029199975,0 72.8488161277277,19.1209969356501,0 72.84876518692281,19.1209220877859,0 72.84877860349469,19.1209137821904,0 72.8486971026816,19.120793361943,0 72.84872135545039,19.1207777133653,0 72.848736295188,19.1207680123681,0 72.848800819806,19.1207259220337,0 72.84885445900289,19.1206907958042,0 72.8488793465078,19.120674488912,0 72.84895758027921,19.1206232281877,0 72.8490358140042,19.1205719674252,0 72.8491140476828,19.1205207066243,0 72.8491922813149,19.1204694457852,0 72.8492716005936,19.1204197505417,0 72.849350919827,19.120370055259,0 72.84943023901501,19.1203203599373,0 72.8495458746286,19.1202479114066,0 72.849562916867,19.1202372340166,0 72.8495781052733,19.1202277180964,0 72.8497001266861,19.120151268509,0 72.8498207375073,19.1200797527591,0 72.8498279970224,19.1200750261408,0 72.84990575534491,19.120024618804,0 72.8499835357363,19.1199745972683,0 72.85004762256391,19.1199336809737,0 72.8500613150262,19.1199249736866,0 72.8501401155402,19.1198750280449,0 72.8501653345788,19.1198590746204,0 72.85021903272499,19.1198251083417,0 72.85029813795541,19.1197750709835,0 72.8503772431402,19.1197250335863,0 72.8504563482793,19.1196749961502,0 72.8505354533728,19.119624958675,0 72.8506145584207,19.119574921161,0 72.850693663423,19.119524883608,0 72.8507727683797,19.119474846016,0 72.85085187329069,19.1194248083851,0 72.8509309781562,19.1193747707152,0 72.8510100829759,19.1193247330064,0 72.85108918775011,19.1192746952586,0 72.8511682924786,19.1192246574719,0 72.8512473971616,19.1191746196462,0 72.85132650179921,19.1191245817813,0 72.8513608102345,19.11910287986,0 72.85140534044849,19.1190747229773,0 72.8514788172234,19.1190284361201,0 72.8514834508572,19.1190255299093,0 72.8515618951228,19.1189766144737,0 72.8516402886205,19.1189282618125,0 72.85171893544001,19.1188802822914,0 72.851797833617,19.1188326771086,0 72.851876981179,19.1187854474545,0 72.8519566168508,19.1187384524643,0 72.8519783148091,19.1187257390028,0 72.852036312971,19.1186919240587,0 72.85209905817089,19.1186554969613,0 72.8521170636551,19.1186450516633,0 72.85219817091669,19.1185979998072,0 72.8522792781349,19.1185509479107,0 72.8523603853095,19.1185038959737,0 72.85244149244051,19.1184568439961,0 72.8525225995281,19.1184097919781,0 72.8526037065721,19.1183627399196,0 72.85268481357259,19.1183156878206,0 72.85276592052951,19.118268635681,0 72.85284702744291,19.118221583501,0 72.85292813431281,19.1181745312805,0 72.85300924113911,19.1181274790195,0 72.85309034792201,19.118080426718,0 72.8531366278704,19.1180535784024,0 72.8531715121823,19.1180333374944,0 72.8532180379505,19.1180063057482,0 72.8532532195221,19.1179858137737,0 72.8533347211702,19.1179381513947,0 72.8534161922465,19.1178902395317,0 72.85349753701181,19.1178421341748,0 72.8535786887239,19.1177938750126,0 72.8536274931158,19.1177647226994,0 72.85365973988741,19.1177454100602,0 72.8537082088416,19.1177163390368,0 72.85374026947881,19.1176971030301,0 72.8538206203406,19.1176488934001,0 72.853900971158,19.1176006837302,0 72.853981321931,19.1175524740204,0 72.8540616726597,19.1175042642707,0 72.8541420233439,19.1174560544811,0 72.8542223739838,19.1174078446516,0 72.8543027245795,19.1173596347821,0 72.8543830751306,19.1173114248728,0 72.85446342563741,19.1172632149235,0 72.8545437760999,19.1172150049344,0 72.854624126518,19.1171667949053,0 72.8547044768917,19.1171185848364,0 72.8547848272211,19.1170703747275,0 72.854865177506,19.1170221645787,0 72.85494552774659,19.1169739543901,0 72.85502587794289,19.1169257441614,0 72.8551062280948,19.1168775338929,0 72.85518657820229,19.1168293235846,0 72.85526692826549,19.1167811132363,0 72.8553472782842,19.1167329028481,0 72.8554276282586,19.11668469242,0 72.8555079781886,19.116636481952,0 72.8555883280744,19.1165882714441,0 72.8556686779157,19.1165400608963,0 72.85574902771261,19.1164918503086,0 72.8557802415088,19.1164731217372,0 72.8557817998514,19.1164754685222,0 72.8559050072339,19.1164015476031,0 72.8559470293352,19.1164648318826,0 72.8566600780039,19.1160370228523,0 72.8566400635419,19.1160068826715,0 72.8570384947907,19.115766764871,0 72.85701344424901,19.115726370236,0 72.85705371170801,19.1157095191974,0 72.85713871514081,19.1156739471041,0 72.8572386596351,19.1156321224279,0 72.8575532016866,19.1155004926593,0 72.8577510833413,19.1154318007782,0 72.85783309322591,19.1154062427562,0 72.8579159012841,19.115382598017,0 72.85799930525531,19.1153609282431,0 72.8580832530179,19.1153412469769,0 72.8581676921102,19.1153235665183,0 72.85825256976339,19.1153078979166,0 72.8583386186039,19.1152941252119,0 72.85839205274201,19.1152866317212,0 72.8584224388897,19.1152827355733,0 72.8585109941759,19.1152726932721,0 72.85859992463639,19.1152642134487,0 72.8586905226345,19.1152568094093,0 72.85878274244,19.115250126022,0 72.858876464139,19.1152437927408,0 72.8588883538542,19.115243001457,0 72.85897106313981,19.1152374979415,0 72.8590658491852,19.1152311907863,0 72.8591606352288,19.1152248835814,0 72.85925542127031,19.1152185763269,0 72.8593502073099,19.1152122690229,0 72.8594449936359,19.1152059616501,0 72.8594485571858,19.1152057244899,0 72.8595408550275,19.1151995145542,0 72.85963809321029,19.1151925271897,0 72.85973696311081,19.1151844939916,0 72.8598356323307,19.1151750754007,0 72.8598424080227,19.1151743671441,0 72.8599383116842,19.1151634188188,0 72.86003912272319,19.1151499970223,0 72.8601396932707,19.1151346519978,0 72.86023992084429,19.1151173981714,0 72.8603397653516,19.1150982424447,0 72.86043918685201,19.11507719248,0 72.8605381455754,19.1150542566974,0 72.8606366019357,19.1150294442715,0 72.8607345165489,19.1150027651272,0 72.8608318502472,19.1149742299367,0 72.86092856409481,19.1149438501141,0 72.8610246194051,19.1149116378117,0 72.8611199777536,19.1148776059149,0 72.8612135960245,19.1148421486626,0 72.8612495456953,19.1148279884621,0 72.8613084439685,19.1148041523309,0 72.8613992910729,19.1147660277728,0 72.8614886604346,19.1147273153122,0 72.8615762196377,19.1146886974669,0 72.8616081855151,19.1146745258703,0 72.8616626705508,19.1146503636248,0 72.8617487783885,19.1146121776988,0 72.8618348861953,19.1145739917262,0 72.8618634469162,19.114561325969,0 72.8619215354302,19.1145355433229,0 72.8620091081368,19.114496380686,0 72.8620970429411,19.1144562962744,0 72.8621274538358,19.1144421755137,0 72.8621870706079,19.1144140297664,0 72.86227541949749,19.1143711479887,0 72.86236349315411,19.114326982713,0 72.86245007341211,19.1142821535171,0 72.862463346418,19.1142751567459,0 72.8625371718618,19.1142356773718,0 72.8626216101552,19.114189602784,0 72.86270467985079,19.1141437437478,0 72.8627159333011,19.1141375159321,0 72.8627869557276,19.114098209885,0 72.8628690696147,19.114052765414,0 72.8629511834595,19.1140073209018,0 72.86303329726201,19.1139618763483,0 72.86311541102221,19.1139164317536,0 72.86319752474,19.1138709871176,0 72.86327963841551,19.1138255424403,0 72.8633617520487,19.1137800977218,0 72.8634438656397,19.1137346529621,0 72.8635259791882,19.1136892081611,0 72.86360809269441,19.1136437633189,0 72.8636902061583,19.1135983184355,0 72.86377231957999,19.1135528735107,0 72.8638454899714,19.1135123779701,0 72.86385426375681,19.1135075222988,0 72.86393544480021,19.1134627104845,0 72.8640154881595,19.1134190889223,0 72.86409466982511,19.1133769851237,0 72.8641655649684,19.1133405625243,0 72.8641716244434,19.1133375186006,0 72.8642513894352,19.1132985187046,0 72.8643305899186,19.1132616796824,0 72.8644105495821,19.1132263535827,0 72.86449123644501,19.1131925545349,0 72.8645726182354,19.1131602960573,0 72.86465466240421,19.1131295910521,0 72.8647374888277,19.1131003979827,0 72.8648139611162,19.1130750085853,0 72.86481931344321,19.1130732884136,0 72.86490565502341,19.1130464385575,0 72.8649924540526,19.1130207668059,0 72.8650811551065,19.1129954106423,0 72.8651627927355,19.1129724504429,0 72.8651713143101,19.1129700598535,0 72.8652624453305,19.1129444939099,0 72.86535357632739,19.1129189279183,0 72.8654447073005,19.1128933618789,0 72.8655358382501,19.1128677957913,0 72.86562696917611,19.1128422296559,0 72.8657181000785,19.1128166634725,0 72.8658102818159,19.1127908024286,0 72.8659012389558,19.1127614662021,0 72.8660796902667,19.1127000544335,0 72.8661688285336,19.1126693785381,0 72.8662685116534,19.1126350736877,0 72.8663240195861,19.1126159712119,0 72.8663472009834,19.1126079935695,0 72.8664134918775,19.1125852270612,0 72.86643719392571,19.1125775085045,0 72.8665666780948,19.1125418032329,0 72.8666358580022,19.1125216475634,0 72.86681641524601,19.1124690417903,0 72.86690663035471,19.1124427573272,0 72.86693326029049,19.1125249549278,0 72.86774177902321,19.1122881054759,0 72.8677307376044,19.1122540488531,0 72.86818357934941,19.1121204527452,0 72.8681743521707,19.1120901152314,0 72.8682509361423,19.1120701572003,0 72.868253428036,19.1120695088937,0 72.86834507392351,19.1120456649414,0 72.8684348259313,19.1120223136765,0 72.8685242828393,19.1120036985658,0 72.86858295092171,19.1119933181422,0 72.8687346678287,19.111967316816,0 72.8691334084868,19.1118973584426,0 72.8691993503946,19.1118889503864,0 72.8692790907307,19.1118682034889,0 72.86949145282129,19.1118129507694,0 72.86955402770811,19.1117966698767,0 72.8696456733238,19.1117728252428,0 72.8697373189176,19.1117489805606,0 72.8698289644915,19.1117251358296,0 72.8698688932044,19.11171474699,0 72.8699209877727,19.1117011833459,0 72.8700073543142,19.1116785444917,0 72.8700141223491,19.1116767564673,0 72.8701070026205,19.1116519653968,0 72.8701999409558,19.1116266815494,0 72.87024482702201,19.11161429933,0 72.87029306952159,19.1116008742893,0 72.8703828092542,19.1115757097339,0 72.87038477409661,19.1115751577088,0 72.8704758935414,19.1115495559996,0 72.8705670129626,19.1115239542424,0 72.87065813236011,19.1114983524372,0 72.870749251734,19.1114727505841,0 72.8708403710842,19.1114471486831,0 72.8709314904108,19.1114215467342,0 72.87102260971361,19.1113959447372,0 72.8711137289928,19.1113703426924,0 72.8712048482483,19.1113447405996,0 72.87129596748029,19.1113191384589,0 72.8713870866885,19.1112935362702,0 72.871478205873,19.1112679340336,0 72.8715693250338,19.111242331749,0 72.8716604441711,19.1112167294166,0 72.8717515632846,19.1111911270361,0 72.8718426823751,19.1111655246076,0 72.8718959029778,19.1111505707811,0 72.8719341722591,19.1111398131839,0 72.87202664215189,19.1111136472871,0 72.87211998652479,19.1110866629338,0 72.8721753969988,19.1110702112005,0 72.8722157549755,19.1110579749677,0 72.8723098729178,19.1110285641985,0 72.8724040782316,19.1109978805542,0 72.8724828737751,19.1109712472027,0 72.8724989678939,19.1109656996346,0 72.8725905605271,19.1109335189017,0 72.8726814062305,19.1109008439768,0 72.8727570452203,19.1108733549389,0 72.8727709420123,19.1108682970346,0 72.87285967622709,19.1108360009291,0 72.8729484104114,19.1108037047774,0 72.873037144565,19.1107714085794,0 72.8731258786881,19.1107391123352,0 72.8732146127806,19.1107068160448,0 72.8733033468426,19.110674519708,0 72.8733920808738,19.110642223325,0 72.8734808148746,19.1106099268957,0 72.8734811156823,19.1106098174109,0 72.8735029648994,19.1106640602884,0 72.87440511892351,19.1103357744199,0 72.8743982492534,19.1103161989076,0 72.87486738373301,19.1101419760813,0 72.87485448213469,19.1101099472168,0 72.87490055472659,19.1100931777357,0 72.8749892882074,19.1100608805199,0 72.8750780216575,19.1100285832579,0 72.8751667550771,19.1099962859497,0 72.8752554884661,19.1099639885953,0 72.87534422182451,19.1099316911945,0 72.87543295515231,19.1098993937475,0 72.8755216884496,19.1098670962543,0 72.8756104217161,19.1098347987147,0 72.8756991549522,19.1098025011291,0 72.8757870661774,19.1097682330012,0 72.8758753853012,19.1097349427412,0 72.8759637043934,19.1097016524352,0 72.87605202345409,19.1096683620834,0 72.87614034280981,19.1096350715624,0 72.8761626649752,19.109626657582,0 72.8762313920282,19.1096007520044,0 72.8762313920282,19.1096007520044,0 72.87631873169291,19.1095678306458,0 72.87640816793601,19.1095341189554,0 72.87647959093739,19.1095071970517,0 72.8764977357373,19.1095003576166,0 72.87656860648001,19.1094736438321,0 72.8766305696109,19.1094502876231,0 72.87667824158019,19.109432318265,0 72.87676305705161,19.1094003480825,0 72.8768513819727,19.1093670549981,0 72.8769397068621,19.1093337618677,0 72.87702803172,19.1093004686914,0 72.8771163565464,19.109267175469,0 72.8772046813411,19.1092338822007,0 72.8772930061042,19.1092005888866,0 72.8773813308358,19.1091672955264,0 72.87747291299721,19.1091327742408,0 72.8775631407289,19.1090987634377,0 72.8776460944782,19.1090674944654,0 72.8777416650295,19.1090314695937,0 72.87792760304789,19.1089610939537,0 72.8780326026352,19.1089212276472,0 72.87818462106741,19.1088644985057,0 72.87828942409411,19.1088267912312,0 72.8783482612849,19.1088017715025,0 72.8784187903529,19.1087750807638,0 72.87850194518801,19.1087483124499,0 72.8786000313916,19.1087064614841,0 72.878842890817,19.1086146029317,0 72.8788843202283,19.1087136400501,0 72.8796576462386,19.1084214731643,0 72.87965262097779,19.1084021178643,0 72.8801783607438,19.1082034878946,0 72.8801626986573,19.1081631840272,0 72.88015208351629,19.1081380981442,0 72.8802248880661,19.1081125331122,0 72.8803139898627,19.1080812453143,0 72.8804072193638,19.108048508026,0 72.8804800454888,19.1080229352848,0 72.8806756580353,19.1079542461612,0 72.8807742576147,19.1079263514421,0 72.8808407116546,19.1079078231428,0 72.8809218561579,19.1078851989013,0 72.88096921216621,19.1078719953528,0 72.88100854508789,19.1078625274768,0 72.8810870121834,19.1078428883212,0 72.8811715725011,19.1078262166052,0 72.8812273054386,19.1078169213521,0 72.88125346524031,19.1078130283386,0 72.8813410080862,19.1078018892656,0 72.8814289680283,19.1077930756055,0 72.88151889215411,19.1077859030292,0 72.88161070482489,19.1077798593424,0 72.8817042695829,19.1077744006829,0 72.88171963437431,19.1077735297405,0 72.88179887756949,19.1077690401698,0 72.8818937242575,19.1077636665283,0 72.8819885709446,19.1077582928373,0 72.8820834176309,19.1077529190967,0 72.8821782643162,19.1077475453066,0 72.8822731110005,19.1077421714671,0 72.8823679576839,19.107736797578,0 72.8824170504858,19.1077340160226,0 72.8824632569717,19.1077313876285,0 72.88255966867421,19.1077256325982,0 72.8826576275093,19.1077189446607,0 72.8827570750899,19.1077107236804,0 72.8828579201755,19.1077003444347,0 72.8829577429196,19.1076874538836,0 72.88296366067191,19.1076865984365,0 72.8830622293941,19.1076707477468,0 72.883163987478,19.1076510766891,0 72.88326503692279,19.1076281842434,0 72.8833652276132,19.1076021031598,0 72.88346444823161,19.1075728624151,0 72.8835625885369,19.1075404944975,0 72.8836595394896,19.1075050353693,0 72.8837551933715,19.1074665244272,0 72.88384944390501,19.1074250044591,0 72.8839421863733,19.1073805215956,0 72.88403331773399,19.1073331252596,0 72.8841227367359,19.107282868111,0 72.88421034403,19.107229805988,0 72.8842960422808,19.1071739978454,0 72.8843797362742,19.1071155056892,0 72.8844613330227,19.107054394507,0 72.8845407418697,19.1069907321967,0 72.88461787458991,19.1069245894902,0 72.8846799088972,19.1068677167288,0 72.884897498051,19.1066600205999,0 72.8850323990211,19.1065024706618,0 72.885092575567,19.1064312263261,0 72.88509859606189,19.1064240790537,0 72.8851520795141,19.1063605844635,0 72.8852114669657,19.1062900806699,0 72.8852708543659,19.1062195768519,0 72.8853302417145,19.1061490730093,0 72.8853896290117,19.1060785691422,0 72.8854490162572,19.1060080652506,0 72.8855084034513,19.1059375613344,0 72.885563800239,19.1058717947138,0 72.8855677691068,19.1058670829097,0 72.8856230984392,19.1058014563597,0 72.8856268700406,19.1057969910776,0 72.885686123668,19.1057270288679,0 72.8857454598147,19.1056573265943,0 72.8858050712569,19.1055876577462,0 72.8858139736444,19.1055772838518,0 72.8858648765065,19.1055180823365,0 72.88587390490351,19.1055075923253,0 72.88592497989021,19.1054482496901,0 72.88598514550399,19.1053783448243,0 72.8860453110661,19.1053084399334,0 72.8861054765766,19.1052385350176,0 72.88616564203549,19.1051686300767,0 72.8862258074427,19.1050987251107,0 72.88628597279821,19.1050288201197,0 72.8863461381022,19.1049589151037,0 72.8863927067106,19.104904807792,0 72.8864061053545,19.1048892420813,0 72.88646546487939,19.1048205845929,0 72.8865242249213,19.1047538425042,0 72.8865828022323,19.1046894549858,0 72.88664608594451,19.1046336562814,0 72.8867158330541,19.104585401237,0 72.8867319109028,19.1045742776523,0 72.88678118473381,19.1045401871502,0 72.8868493778072,19.1044930071683,0 72.88691780263861,19.1044456667871,0 72.8869667803138,19.1044117810749,0 72.8869837629439,19.1044000314597,0 72.8870545611973,19.1043510488898,0 72.8871186583449,19.1043067025042,0 72.88714106862,19.1042911976733,0 72.8871537471925,19.1042824258407,0 72.8871902478826,19.1042571723606,0 72.88727587577161,19.1041977935348,0 72.8873551024064,19.1041502154602,0 72.88737229438441,19.104139939368,0 72.88743531492899,19.1041022750686,0 72.8875157518322,19.1040542018032,0 72.88753014668851,19.1040455986834,0 72.8875609287357,19.1040914495923,0 72.8881276561342,19.1037484498679,0 72.8881175365277,19.1037257606798,0 72.8885412738414,19.1034691061756,0 72.88851508570561,19.1034320173827,0 72.8885616583858,19.1033997947316,0 72.888638713592,19.10334648181,0 72.88871620760401,19.1032928652166,0 72.8888208387994,19.103220472823,0 72.8889023117015,19.1031641031354,0 72.88893601234361,19.1031407862227,0 72.88904979222841,19.1030620637171,0 72.8891202654998,19.1029957383609,0 72.8891913946017,19.1029334701906,0 72.889232487662,19.1028974962757,0 72.88930268514039,19.1028360435487,0 72.8893728825671,19.1027745907896,0 72.8894470373458,19.1027096735718,0 72.8895166236816,19.1026487556216,0 72.8895834100676,19.1025902887594,0 72.8895834743862,19.1025902324528,0 72.8896552882386,19.1025273643134,0 72.8897238094239,19.1024673786044,0 72.8897894639826,19.1024099023663,0 72.8897912131503,19.1024083710842,0 72.88985928620051,19.1023487775429,0 72.88992688851199,19.1022895960309,0 72.88998877380919,19.1022354193375,0 72.8900537942931,19.1021819342036,0 72.8901265580259,19.1021210685113,0 72.8901981042451,19.1020607037354,0 72.89020007651619,19.102059037295,0 72.8902692876342,19.1020005545357,0 72.8903403008716,19.1019405489274,0 72.8904113140584,19.1018805432865,0 72.89048232719451,19.1018205376127,0 72.89055334027999,19.1017605319064,0 72.89062435331481,19.1017005261673,0 72.8906953662989,19.1016405203955,0 72.89072938878471,19.1016117714639,0 72.8907667888398,19.1015801510399,0 72.8908389853041,19.1015187247512,0 72.890911946714,19.1014554864915,0 72.8909852253187,19.1013899965148,0 72.89105829634011,19.1013218420142,0 72.8911299387145,19.1012513017003,0 72.8912010316544,19.1011765571507,0 72.891268910313,19.1011002251034,0 72.8913338821862,19.1010220171895,0 72.89138779644119,19.1009527713897,0 72.89139758470761,19.1009397517444,0 72.8914552622356,19.1008601574544,0 72.8915436913861,19.1007309173431,0 72.8916474494802,19.1005293442737,0 72.8916957846025,19.1004510802399,0 72.89174388821149,19.100373190969,0 72.89179199177301,19.1002953016806,0 72.8918400952869,19.1002174123747,0 72.89188819875319,19.1001395230512,0 72.8919363021718,19.1000616337103,0 72.8919844055428,19.0999837443518,0 72.89203250886629,19.0999058549758,0 72.8920806121421,19.0998279655824,0 72.89212871537021,19.0997500761714,0 72.89217681855089,19.0996721867428,0 72.89222492168391,19.0995942972968,0 72.8922730247693,19.0995164078332,0 72.8923211278069,19.0994385183522,0 72.8923692307971,19.0993606288536,0 72.8924173337397,19.0992827393375,0 72.8924654366346,19.0992048498039,0 72.8925135394819,19.0991269602528,0 72.89256164228161,19.0990490706842,0 72.8926097450337,19.098971181098,0 72.89265784773821,19.0988932914944,0 72.8927059503951,19.0988154018732,0 72.8927540530044,19.0987375122345,0 72.8928021555661,19.0986596225783,0 72.8928502580802,19.0985817329046,0 72.8928817491835,19.0985307410948,0 72.8928982257289,19.0985040670363,0 72.89294590932759,19.0984271751863,0 72.8929934329088,19.0983516014473,0 72.893041124386,19.0982775642934,0 72.8930893008552,19.0982052660118,0 72.8931391202853,19.0981336702316,0 72.8931453254219,19.0981250052561,0 72.8931884413005,19.0980663838606,0 72.89324061006771,19.0979988270611,0 72.8933014944239,19.0979135872822,0 72.8934102210651,19.0977471363729,0 72.89343791791509,19.0977179065338,0 72.8934990031307,19.0976565943117,0 72.89356168142309,19.0975967528368,0 72.8936259136206,19.0975384195063,0 72.893691659581,19.0974816307748,0 72.89375887821549,19.0974264221324,0 72.89382785286369,19.0973725740837,0 72.89387888617971,19.0973344563638,0 72.8938968184473,19.0973214021948,0 72.8939697408676,19.0972698851812,0 72.8940436662858,19.0972197264166,0 72.89411928158521,19.0971699963131,0 72.8941963527286,19.0971203978959,0 72.8942746144255,19.097070636246,0 72.8942924463304,19.0970593312162,0 72.89435351366529,19.0970206191467,0 72.89443256037011,19.0969705094568,0 72.89447045033501,19.0969464900332,0 72.8945043768954,19.0969948613179,0 72.8951017805902,19.0966161867629,0 72.8950896429573,19.0966037657698,0 72.8954703886776,19.0963624215749,0 72.89542895961181,19.0963041854339,0 72.89550007920209,19.0962598458399,0 72.8971051712951,19.0952591349029,0 72.89721529072111,19.0951888833587,0 72.8972786496503,19.0951484540456,0 72.897434221086,19.0950491837749,0 72.89749503629341,19.0950103774656,0 72.89758474327221,19.0949531351837,0 72.8977104642543,19.0948793029141,0 72.8977676145894,19.0948434285794,0 72.8978468793091,19.0947936725736,0 72.8979472665724,19.0947306574397,0 72.8980265357318,19.0946808984943,0 72.89808463215191,19.0946444300869,0 72.89818507391421,19.0945813804866,0 72.89824317026771,19.0945449120222,0 72.8983436119151,19.0944818623233,0 72.8984207624339,19.0944334329664,0 72.898500031322,19.0943836737884,0 72.8985814185758,19.0943325847861,0 72.89863951476301,19.094296116179,0 72.89871878352589,19.0942463568935,0 72.89879805224329,19.0941965975692,0 72.8988792143637,19.0941456496298,0 72.8989089939578,19.0941269560522,0 72.8989572352868,19.0940966734491,0 72.8990382514811,19.0940458169736,0 72.8991055314647,19.0940058132534,0 72.8991738018657,19.0939713470067,0 72.8992636216268,19.093926001523,0 72.8993344334592,19.0938902521366,0 72.899357181559,19.0938787677385,0 72.8994476444213,19.0938330974375,0 72.89953090243949,19.0937910644476,0 72.8995573348103,19.0937803836488,0 72.8996108340888,19.0937618779217,0 72.899678845892,19.0937383521941,0 72.89977417071761,19.0937053786582,0 72.8998681182684,19.0936728814682,0 72.8999641742675,19.0936396548847,0 72.900059658627,19.093607574142,0 72.9001835977665,19.0935688188594,0 72.90024923392021,19.0935483097794,0 72.90031151076219,19.0935288503437,0 72.9004711120345,19.0934776163694,0 72.90055298487729,19.0934546120654,0 72.9006315267554,19.0934288556038,0 72.90066659344831,19.0934178983438,0 72.9007013717773,19.0934070311805,0 72.9007520502844,19.0933911956834,0 72.9007770968113,19.0933833693965,0 72.9008090202601,19.0933733942721,0 72.9008468555935,19.0933615718513,0 72.9008789989452,19.0933457800152,0 72.9009043525416,19.0933328206794,0 72.90094994556151,19.0933095160718,0 72.9009749293422,19.0932967457493,0 72.90112407595819,19.0932205101578,0 72.9012284702695,19.0933609982734,0 72.90177386939151,19.0930315477896,0 72.90172946331241,19.0929620606925,0 72.9018658127292,19.092879697814,0 72.9019102188503,19.0929491848821,0 72.90212990593,19.0928164808586,0 72.90238343067961,19.0926633362553,0 72.902339637924,19.0925948093115,0 72.90282581359379,19.0923052138217,0 72.9027987262857,19.092262827754,0 72.9028693445122,19.0922289022974,0 72.9029101034815,19.0922086592936,0 72.9029580527973,19.0921842121355,0 72.9029964197445,19.0921655527228,0 72.9030139348845,19.0921577899729,0 72.9030840521079,19.0921296709259,0 72.90327260878659,19.0920543427189,0 72.9033487567268,19.0920239906364,0 72.90342490464199,19.0919936385197,0 72.9035205809837,19.0919555024228,0 72.90367930668,19.091892235024,0 72.9037423560569,19.0918671037528,0 72.9038264567312,19.0918320340134,0 72.90393374841091,19.0917872936111,0 72.90410009344821,19.0917179279062,0 72.9041591468423,19.0916933026511,0 72.9041591468423,19.0916933026511,0 72.9042811499673,19.0916504848432,0 72.90429639956911,19.0916451328866,0 72.9043134154449,19.0916391610415,0 72.90433553600749,19.0916313976666,0 72.9043800036871,19.0916157913949,0 72.90442447135941,19.0916001851118,0 72.9044689390242,19.0915845788171,0 72.9045130754851,19.0915690887472,0 72.9045572119387,19.0915535986658,0 72.90460201077821,19.0915378761001,0 72.90464680961,19.0915221535225,0 72.9047357448588,19.0914909408059,0 72.9048009663466,19.0914680506353,0 72.9048661878185,19.0914451604398,0 72.9049164988334,19.0914358287964,0 72.904966809844,19.0914264971389,0 72.9050415825761,19.0914126283071,0 72.9051428910752,19.0913938375734,0 72.9052660192786,19.0913709996314,0 72.9053379925363,19.0913679481192,0 72.90537056571971,19.0913665670766,0 72.90544078464841,19.0913635899042,0 72.9055321596028,19.0913597157092,0 72.90560399585161,19.0913566699011,0 72.905633614297,19.0913554140909,0 72.9069037147858,19.0914846102227,0 72.90693701444199,19.0914814570859,0 72.9071270761457,19.0914345737207,0 72.9072211478158,19.0914001581503,0 72.90734476517829,19.091346983619,0 72.90740647080619,19.0913103748709,0 72.9074634758494,19.0912765548537,0 72.907504690838,19.0912471115225,0 72.9075530515955,19.0912094320267,0 72.9075984130325,19.0911714587666,0 72.90766976506571,19.0910924336564,0 72.90772194911961,19.0910284234747,0 72.9077707027984,19.0909620137686,0 72.9078159042445,19.0908933705308,0 72.9078574404804,19.0908226653363,0 72.90789520768951,19.0907500749143,0 72.9079795358485,19.0905652843798,0 72.9079721665854,19.0905156490153,0 72.90796592927011,19.0904658736213,0 72.907960826825,19.0904159815262,0 72.9079568616403,19.0903659961131,0 72.9079540355734,19.090315940809,0 72.90795234994791,19.0902658390735,0 72.9079518055526,19.090215714388,0 72.9079524026416,19.0901655902444,0 72.90795414093419,19.0901154901348,0 72.9079570196144,19.0900654375395,0 72.9079610373324,19.0900154559168,0 72.9079661922039,19.0899655686917,0 72.9079701706283,19.0899294813558,0 72.90797382103889,19.089893362697,0 72.90797714316329,19.0898572154099,0 72.90798013675391,19.0898210421916,0 72.90798280158759,19.0897848457406,0 72.9079851374658,19.0897486287575,0 72.9079871442144,19.0897123939441,0 72.907988821684,19.0896761440037,0 72.9079901697498,19.089639881641,0 72.9079911883111,19.0896036095612,0 72.9079918772923,19.0895673304703,0 72.9079922366422,19.0895310470751,0 72.90799256168501,19.0895167237267,0 72.9079933828717,19.0895024183324,0 72.90799469931071,19.0894881464207,0 72.9079965095728,19.089473923484,0 72.90799881169301,19.0894597649617,0 72.908001603172,19.0894456862231,0 72.9080048809795,19.0894317025507,0 72.9080086415574,19.089417829124,0 72.90801288082341,19.089404081003,0 72.90801759417541,19.0893904731113,0 72.90802277649701,19.0893770202206,0 72.9080284221627,19.0893637369342,0 72.90804586166919,19.0893229348827,0 72.90806204794021,19.0892816687287,0 72.9080769673332,19.0892399732545,0 72.90809060727401,19.0891978836046,0 72.9081029562667,19.0891554352557,0 72.90811400390341,19.0891126639867,0 72.90812374087329,19.0890696058485,0 72.9081321589702,19.0890262971343,0 72.9081392510999,19.0889827743479,0 72.9081450112853,19.0889390741738,0 72.9081494346726,19.088895233446,0 72.90815251753431,19.0888512891168,0 72.90815747120639,19.0887537618768,0 72.90816163919619,19.0886562014326,0 72.9081650212607,19.0885586135049,0 72.90816761720291,19.088461003816,0 72.90816942687189,19.0883633780895,0 72.9081704501631,19.08826574205,0 72.9081706870179,19.0881681014225,0 72.9081701374237,19.0880704619324,0 72.90816880141411,19.0879728293051,0 72.9081666790689,19.0878752092653,0 72.9081637705138,19.0877776075373,0 72.9081600759209,19.0876800298441,0 72.90815739361101,19.0876085479128,0 72.90815533550619,19.0875370472764,0 72.9081539017474,19.0874655328612,0 72.9081530924326,19.0873940095948,0 72.9081529076169,19.0873224824052,0 72.90815334731209,19.0872509562208,0 72.908154411487,19.0871794359699,0 72.9081561000677,19.0871079265803,0 72.9081584129369,19.087036432979,0 72.9081613499345,19.0869649600923,0 72.9081649108573,19.0868935128444,0 72.9081690954592,19.0868220961584,0 72.9081688971452,19.0867953318523,0 72.90816911469869,19.0867685676813,0 72.9081697480721,19.0867418094855,0 72.9081707971269,19.086715063104,0 72.90817226163399,19.0866883343727,0 72.90817414127361,19.0866616291245,0 72.9081764356354,19.0866349531864,0 72.90817914421859,19.0866083123795,0 72.90818226643179,19.0865817125171,0 72.9081858015936,19.0865551594034,0 72.9081897489325,19.0865286588327,0 72.9081941075868,19.0865022165875,0 72.9082628775448,19.0865430203702,0 72.9085510946435,19.0861039649541,0 72.9076547545632,19.0855721303437,0 72.9073665363164,19.0860111842424,0 72.9077026249999,19.0862106003543,0 72.90770420378119,19.0862593078696,0 72.9077053788602,19.0863080256989,0 72.90770615016361,19.0863567508178,0 72.90770651764301,19.0864054802016,0 72.9077064812755,19.0864542108253,0 72.9077060410628,19.0865029396638,0 72.907705197032,19.0865516636921,0 72.9077039492351,19.0866003798856,0 72.9077022977491,19.0866490852199,0 72.9077002426762,19.0866977766718,0 72.90769778414371,19.0867464512183,0 72.9076949223039,19.0867951058378,0 72.9076905181786,19.0868702653946,0 72.9076867704182,19.0869454571166,0 72.9076836792819,19.0870206758228,0 72.90768124498349,19.0870959163308,0 72.90767946769169,19.0871711734562,0 72.9076783475297,19.0872464420139,0 72.9076778845758,19.0873217168176,0 72.9076780788626,19.0873969926809,0 72.9076789303777,19.0874722644171,0 72.9076804390633,19.0875475268398,0 72.9076826048163,19.0876227747633,0 72.9076854274884,19.087698003003,0 72.9076889909595,19.0877921247619,0 72.9076917962319,19.0878862697024,0 72.90769384314,19.0879804323042,0 72.90769513156251,19.0880746070459,0 72.90769566142249,19.0881687884053,0 72.9076954326877,19.0882629708599,0 72.9076944453701,19.088357148887,0 72.90769269952651,19.0884513169646,0 72.9076901952578,19.0885454695705,0 72.90768693270969,19.0886396011842,0 72.90768291207201,19.0887337062858,0 72.9076781335795,19.0888277793573,0 72.9076759683967,19.0888586414835,0 72.9076728617631,19.0888894308481,0 72.90766881629651,19.0889201214995,0 72.9076638354063,19.0889506875691,0 72.9076579232902,19.0889811032936,0 72.9076510849311,19.0890113430362,0 72.9076433260922,19.0890413813086,0 72.9076346533128,19.0890711927919,0 72.90762507390281,19.0891007523589,0 72.9076145959356,19.0891300350942,0 72.90760322824271,19.0891590163162,0 72.9075909804053,19.089187671597,0 72.9075794712664,19.0892147504736,0 72.9075689066826,19.0892421751018,0 72.90755929812239,19.089269915712,0 72.9075506560164,19.0892979421914,0 72.9075429897462,19.089326224117,0 72.9075363076341,19.0893547307885,0 72.9075306169341,19.0893834312613,0 72.9075259238242,19.0894122943808,0 72.90752223339901,19.0894412888158,0 72.9075195496653,19.0894703830923,0 72.9075178755367,19.0894995456281,0 72.9075172128312,19.0895287447667,0 72.90751689202,19.0895611275989,0 72.9075162770139,19.0895935065887,0 72.90751536785849,19.0896258793204,0 72.9075141646216,19.089658243379,0 72.9075126673927,19.0896905963497,0 72.9075108762835,19.089722935819,0 72.90750879142721,19.0897552593742,0 72.9075064129793,19.0897875646037,0 72.9075037411171,19.0898198490974,0 72.9075007760398,19.0898521104468,0 72.9074975179682,19.0898843462448,0 72.9074939671456,19.0899165540866,0 72.9074888622702,19.0899649428728,0 72.90748465268671,19.0900134094767,0 72.90748133969611,19.0900619389279,0 72.9074789243226,19.0901105162368,0 72.9074774073128,19.0901591263986,0 72.9074767891363,19.0902077543986,0 72.90747706998469,19.0902563852166,0 72.9074782497722,19.0903050038315,0 72.9074803281349,19.0903535952257,0 72.90748330443181,19.0904021443905,0 72.9074871777444,19.0904506363297,0 72.9074919468771,19.0904990560651,0 72.9074641471245,19.0905599740239,0 72.90743691241291,19.0906123202302,0 72.907406959802,19.0906633069614,0 72.9073743641565,19.0907128067757,0 72.9073392069472,19.0907606959481,0 72.9073015760483,19.0908068547786,0 72.90725957580619,19.0908533715686,0 72.90724543468841,19.0908652094574,0 72.9072113205566,19.0908917889022,0 72.9071945410543,19.0909037759033,0 72.9071549770927,19.0909272484441,0 72.9071201136745,19.0909479322292,0 72.9070377801802,19.0909833483315,0 72.90698165168951,19.091003882623,0 72.9068533215886,19.0910355384133,0 72.9067214394631,19.0910480262725,0 72.9061407223613,19.0909528122059,0 72.9060775455161,19.0909463857255,0 72.9060297264911,19.09094152146,0 72.90598190747011,19.0909366571822,0 72.9058676578849,19.0909250353603,0 72.9057548742085,19.0909135625848,0 72.9056483863202,19.090902730176,0 72.9055828308731,19.0909055097242,0 72.9055109948205,19.0909085555426,0 72.9054196201156,19.090912429751,0 72.9053494013787,19.0909154069335,0 72.9053168282842,19.0909167879808,0 72.90520964602629,19.0909213322971,0 72.9050519261813,19.0909505863875,0 72.90495061795249,19.0909693770967,0 72.9048758454198,19.0909832459104,0 72.90482553454341,19.0909925775558,0 72.90473761762971,19.091008884321,0 72.9046364523264,19.091044389431,0 72.90457123099441,19.091067279558,0 72.9044822959582,19.0910984922152,0 72.9044374972333,19.0911142147627,0 72.9043926985009,19.0911299372984,0 72.90434856215271,19.0911454273503,0 72.90430442579721,19.0911609173906,0 72.9042599582386,19.0911765236557,0 72.9042154906725,19.0911921299091,0 72.9041710230991,19.0912077361509,0 72.9041489025896,19.0912154995111,0 72.9041318867542,19.0912214713449,0 72.90411663718901,19.0912268232912,0 72.9039813242302,19.0912743122902,0 72.90390927781969,19.0913043556418,0 72.9037429331529,19.0913737212091,0 72.9036356417121,19.0914184615225,0 72.9035550968712,19.0914520484988,0 72.9034956283013,19.0914757524788,0 72.9033369029661,19.0915390197531,0 72.9032412268419,19.0915771557749,0 72.90316507889349,19.0916075079143,0 72.9030885762737,19.0916380015399,0 72.90289972047201,19.091713449269,0 72.9028211940465,19.0917449406579,0 72.90278781657329,19.0917597336322,0 72.90273760122651,19.0917841554062,0 72.90268786041609,19.0918095159648,0 72.9026522309569,19.0918272113892,0 72.9025513214422,19.091875688964,0 
					</coordinates>
				</LinearRing>
			</outerBoundaryIs>
		</Polygon>
	</Placemark>
	<Placemark>
		<name>Ghatkopar (M) Station</name>
		<LookAt>
			<longitude>72.90783196094181</longitude>
			<latitude>19.08619447988044</latitude>
			<altitude>0</altitude>
			<heading>-3.593547203470988</heading>
			<tilt>22.19965010617517</tilt>
			<range>170.0740022995514</range>
			<gx:altitudeMode>relativeToSeaFloor</gx:altitudeMode>
		</LookAt>
		<styleUrl>#m_ylw-pushpin10</styleUrl>
		<Point>
			<gx:drawOrder>1</gx:drawOrder>
			<coordinates>72.90793292178086,19.08613871473498,0</coordinates>
		</Point>
	</Placemark>
	<Placemark>
		<name>Jagutri Nagar (M) Station</name>
		<LookAt>
			<longitude>72.90105290737016</longitude>
			<latitude>19.09247015729439</latitude>
			<altitude>0</altitude>
			<heading>-0.4346503197600158</heading>
			<tilt>8.776697511634081</tilt>
			<range>251.7931213516276</range>
			<gx:altitudeMode>relativeToSeaFloor</gx:altitudeMode>
		</LookAt>
		<styleUrl>#msn_rail</styleUrl>
		<Point>
			<gx:drawOrder>1</gx:drawOrder>
			<coordinates>72.9018195647473,19.09250054474287,0</coordinates>
		</Point>
	</Placemark>
	<Placemark>
		<name>Asalpha (M) Station</name>
		<LookAt>
			<longitude>72.89388650152569</longitude>
			<latitude>19.09650912869182</latitude>
			<altitude>0</altitude>
			<heading>-1.064190552155602</heading>
			<tilt>24.58201771782839</tilt>
			<range>248.0354631600137</range>
			<gx:altitudeMode>relativeToSeaFloor</gx:altitudeMode>
		</LookAt>
		<styleUrl>#msn_rail</styleUrl>
		<Point>
			<gx:drawOrder>1</gx:drawOrder>
			<coordinates>72.89483462095812,19.09636815457602,0</coordinates>
		</Point>
	</Placemark>
	<Placemark>
		<name>Versova (M) Station</name>
		<LookAt>
			<longitude>72.82161703626984</longitude>
			<latitude>19.13011601881394</latitude>
			<altitude>0</altitude>
			<heading>-0.0004049125263044244</heading>
			<tilt>10.64381667789485</tilt>
			<range>400.1423191945473</range>
			<gx:altitudeMode>relativeToSeaFloor</gx:altitudeMode>
		</LookAt>
		<styleUrl>#msn_rail</styleUrl>
		<Point>
			<gx:drawOrder>1</gx:drawOrder>
			<coordinates>72.82161158768739,19.13011060227399,0</coordinates>
		</Point>
	</Placemark>
	<Placemark>
		<name>DN Nagar (M) Station</name>
		<LookAt>
			<longitude>72.8292231001699</longitude>
			<latitude>19.12806100274974</latitude>
			<altitude>0</altitude>
			<heading>0.002053412942456246</heading>
			<tilt>15.95683740604576</tilt>
			<range>435.8627828750794</range>
			<gx:altitudeMode>relativeToSeaFloor</gx:altitudeMode>
		</LookAt>
		<styleUrl>#msn_rail</styleUrl>
		<Point>
			<gx:drawOrder>1</gx:drawOrder>
			<coordinates>72.83016927345086,19.12828788788281,0</coordinates>
		</Point>
	</Placemark>
	<Placemark>
		<name>Azad Nagar (M) Station</name>
		<LookAt>
			<longitude>72.83614251087704</longitude>
			<latitude>19.12668668698983</latitude>
			<altitude>0</altitude>
			<heading>0.004320723315521653</heading>
			<tilt>15.95683317700211</tilt>
			<range>434.1501562695883</range>
			<gx:altitudeMode>relativeToSeaFloor</gx:altitudeMode>
		</LookAt>
		<styleUrl>#msn_rail</styleUrl>
		<Point>
			<gx:drawOrder>1</gx:drawOrder>
			<coordinates>72.83752420333012,19.12686611138053,0</coordinates>
		</Point>
	</Placemark>
	<Placemark>
		<name>Andheri (M) Station</name>
		<LookAt>
			<longitude>72.84804204082549</longitude>
			<latitude>19.12076371133693</latitude>
			<altitude>0</altitude>
			<heading>0.008145658101071387</heading>
			<tilt>22.37688566801235</tilt>
			<range>366.9048050321354</range>
			<gx:altitudeMode>relativeToSeaFloor</gx:altitudeMode>
		</LookAt>
		<styleUrl>#msn_rail</styleUrl>
		<Point>
			<gx:drawOrder>1</gx:drawOrder>
			<coordinates>72.84864029023518,19.12045694959976,0</coordinates>
		</Point>
	</Placemark>
	<Placemark>
		<name>Western Express Highway (M) Station</name>
		<LookAt>
			<longitude>72.85546330146494</longitude>
			<latitude>19.11576744345642</latitude>
			<altitude>0</altitude>
			<heading>0.01054076369050817</heading>
			<tilt>24.56138626498607</tilt>
			<range>335.2071836759688</range>
			<gx:altitudeMode>relativeToSeaFloor</gx:altitudeMode>
		</LookAt>
		<styleUrl>#msn_rail</styleUrl>
		<Point>
			<gx:drawOrder>1</gx:drawOrder>
			<coordinates>72.85628305531856,19.11584021331988,0</coordinates>
		</Point>
	</Placemark>
	<Placemark>
		<name>Chakala (M) Station</name>
		<LookAt>
			<longitude>72.86662289090883</longitude>
			<latitude>19.11172383111702</latitude>
			<altitude>0</altitude>
			<heading>0.01419498896583214</heading>
			<tilt>22.75302258230411</tilt>
			<range>449.2885600094848</range>
			<gx:altitudeMode>relativeToSeaFloor</gx:altitudeMode>
		</LookAt>
		<styleUrl>#msn_rail</styleUrl>
		<Point>
			<gx:drawOrder>1</gx:drawOrder>
			<coordinates>72.86754537856037,19.11199674418717,0</coordinates>
		</Point>
	</Placemark>
	<Placemark>
		<name>Airport Road (M) Station</name>
		<LookAt>
			<longitude>72.87383191273965</longitude>
			<latitude>19.10991328719831</latitude>
			<altitude>0</altitude>
			<heading>0.01654172869103754</heading>
			<tilt>27.10331506343406</tilt>
			<range>291.141719444376</range>
			<gx:altitudeMode>relativeToSeaFloor</gx:altitudeMode>
		</LookAt>
		<styleUrl>#msn_rail</styleUrl>
		<Point>
			<gx:drawOrder>1</gx:drawOrder>
			<coordinates>72.8740121004044,19.11011148627349,0</coordinates>
		</Point>
	</Placemark>
	<Placemark>
		<name>Marol Naka (M) Station</name>
		<LookAt>
			<longitude>72.87829013472876</longitude>
			<latitude>19.10801997504991</latitude>
			<altitude>0</altitude>
			<heading>0.0002438851436004365</heading>
			<tilt>0</tilt>
			<range>455.7867179915231</range>
			<gx:altitudeMode>relativeToSeaFloor</gx:altitudeMode>
		</LookAt>
		<styleUrl>#msn_rail</styleUrl>
		<Point>
			<gx:drawOrder>1</gx:drawOrder>
			<coordinates>72.87933975109529,19.10812253919283,0</coordinates>
		</Point>
	</Placemark>
	<Placemark>
		<name>Sakinaka (M) Station</name>
		<LookAt>
			<longitude>72.88768179439855</longitude>
			<latitude>19.10348778899021</latitude>
			<altitude>0</altitude>
			<heading>-1.56322300695145</heading>
			<tilt>17.73302155399714</tilt>
			<range>127.0728965356028</range>
			<gx:altitudeMode>relativeToSeaFloor</gx:altitudeMode>
		</LookAt>
		<styleUrl>#m_ylw-pushpin1</styleUrl>
		<Point>
			<gx:drawOrder>1</gx:drawOrder>
			<coordinates>72.88781633058513,19.10358622980056,0</coordinates>
		</Point>
	</Placemark>
</Document>
</kml>
