<?xml version="1.0" encoding="UTF-8"?>
<kml xmlns="http://www.opengis.net/kml/2.2" xmlns:gx="http://www.google.com/kml/ext/2.2" xmlns:kml="http://www.opengis.net/kml/2.2" xmlns:atom="http://www.w3.org/2005/Atom">
<Document>
	<name>Monorail</name>
	<open>1</open>
	<Style id="sh_rail">
		<IconStyle>
			<scale>1.4</scale>
			<Icon>
				<href>http://maps.google.com/mapfiles/kml/shapes/rail.png</href>
			</Icon>
			<hotSpot x="0.5" y="0" xunits="fraction" yunits="fraction"/>
		</IconStyle>
		<LineStyle>
			<color>ffa7549b</color>
			<width>2.5</width>
		</LineStyle>
		<PolyStyle>
			<color>99ffaaff</color>
		</PolyStyle>
	</Style>
	<StyleMap id="msn_ylw-pushpin">
		<Pair>
			<key>normal</key>
			<styleUrl>#sn_ylw-pushpin</styleUrl>
		</Pair>
		<Pair>
			<key>highlight</key>
			<styleUrl>#sh_ylw-pushpin</styleUrl>
		</Pair>
	</StyleMap>
	<Style id="sn_ylw-pushpin">
		<IconStyle>
			<scale>1.1</scale>
			<Icon>
				<href>http://maps.google.com/mapfiles/kml/pushpin/ylw-pushpin.png</href>
			</Icon>
			<hotSpot x="20" y="2" xunits="pixels" yunits="pixels"/>
		</IconStyle>
		<LineStyle>
			<color>ffa7549b</color>
			<width>2.5</width>
		</LineStyle>
		<PolyStyle>
			<color>33ffaaff</color>
		</PolyStyle>
	</Style>
	<Style id="sh_ylw-pushpin">
		<IconStyle>
			<scale>1.3</scale>
			<Icon>
				<href>http://maps.google.com/mapfiles/kml/pushpin/ylw-pushpin.png</href>
			</Icon>
			<hotSpot x="20" y="2" xunits="pixels" yunits="pixels"/>
		</IconStyle>
		<LineStyle>
			<color>ffa7549b</color>
			<width>2.5</width>
		</LineStyle>
		<PolyStyle>
			<color>33ffaaff</color>
		</PolyStyle>
	</Style>
	<Style id="s_ylw-pushpin_hl">
		<IconStyle>
			<scale>1.18182</scale>
			<Icon>
				<href>http://maps.google.com/mapfiles/kml/shapes/rail.png</href>
			</Icon>
			<hotSpot x="0.5" y="0" xunits="fraction" yunits="fraction"/>
		</IconStyle>
	</Style>
	<StyleMap id="msn_rail">
		<Pair>
			<key>normal</key>
			<styleUrl>#sn_rail</styleUrl>
		</Pair>
		<Pair>
			<key>highlight</key>
			<styleUrl>#sh_rail</styleUrl>
		</Pair>
	</StyleMap>
	<Style id="s_ylw-pushpin">
		<IconStyle>
			<Icon>
				<href>http://maps.google.com/mapfiles/kml/shapes/rail.png</href>
			</Icon>
			<hotSpot x="0.5" y="0" xunits="fraction" yunits="fraction"/>
		</IconStyle>
	</Style>
	<Style id="sn_rail">
		<IconStyle>
			<scale>1.2</scale>
			<Icon>
				<href>http://maps.google.com/mapfiles/kml/shapes/rail.png</href>
			</Icon>
			<hotSpot x="0.5" y="0" xunits="fraction" yunits="fraction"/>
		</IconStyle>
		<LineStyle>
			<color>ffa7549b</color>
			<width>2.5</width>
		</LineStyle>
		<PolyStyle>
			<color>99ffaaff</color>
		</PolyStyle>
	</Style>
	<StyleMap id="m_ylw-pushpin">
		<Pair>
			<key>normal</key>
			<styleUrl>#s_ylw-pushpin</styleUrl>
		</Pair>
		<Pair>
			<key>highlight</key>
			<styleUrl>#s_ylw-pushpin_hl</styleUrl>
		</Pair>
	</StyleMap>
	<Placemark>
		<open>1</open>
		<styleUrl>#msn_ylw-pushpin</styleUrl>
		<Polygon>
			<outerBoundaryIs>
				<LinearRing>
					<coordinates>
						72.8979499792226,19.0615033410835,0 72.8974895720454,19.0606824713995,0 72.8974344463151,19.0607104262075,0 72.89739283632851,19.0606375214789,0 72.8971696223273,19.0602897846009,0 72.8968974665862,19.0598964825028,0 72.8966373080232,19.0595205195507,0 72.8965080895193,19.059332650281,0 72.8962827947359,19.0589863801788,0 72.8960924613412,19.0586910039442,0 72.8959153628612,19.0584124806136,0 72.8958024078013,19.0582265826503,0 72.8956832160723,19.0579867555086,0 72.89560174325931,19.0578009273408,0 72.8955744083932,19.0577275013276,0 72.89552439960509,19.0575598459646,0 72.89547672395091,19.0573699850164,0 72.89547672395091,19.0573699850164,0 72.8954562052505,19.0572619241373,0 72.895423548179,19.0570569535614,0 72.895380862469,19.0567757372279,0 72.89535770927731,19.0566306578516,0 72.8953340083381,19.0564991622183,0 72.89529351741351,19.0563073690867,0 72.8952587086302,19.0561573925921,0 72.8950709428558,19.0553584309608,0 72.89488317849499,19.0545594692466,0 72.89488317849499,19.0545594692466,0 72.8948331448436,19.0543412646197,0 72.8948096742573,19.0542289358089,0 72.8947819674019,19.0540820687431,0 72.89476752594069,19.0539985923731,0 72.89474378883701,19.0538560045365,0 72.8947320056034,19.0537848878335,0 72.89472063160891,19.0537172613364,0 72.89471110505551,19.0536626915681,0 72.89469569796989,19.0535801999166,0 72.89465498874939,19.0533973023074,0 72.8946156375341,19.0532526482666,0 72.8946156375341,19.0532526482666,0 72.89460118728439,19.0532047242506,0 72.8945742728889,19.0531199662856,0 72.89460743580941,19.0531098211781,0 72.8942551056726,19.0520624739389,0 72.8942238416673,19.0520720381518,0 72.8942103908318,19.0520201867478,0 72.8941853372114,19.0518916778943,0 72.8941724052181,19.0517615591811,0 72.894170247603,19.0516810171758,0 72.8941716792568,19.0515799259848,0 72.8941756040968,19.0514641769031,0 72.8941789526754,19.051365362511,0 72.8941799337763,19.0513152714022,0 72.8941777909145,19.0512104362425,0 72.89417273774799,19.0511499666583,0 72.8941597015574,19.0510658283885,0 72.8941391156537,19.0509811714586,0 72.8941216718093,19.0509262978834,0 72.89409673947959,19.0508597378627,0 72.8940683012285,19.0507923209693,0 72.8940384640791,19.0507257078431,0 72.8940102373674,19.0506633290653,0 72.893972122854,19.0505790948236,0 72.8939232138702,19.0504701159463,0 72.89388328903389,19.0503783516225,0 72.8938170445267,19.0502148821653,0 72.89375907263241,19.050056647349,0 72.8937051248267,19.049894798256,0 72.8936588692517,19.0497506748709,0 72.89360721350271,19.0495817054397,0 72.8935352329284,19.0492475971683,0 72.8935120786354,19.0489867760387,0 72.89351329365191,19.0487076642397,0 72.8935406868648,19.0476303974982,0 72.893532855666,19.0474342849961,0 72.893513076972,19.047290696532,0 72.8934685802101,19.0470765726664,0 72.89343604506389,19.0469182502655,0 72.89341185859389,19.0467038229511,0 72.89341197730501,19.0464877931966,0 72.893420389995,19.0461077562937,0 72.8934327922689,19.0457384198728,0 72.8934481953148,19.0454475008847,0 72.89345580060061,19.045329122805,0 72.8934823465776,19.0449328207363,0 72.89350576059191,19.0446008670752,0 72.89352325966181,19.0443536635022,0 72.893585571033,19.0443576523592,0 72.8936512631833,19.0434294402559,0 72.89358896509179,19.0434254530746,0 72.8936060338016,19.0432528222264,0 72.8936228205414,19.0429290359625,0 72.8936360386744,19.0426740799557,0 72.8936488619193,19.0424097514083,0 72.89366269969069,19.0422466627693,0 72.89370726073869,19.0420094932152,0 72.89377554864549,19.0417785504188,0 72.89384385815001,19.0415624982336,0 72.8939065847601,19.0413741645265,0 72.8939733524991,19.0412077372148,0 72.89406417152379,19.0410288176103,0 72.8941764343127,19.040837081383,0 72.89436341083319,19.040525241396,0 72.89455038661281,19.0402134011422,0 72.8946174098639,19.0401009728867,0 72.89469222381091,19.039970524788,0 72.8947624629735,19.0398370998678,0 72.8948282361163,19.039693148483,0 72.8949105878846,19.0394505333799,0 72.8949552976941,19.0392424731296,0 72.8949871654353,19.0390098521442,0 72.89500373649671,19.0388494096258,0 72.8950410024467,19.0384737784191,0 72.8950980605489,19.0379032170315,0 72.89513560322651,19.0375854160863,0 72.895187543348,19.0371790141982,0 72.8952316896964,19.0368336858737,0 72.89525815455541,19.0366356105539,0 72.89528823613961,19.0364552568491,0 72.89533740615261,19.0362467820607,0 72.8954036789068,19.0360335142993,0 72.8954904751873,19.0357813676056,0 72.895549788496,19.0357999489245,0 72.89585585248599,19.0349163413084,0 72.89579656266101,19.0348977673889,0 72.8961622293503,19.0338420725245,0 72.8965296664209,19.0327812903294,0 72.89657794003981,19.0326382682054,0 72.89660087720171,19.0325635573289,0 72.89662226710441,19.0324851960076,0 72.89664611449361,19.0323822546563,0 72.8966598599136,19.0323123139882,0 72.8966808644856,19.0321915885538,0 72.896699489787,19.0320812756828,0 72.8967250198109,19.0319506125792,0 72.8967531255979,19.0318309806825,0 72.89677896924,19.0317590471674,0 72.8968133832828,19.0316632585738,0 72.89685448328019,19.0315555195195,0 72.8968949670469,19.031449895336,0 72.89692523671749,19.0313701850502,0 72.8969589177653,19.0312775208985,0 72.89699769359321,19.0311587949995,0 72.8970419212649,19.0309832155272,0 72.8970592852787,19.0308889721162,0 72.8970652311431,19.0308429650187,0 72.89707012529711,19.0308019137302,0 72.89707488060171,19.0307539560973,0 72.8970783659053,19.030711133405,0 72.89708078429671,19.0306757077971,0 72.89708296034129,19.0306381893608,0 72.8970889489823,19.0304894092369,0 72.89710300816429,19.0301616697951,0 72.897109557851,19.0299354129116,0 72.89711512041041,19.0298077273243,0 72.89712035238141,19.0297063391984,0 72.89713135040149,19.029618167524,0 72.8971478869575,19.0295406215632,0 72.8971628879937,19.0294749623667,0 72.89718758259831,19.0293899639788,0 72.8972153514453,19.0293109849815,0 72.8972456902697,19.0292424127865,0 72.89726890918411,19.0291914427219,0 72.8972946959192,19.0291357359338,0 72.8973333087482,19.029057536836,0 72.8973783416011,19.0289674958378,0 72.89740415873111,19.0289094064885,0 72.8974283192177,19.0288527399138,0 72.89744578546021,19.0288054526631,0 72.8974607600309,19.0287575434498,0 72.8974693074935,19.0287238069697,0 72.89747481889719,19.0286931764305,0 72.8974781370045,19.0286722788048,0 72.8974821336178,19.0286435403244,0 72.89748402648431,19.0286178046729,0 72.8974847918271,19.0286009859943,0 72.897485402934,19.0285796414811,0 72.89748540200721,19.0285648204661,0 72.8974853101484,19.0285574553333,0 72.8974851036224,19.0285512341075,0 72.8974850744335,19.0285490117711,0 72.8974849848356,19.0285469707086,0 72.89748491902429,19.0285456568394,0 72.8974848386864,19.0285444580101,0 72.89748472308931,19.0285425198374,0 72.89748460066021,19.0285396619774,0 72.89748447067311,19.0285374431166,0 72.897484269771,19.0285345468245,0 72.8974841560736,19.0285322652761,0 72.8974840922218,19.0285311036185,0 72.89748402647071,19.0285300543711,0 72.8974839595423,19.02852909868,0 72.8974839316212,19.0285281996487,0 72.8974838656352,19.0285271690756,0 72.8974838045318,19.0285255196292,0 72.8974836414229,19.028522545546,0 72.8974823254982,19.0285096379118,0 72.897480442529,19.0284919817224,0 72.8974785229582,19.0284772337302,0 72.8974758559666,19.028461023015,0 72.8974738170963,19.0284495959455,0 72.8974714049976,19.0284359174738,0 72.8974624101716,19.028397551523,0 72.8974502381719,19.0283606500328,0 72.8974415842879,19.0283324125423,0 72.8974250206319,19.0282938666726,0 72.8974083979865,19.0282600082335,0 72.8973930140241,19.028234687618,0 72.8973759103277,19.0282044514699,0 72.89734263780581,19.0281583751444,0 72.8973034137357,19.0281117058845,0 72.8972597232396,19.0280684876069,0 72.89720282588721,19.0280202163495,0 72.89713678751571,19.0279771434113,0 72.89707513215519,19.0279439078244,0 72.89699132134651,19.0279120612589,0 72.896878923901,19.0278834595742,0 72.89675853813461,19.027867487109,0 72.89661609148671,19.0278593943795,0 72.8949476802367,19.027790751629,0 72.89327927196111,19.0277220939275,0 72.8932143597229,19.0277193818652,0 72.8930797298284,19.0277126847129,0 72.8930010425571,19.0277073642233,0 72.89285611375971,19.0276950950646,0 72.8927312983862,19.0276769741283,0 72.8925937044085,19.0276553665917,0 72.89242227046699,19.0276270604597,0 72.8923502225432,19.0276158124365,0 72.89228459863391,19.0276063603449,0 72.89212647714039,19.0275880752816,0 72.8920046628523,19.0275786978965,0 72.89182403882261,19.0275705051548,0 72.8918254735668,19.0275117106392,0 72.89084754865939,19.0274901229049,0 72.8908460976437,19.0275495699812,0 72.8893886969751,19.0275173881457,0 72.8892561605896,19.0275172079324,0 72.88915079962879,19.0275186058595,0 72.88899237247119,19.0275443807899,0 72.8888466946283,19.0275825618497,0 72.8887201720235,19.0276264782678,0 72.8885509201077,19.0277131249419,0 72.8885509201077,19.0277131249419,0 72.8883940451091,19.027824805758,0 72.8882364009398,19.0279754421658,0 72.8880759143601,19.0281505465829,0 72.8880122343617,19.0282104589523,0 72.8879968092527,19.0282229304668,0 72.88794700139729,19.028256763147,0 72.8878331988625,19.0282990040601,0 72.8877582550316,19.0283057134146,0 72.8876789217009,19.0282963640033,0 72.8875850359718,19.0282669409207,0 72.8874512471269,19.0282070678638,0 72.8857799428401,19.0274127605119,0 72.8838050025288,19.0265132570584,0 72.88166509641999,19.0254868658716,0 72.8795252186044,19.0244604523188,0 72.8790229217723,19.0242416820936,0 72.8787960727562,19.0241805660935,0 72.8785903532827,19.0241425881943,0 72.8784430881969,19.0241408969489,0 72.8782688861691,19.0241516162021,0 72.8781133299686,19.0241701810607,0 72.8779429000727,19.0242222216183,0 72.8777554494451,19.0242960035522,0 72.8775312695162,19.0244145627499,0 72.8773929041751,19.0245196439518,0 72.8773138739535,19.0245982870763,0 72.8771441028817,19.0247879053361,0 72.8770492864391,19.0249326548563,0 72.87697561226101,19.0250636676454,0 72.87692149010481,19.0252068724917,0 72.8768810635861,19.02535546478,0 72.8768644902774,19.0254880577233,0 72.876854387441,19.0256334411979,0 72.87688531293109,19.0260484884065,0 72.87733480819379,19.0285774577295,0 72.8772732431591,19.0285874068753,0 72.87743710930771,19.0295045649472,0 72.87749867518051,19.0294946157258,0 72.87752494056291,19.0296416219709,0 72.877584165931,19.029968535498,0 72.87769945695609,19.030472331767,0 72.8778634107059,19.0311138839425,0 72.87799366063621,19.0316052883838,0 72.8780462067418,19.0318415845769,0 72.878109995152,19.0320674566416,0 72.8781836279065,19.0322557193463,0 72.87821517494299,19.0323261197372,0 72.8782785888661,19.0324417103509,0 72.878347828936,19.0325629711069,0 72.8784740266762,19.0327898680322,0 72.8786554128249,19.0330964815738,0 72.87885849123531,19.0334432987951,0 72.8790144591712,19.0337235404665,0 72.8790963264247,19.0338873978301,0 72.8791903110872,19.0340794596324,0 72.8792033229757,19.0341064496534,0 72.8792118914542,19.0341245471235,0 72.8793038624483,19.0343276507344,0 72.879410504711,19.0345814992992,0 72.879410504711,19.0345814992992,0 72.87950871154131,19.0348318352434,0 72.8795966419916,19.0350758939981,0 72.8796362958269,19.0352051123098,0 72.8797505479787,19.0355920585242,0 72.8797750878805,19.0356890363282,0 72.8798256349348,19.035888990159,0 72.8798754413684,19.0361238192738,0 72.87990719092571,19.0362772635918,0 72.87993527790189,19.0364463095988,0 72.8799525756273,19.0366363320401,0 72.8799576428523,19.0368154410458,0 72.8799586060177,19.0369763570394,0 72.8799520123914,19.0370766392654,0 72.87992655178,19.0373335717351,0 72.87988694238339,19.037578350645,0 72.87975383052491,19.0383447874241,0 72.87962071707631,19.0391112239295,0 72.879400798753,19.0405135417597,0 72.8792158820161,19.041816311494,0 72.8792012399645,19.0418957372812,0 72.8791746871743,19.0419949618005,0 72.87913372704941,19.0420905886827,0 72.8790908023918,19.0421550366172,0 72.8790385847547,19.0422227325463,0 72.87896197561641,19.0422901483548,0 72.8788740143861,19.0423415791321,0 72.8787785052655,19.0423807273787,0 72.878716683858,19.0423958712528,0 72.8786178223705,19.0424067476577,0 72.87852385832061,19.0424034279272,0 72.8784186267075,19.0423868239864,0 72.87832650836469,19.0423639193039,0 72.8782254568623,19.0423327009056,0 72.8781104421569,19.0422932135415,0 72.8772696939476,19.0419993359904,0 72.8764289490563,19.0417054548856,0 72.87570962046161,19.0414460845942,0 72.8752133381217,19.0412616256582,0 72.8744858105062,19.040979604001,0 72.8744203608165,19.0409353144065,0 72.8743321033041,19.0408722610381,0 72.8742705245752,19.0408123346805,0 72.87422092893191,19.040746722162,0 72.8741831293562,19.0406816143208,0 72.87412251967849,19.0405455627793,0 72.87409474892689,19.0404322076375,0 72.87409474892689,19.0404322076375,0 72.874085717225,19.0403150793197,0 72.87409764319381,19.039363731835,0 72.8741600887609,19.0393645392426,0 72.87417338742939,19.0384343233156,0 72.87411094481629,19.0384335159799,0 72.8741175324781,19.0379727156131,0 72.8741241206247,19.0375119152297,0 72.8741248341219,19.0374346446178,0 72.8741242824799,19.0373860019542,0 72.8741213071683,19.0373204251133,0 72.8741176320564,19.0372788172893,0 72.8741021022834,19.0371822587915,0 72.8740756205919,19.0370898898196,0 72.87404507887329,19.0370164276154,0 72.87401286984451,19.0369560327112,0 72.8739720010495,19.0368938165742,0 72.8739290226757,19.0368398211915,0 72.87390574900181,19.036814186364,0 72.8737876430054,19.0367115095152,0 72.87362954407121,19.03662266957,0 72.8735295622474,19.0365870352522,0 72.8733764784371,19.0365568396005,0 72.8732170915209,19.0365469956792,0 72.8731234154665,19.036546350274,0 72.87221085008569,19.0365455637084,0 72.8712982851968,19.0365447726295,0 72.8712983422791,19.0364853869416,0 72.8703201132526,19.0364845339963,0 72.87032005582461,19.0365439196153,0 72.8695773029076,19.0365432684718,0 72.8690059842928,19.0365427655836,0 72.869005983739,19.0365433335939,0 72.8687936173457,19.0365425283961,0 72.8686673011117,19.0365387846055,0 72.8686154669317,19.0365338408465,0 72.8685559893806,19.0365238119454,0 72.86846067668721,19.0364948857957,0 72.8684202339289,19.0364772156292,0 72.8683501570704,19.0364375463541,0 72.86830030432721,19.0364008566235,0 72.8682540712681,19.0363586999409,0 72.8682141849271,19.0363157589577,0 72.868179787009,19.0362745988118,0 72.86811726360359,19.0361940158565,0 72.8679422909407,19.0359642489557,0 72.86784194599341,19.0358283195285,0 72.8677318713851,19.0356581125173,0 72.86762712749319,19.0354694481664,0 72.8672146814996,19.0347026705156,0 72.8668247336249,19.0339780329729,0 72.8667916457553,19.0339161783529,0 72.8667332822603,19.0338018977439,0 72.866697860225,19.0337158111741,0 72.86667188984239,19.0336085365339,0 72.86666754333871,19.0335099623711,0 72.8666925646928,19.0333643065077,0 72.86674399979481,19.0332058164872,0 72.86697106732031,19.032557233558,0 72.86719813283921,19.0319086501351,0 72.86721039870081,19.03187356261,0 72.86728000254,19.0316571036579,0 72.8673158464406,19.031502920836,0 72.8673435764667,19.031236901946,0 72.8673416443786,19.0311031591318,0 72.8673322867441,19.0309945290945,0 72.86731773998321,19.0308964114657,0 72.8672989029416,19.0308047092992,0 72.86727162276721,19.0306976638158,0 72.8672469440809,19.0306112753519,0 72.8673071528236,19.0305954320738,0 72.8670401928882,19.0297004483959,0 72.86698009672961,19.0297166618732,0 72.8669439861674,19.0296005229902,0 72.8668761125692,19.0294121865232,0 72.866787401701,19.0292078554338,0 72.8667350538021,19.0290960827438,0 72.86667858100159,19.0289718478095,0 72.8666424261819,19.028882295024,0 72.8666102288603,19.028783074411,0 72.8665919685927,19.0287006101107,0 72.8665861376342,19.0286592118778,0 72.8665812940606,19.0285910309,0 72.86658229070051,19.028522165572,0 72.86658683285209,19.0284672542673,0 72.86659489324821,19.0284071644785,0 72.8666099290415,19.028325113257,0 72.866648322594,19.028158884346,0 72.8666876331089,19.027997397719,0 72.86674386091561,19.0277655370776,0 72.8667763982447,19.0276033346864,0 72.8667900107337,19.0274642350039,0 72.8667838351422,19.0273191383165,0 72.8667670938397,19.0272235742295,0 72.866738684643,19.0271225490093,0 72.86670361553659,19.0270278383886,0 72.8666294380684,19.026861289976,0 72.8665251764631,19.0266375804717,0 72.8664164849844,19.0264043691672,0 72.8663591675471,19.0262870286193,0 72.86629702143421,19.0261821730483,0 72.8661955998425,19.0260588340788,0 72.8661398283549,19.026008159585,0 72.8660841503994,19.0259659467015,0 72.8659940271684,19.0259115054192,0 72.86592473766631,19.0258792749718,0 72.8658582481831,19.025855048018,0 72.8657675760428,19.0258314321412,0 72.86571194477099,19.0258214826157,0 72.86559987348539,19.0258090521404,0 72.865490605373,19.0258027287022,0 72.8654338142518,19.0258000233163,0 72.865323148624,19.0257939557498,0 72.8652520469995,19.0257883815186,0 72.865149601818,19.0257759334326,0 72.8650837508232,19.0257639835344,0 72.8649743534092,19.0257362791325,0 72.86483721865881,19.0256866709921,0 72.86474998764651,19.0256456384009,0 72.8646428144563,19.025586711816,0 72.8645184232266,19.0255123721727,0 72.8644311723418,19.0254591111038,0 72.8643358462904,19.0253940552996,0 72.8642445769823,19.0253092729754,0 72.8641856761258,19.0252280604455,0 72.8641398958447,19.0251312116416,0 72.8641144369236,19.0250462476754,0 72.86408775632179,19.024923326931,0 72.86407436482681,19.0248567509117,0 72.864040011743,19.024683181691,0 72.8640258621481,19.0244424018715,0 72.8640053933446,19.0243100325527,0 72.8640625297749,19.0243078018392,0 72.8640121973954,19.0233787365163,0 72.8639498368846,19.0233817924474,0 72.863939110085,19.0231979855289,0 72.8639212381277,19.0230341159503,0 72.86391068664121,19.0229702850379,0 72.863890606638,19.0228713650426,0 72.8638748591692,19.0225909558454,0 72.8638603550917,19.0223326872076,0 72.8638481408083,19.0221151920431,0 72.86383081091201,19.0220393726479,0 72.86378677809179,19.0218489436423,0 72.8637420374782,19.0216554519208,0 72.86372661243981,19.0215818807492,0 72.863721603457,19.0215342647882,0 72.86372393181981,19.0214863335536,0 72.86373146193159,19.0214479978636,0 72.8637439686883,19.0214108566995,0 72.86375972472619,19.0213781221337,0 72.8637904863941,19.0213327755688,0 72.8638313045757,19.0212910980709,0 72.86386352175219,19.0212669723706,0 72.8639184065246,19.0212378027689,0 72.8639585325825,19.0212231638131,0 72.8640261179262,19.0212033642041,0 72.86408468808359,19.0211870414312,0 72.8641802952835,19.0211603964923,0 72.8642830913718,19.0211296209254,0 72.864359397458,19.0211001941302,0 72.864415171809,19.0210724239547,0 72.8644784795497,19.0210323628542,0 72.8645272595929,19.0209938806576,0 72.8645676525615,19.020955572305,0 72.8646232275136,19.0208898329261,0 72.8646661568353,19.0208229763932,0 72.8646905562709,19.0207739373319,0 72.8647227024592,19.0206825326149,0 72.864739212422,19.0205935359325,0 72.8647426078324,19.0205402421143,0 72.8647308912775,19.0203686283351,0 72.86469334301739,19.020051913624,0 72.864664947854,19.019800395691,0 72.8646457994009,19.019654643262,0 72.86462805749071,19.0195467361135,0 72.8646022335267,19.0194444609701,0 72.864579648244,19.0193789212417,0 72.8645548555064,19.0193197826247,0 72.8644998616001,19.0192153846673,0 72.8644572228291,19.0191495231412,0 72.86441026271891,19.0190846994255,0 72.86427168320211,19.0189059584738,0 72.86406934950161,19.0186503830715,0 72.8639982322872,19.0185712126978,0 72.8639304045653,19.0185050057799,0 72.8638549082745,19.0184422384688,0 72.86379503667921,19.0184003030456,0 72.86372545574641,19.0183596473169,0 72.86366798702571,19.0183320000091,0 72.863597532535,19.0183046329269,0 72.8635307611067,19.0182846369181,0 72.8634526883925,19.0182676928438,0 72.8633589007903,19.0182550450803,0 72.863277795549,19.0182497736531,0 72.8631727426408,19.0182490919666,0 72.8630765460192,19.0182529091903,0 72.86296049216919,19.0182605698767,0 72.8617331663818,19.0183480888457,0 72.8605058401858,19.0184355995294,0 72.8603936264646,19.0184407429056,0 72.8603555082386,19.0184389666166,0 72.860336580945,19.0184367420105,0 72.860317953029,19.0184335097578,0 72.8602995518941,19.0184292653018,0 72.8602814368279,19.018424022448,0 72.86025204520151,19.0184131148037,0 72.8602266443864,19.0184010382593,0 72.8602103544852,19.0183918589628,0 72.86018954847521,19.0183782651909,0 72.8601746951565,19.0183670968417,0 72.8601493027671,19.0183446006016,0 72.8601284399292,19.0183219640533,0 72.86011078126001,19.01829896689,0 72.8600810336328,19.018252579497,0 72.8600476100268,19.0181929588161,0 72.8600156098572,19.0181344879051,0 72.85998360970829,19.0180760169905,0 72.8599708344822,19.0180527038602,0 72.85994325756271,19.0180031180655,0 72.8599085293944,19.017943705382,0 72.8598675537953,19.0178796217011,0 72.8598324647681,19.0178296217083,0 72.8597846458875,19.0177668950742,0 72.8597613048366,19.0177367923344,0 72.85980869671199,19.0176985090717,0 72.8591755189413,19.0169894424744,0 72.8591230457873,19.0170318303142,0 72.8591055166017,19.0170168791505,0 72.8590667719528,19.0169866492731,0 72.8590198894985,19.0169557459219,0 72.8589590958868,19.016923309784,0 72.85890097807921,19.0168992707645,0 72.8588529091349,19.0168839162817,0 72.85878508043651,19.0168686355615,0 72.8587096197485,19.0168597731149,0 72.85864625686411,19.0168587186745,0 72.8585893676706,19.0168626739344,0 72.8585268482834,19.0168725446631,0 72.8584062074394,19.016909069236,0 72.858285834143,19.0169710490688,0 72.85820516468441,19.0170235486726,0 72.85625693615241,19.0183330942183,0 72.8561750280433,19.0183864637758,0 72.8560931310388,19.0184293960126,0 72.8560124618177,19.0184559404649,0 72.8559104384818,19.0184699781891,0 72.8558145898763,19.0184648606204,0 72.85572827510499,19.0184445907187,0 72.855659638144,19.0184165241941,0 72.8556031205753,19.0183840129184,0 72.85553564121621,19.0183364629405,0 72.8553650399483,19.0182095592748,0 72.8551713195903,19.0180813824922,0 72.8549587554637,19.0179613283289,0 72.8546244986691,19.0177800699633,0 72.8544703552286,19.0176964981723,0 72.8542712236497,19.0175884955357,0 72.8540585887139,19.0174699251004,0 72.8538226387205,19.0173245066072,0 72.85360440210251,19.0171761366004,0 72.85332389385751,19.0169807403327,0 72.85299477679421,19.016732443692,0 72.85272083645771,19.016494402452,0 72.8527640913096,19.0164512079986,0 72.8520633740329,19.0158021594201,0 72.85201981546091,19.0158447007395,0 72.85171357600299,19.0155610396953,0 72.8513046539501,19.0151819821793,0 72.8510955198545,19.0149802893507,0 72.8508518275785,19.014720984036,0 72.85057151343661,19.0143818176459,0 72.8503591087009,19.0140879559627,0 72.8502102358817,19.0138613841672,0 72.8499506543007,19.0134578321786,0 72.8497183585212,19.0130966808865,0 72.8496507957515,19.0129913315471,0 72.8495484102743,19.0128273006383,0 72.84945236052479,19.0126623167097,0 72.8493586017066,19.0124863429242,0 72.8493125693565,19.0123934773679,0 72.8492622689235,19.0122865909144,0 72.8492124154776,19.0121762563822,0 72.849163199525,19.0120650257273,0 72.8486883877144,19.0109881593283,0 72.8482135814013,19.009911292195,0 72.84827115766269,19.0098883253768,0 72.84789290014059,19.0090304234605,0 72.84783532414851,19.0090533901868,0 72.8474071207513,19.0080329743733,0 72.8473896501206,19.0079636728423,0 72.8473762878386,19.0078770048886,0 72.8473640513525,19.0077806365924,0 72.847334578776,19.0075376360213,0 72.8473246497063,19.0074570704354,0 72.84729992318459,19.0072890814706,0 72.8472776946825,19.0071789971275,0 72.8472330598502,19.0070211845337,0 72.8471911383767,19.0069091715503,0 72.8471524362248,19.006822534248,0 72.8470817111352,19.0066900252745,0 72.8470140864671,19.0065841886823,0 72.846930604118,19.0064722597955,0 72.84683098521469,19.0063538363696,0 72.84675377578409,19.0062669594121,0 72.8466277118084,19.0061261390659,0 72.8465016480415,19.0059853186526,0 72.8464250294542,19.0059018410681,0 72.8463802583931,19.0058573470269,0 72.846326311594,19.0058097651481,0 72.8462616662042,19.0057616813959,0 72.8461773965148,19.0057113755973,0 72.84607206356751,19.0056644767775,0 72.84596378885141,19.0056296428452,0 72.8458177625967,19.0055920920738,0 72.8456781091278,19.0055571705513,0 72.8454753381648,19.0055064657608,0 72.84508768543159,19.0054095288533,0 72.8450097266206,19.0053898958024,0 72.84488251236689,19.0053556020894,0 72.8447618210721,19.0053170714296,0 72.8446655700977,19.0052797048655,0 72.844571847353,19.0052369152726,0 72.8444847184537,19.0051909583382,0 72.84441094429199,19.0051470036792,0 72.84432998563661,19.0050940204637,0 72.8442220825406,19.0050186288687,0 72.8437810741986,19.0047042123099,0 72.84362105116099,19.0045889297276,0 72.8433676548934,19.0044094512312,0 72.8431262048682,19.0042384335141,0 72.8429040952614,19.0040862112255,0 72.8426754618342,19.0039355967282,0 72.8424984415658,19.0038214202473,0 72.8424299238911,19.0037749095579,0 72.8423624318833,19.0037132716277,0 72.8423265563972,19.0036603937169,0 72.84230166593581,19.0035988758518,0 72.84229040738831,19.0035187642945,0 72.8423035993299,19.0034298980285,0 72.8423269607804,19.0033742210497,0 72.8423669527585,19.0033168765079,0 72.8424756825069,19.0032194856576,0 72.8425463008462,19.0031626901747,0 72.8426560663038,19.0030735692176,0 72.84278743152611,19.0029620876692,0 72.84292179269031,19.0028403029539,0 72.8430555906773,19.0027103724984,0 72.84319509840771,19.0025813946334,0 72.8433788018486,19.0024115563953,0 72.84352938702359,19.002281815978,0 72.8437240646782,19.0021266897022,0 72.84390199987121,19.0019950767018,0 72.8439377332097,19.0020428825379,0 72.8447348108211,19.0015038147366,0 72.8446989248815,19.0014558050808,0 72.84481906124429,19.0013745555947,0 72.8449582076049,19.0012881399626,0 72.8450822400515,19.001220357694,0 72.8451816761315,19.0011718341651,0 72.8453449789202,19.0011025017954,0 72.8455041895005,19.0010441810837,0 72.84570362774591,19.0009731520451,0 72.8459030658768,19.0009021227616,0 72.8459734081827,19.0008767074886,0 72.84611492597681,19.0008171559193,0 72.8461950447514,19.0007731941554,0 72.8462541743924,19.0007329172013,0 72.8462915093606,19.0007028236858,0 72.8463267366033,19.0006703597996,0 72.84637512121731,19.000617661876,0 72.8464274550565,19.0005457765011,0 72.84646484307299,19.0004788450989,0 72.8464839988162,19.0004358953057,0 72.8464982844677,19.000397398091,0 72.8465101374879,19.0003581597806,0 72.8465257632503,19.0002838379896,0 72.84653154117621,19.0002316996099,0 72.8465331110169,19.0001582071397,0 72.8465266157325,19.0000722850923,0 72.8464973920147,18.9999075460918,0 72.8464693154902,18.999775497967,0 72.846433615726,18.9995649984823,0 72.8464211463467,18.9994258733329,0 72.8464148913409,18.9992788608727,0 72.84640777361091,18.9990980659021,0 72.8463899323302,18.9988594131924,0 72.846373543311,18.9987323456487,0 72.84635638551519,18.9986293159975,0 72.8463327645092,18.9985129268004,0 72.8463071937185,18.9984066182551,0 72.8462846259915,18.9983240119413,0 72.8462510775362,18.9982147825212,0 72.8462136118365,18.9981067093148,0 72.8461686557398,18.9979910847885,0 72.8461310203441,18.9979032698072,0 72.8460928465144,18.9978208489306,0 72.8460592277099,18.9977526486334,0 72.84595439736449,18.9975546747422,0 72.8457954355448,18.9972641543304,0 72.845662855257,18.9970218914471,0 72.8455877615062,18.9968831430089,0 72.84554146887631,18.9967932415028,0 72.84550057338841,18.996707655232,0 72.8454734054027,18.9966454380613,0 72.8454454186159,18.9965746871635,0 72.84542280306771,18.9965110288339,0 72.8453952261326,18.9964224418473,0 72.845377975551,18.9963582063643,0 72.84536600761869,18.9963079202201,0 72.8453543755914,18.9962535803788,0 72.8453452832936,18.9962069925745,0 72.8453337827379,18.9961426118,0 72.8453209473462,18.9960642241256,0 72.84531474617459,18.9960244994303,0 72.84524196904999,18.9955485216743,0 72.84522919348559,18.99546343637,0 72.8451993693227,18.9952691373132,0 72.8451746973406,18.9951084035639,0 72.8451491322284,18.9949621139422,0 72.8451311621768,18.9948873852575,0 72.8451107166383,18.9948211940539,0 72.84508435397861,18.9947543616553,0 72.8450244625796,18.9946443256062,0 72.8449624021787,18.994561713682,0 72.844889719271,18.9944873531815,0 72.8448028143042,18.9944191504171,0 72.8447017380644,18.9943601564537,0 72.84460403932231,18.9943192516976,0 72.8445189517147,18.994294521548,0 72.8444089986258,18.9942758110121,0 72.8443299713207,18.994270272783,0 72.84428057081151,18.9942695499437,0 72.8442323600609,18.9942705054644,0 72.8440491637334,18.994283845222,0 72.8439032836353,18.9942973314867,0 72.8437574035261,18.994310817634,0 72.8437513644256,18.9942517093461,0 72.84277798397331,18.9943416967771,0 72.842784022267,18.9944008005696,0 72.83997582535051,18.9946603710286,0 72.83968774558539,18.9946887808403,0 72.8395186284116,18.9947096307254,0 72.8393360553075,18.9947370588479,0 72.8390987505489,18.9947776803302,0 72.8379016926593,18.9949878521551,0 72.836704632581,18.9951980159239,0 72.8366358785739,18.9952100093366,0 72.8364202992868,18.9952423005513,0 72.8361985347817,18.9952551965394,0 72.8360981152134,18.9952525089917,0 72.8359716732968,18.9952438882954,0 72.8358399007579,18.9952317774913,0 72.83496001948601,18.9951474033739,0 72.8340801395568,18.9950630251549,0 72.834055893062,18.9950607024182,0 72.8337288982097,18.995036344347,0 72.83344635995491,18.995036241957,0 72.8332985600568,18.9950418264907,0 72.83274965098759,18.9950645346794,0 72.832200741948,18.995087241223,0 72.83205435448789,18.9950908228161,0 72.8319476648817,18.9950839538695,0 72.83185333273011,18.9950629376162,0 72.83175353106471,18.995018599545,0 72.8317011116914,18.9949835971015,0 72.8316278400131,18.9949146431422,0 72.8315795368168,18.9948477125551,0 72.8315451469897,18.994777112419,0 72.8315251706934,18.9947107165894,0 72.8315152686305,18.9946457623625,0 72.8315122448646,18.9945966435787,0 72.8315132545838,18.9944943471822,0 72.8315348962909,18.9941500997043,0 72.8316065649045,18.9936464292898,0 72.83168357154329,18.993650115022,0 72.831732714743,18.9927210074478,0 72.8316582986688,18.9927174457481,0 72.83192326084929,18.9873091851142,0 72.83192847848861,18.9872027835757,0 72.8319347577293,18.9870296083136,0 72.831932567913,18.9869115592128,0 72.8319196698603,18.9867843084217,0 72.83190185471401,18.9866927452425,0 72.83186869693731,18.9865780345844,0 72.83183268180009,18.9864859090213,0 72.8318036941759,18.9864245619509,0 72.8317411687769,18.9863156030102,0 72.831640316473,18.9861787438707,0 72.83147615512471,18.9859967415005,0 72.8307479424055,18.9852258115851,0 72.8300197363215,18.9844548794098,0 72.8291297563556,18.9834675272822,0 72.8291817737002,18.9834252835251,0 72.8284791512552,18.9826422524959,0 72.8284270765665,18.982684540424,0 72.8273411915269,18.981474367235,0 72.82708846474181,18.981679607179,0 72.8281743334985,18.9828897808643,0 72.828122072687,18.9829322220175,0 72.8288246943801,18.9837152543356,0 72.82887701954751,18.9836727631301,0 72.8297699907265,18.9846634368268,0 72.8305007728074,18.9854370975564,0 72.831226442909,18.9862053371089,0 72.831377544083,18.9863728602591,0 72.8314584007081,18.9864825850221,0 72.8315058699166,18.9865653067866,0 72.8315250684156,18.9866059371055,0 72.8315521542157,18.9866752220564,0 72.8315776848217,18.9867635468138,0 72.8315902888405,18.9868283274127,0 72.831600548011,18.9869295452707,0 72.8316023546099,18.9870269462561,0 72.8315964431731,18.9871899689429,0 72.8315913192837,18.9872944544623,0 72.8313276305537,18.992701618959,0 72.8312761242326,18.9926991536554,0 72.8312269785296,18.9936282608586,0 72.8312737615328,18.9936305001111,0 72.83120391525691,18.9941194204577,0 72.831181031044,18.9944834206676,0 72.8311798365941,18.9946044081016,0 72.83118435101081,18.9946777437546,0 72.8311995111778,18.9947771906883,0 72.831232764573,18.9948877167409,0 72.83128975762629,18.9950047203242,0 72.83137171109919,18.9951182781847,0 72.8314872826996,18.9952270396094,0 72.831586476913,18.9952932754944,0 72.8317439646045,18.9953632413194,0 72.8318982282028,18.9953976097308,0 72.8320473911907,18.9954072132536,0 72.8322122338665,18.9954031801622,0 72.8327640893543,18.9953803518426,0 72.8333123745517,18.9953576695678,0 72.8334528940092,18.9953523601502,0 72.8337158431079,18.9953524554951,0 72.8340262683012,18.9953755793312,0 72.83404684116481,18.9953775501495,0 72.8349266872241,18.9954619252871,0 72.8358072556421,18.99554636546,0 72.8359438106004,18.9955589158256,0 72.83608155550969,18.9955683071744,0 72.83620401133921,18.995571584503,0 72.83645636562081,18.9955569097137,0 72.8366917041994,18.995521658844,0 72.8367647607579,18.9955089149108,0 72.8379620097278,18.9952987182009,0 72.8391583384569,18.9950886746211,0 72.8393914101779,18.9950487777892,0 72.83956591450971,18.9950225618787,0 72.83972624268949,18.9950027955891,0 72.84000902891791,18.9949749078658,0 72.8428161667706,18.994715435822,0 72.84282220562891,18.9947745450154,0 72.8437955886276,18.994684557602,0 72.8437895498807,18.9946254528993,0 72.84393542866231,18.9946119669023,0 72.84407792148851,18.994598793811,0 72.8442485160072,18.9945863717109,0 72.8442814767441,18.9945857184461,0 72.8443151950372,18.9945862118264,0 72.8443674194714,18.9945898717226,0 72.8444408608821,18.9946023691412,0 72.8444881463162,18.9946161123505,0 72.8445471931187,18.9946408342351,0 72.8446092340732,18.9946770449738,0 72.8446612964492,18.9947179034265,0 72.8447044608612,18.994762064192,0 72.8447402729054,18.9948097356362,0 72.844780157871,18.9948830149244,0 72.8447953046428,18.9949214139341,0 72.84480946649551,18.9949672623734,0 72.8448229498534,18.9950233335491,0 72.84484633734751,18.9951571638478,0 72.8448705350428,18.9953148097487,0 72.8449002839657,18.9955086211504,0 72.8449130463095,18.995593619535,0 72.84498595510119,18.9960704646474,0 72.8449924023103,18.9961117659866,0 72.8450057720261,18.9961934178534,0 72.84501808085391,18.9962623241511,0 72.8450281606294,18.9963139721953,0 72.84504108823001,18.9963743649605,0 72.8450548623953,18.9964322409085,0 72.84507479671009,18.9965064702762,0 72.845105949219,18.9966065439178,0 72.8451323952128,18.9966809846095,0 72.84516434939501,18.9967617655216,0 72.84519577033601,18.9968337226656,0 72.8452409137969,18.9969281994914,0 72.84529077539651,18.9970250323871,0 72.845367732394,18.9971672239849,0 72.8455006596476,18.9974101217095,0 72.8456585895598,18.9976987571901,0 72.8457603221958,18.9978908816903,0 72.84579029966371,18.9979516952773,0 72.84582503265889,18.9980266873793,0 72.8458588576957,18.9981056119737,0 72.8458998607899,18.9982110701288,0 72.8459336832824,18.9983086347244,0 72.84596423573559,18.9984081101869,0 72.8459843241356,18.9984816417699,0 72.8460075395469,18.9985781588074,0 72.846029023881,18.9986840208916,0 72.8460443971917,18.998776336119,0 72.8460590432494,18.9988898918725,0 72.84607588623111,18.9991151969193,0 72.8460828136695,18.9992911672772,0 72.8460893883869,18.9994457012162,0 72.8461035447308,18.9996036519282,0 72.84614227548261,18.9998320259694,0 72.8461705896819,18.9999651931676,0 72.8461962783136,19.0001100059288,0 72.8462005375018,19.000166349548,0 72.8461995647844,19.0002118833186,0 72.8461968732618,19.000236170434,0 72.8461869463427,19.0002833860316,0 72.8461816098645,19.0003010518331,0 72.8461740422252,19.0003214451368,0 72.8461645663764,19.0003426912024,0 72.8461431333765,19.0003810600905,0 72.84611253298171,19.0004230924829,0 72.8460855417711,19.0004524898197,0 72.8460682156704,19.0004684567805,0 72.8460496661782,19.0004834084216,0 72.8460148370788,19.0005071327237,0 72.8459642426924,19.0005348942344,0 72.84584708878541,19.0005841933332,0 72.84578579679651,19.0006063386553,0 72.8455870981323,19.0006771046036,0 72.845386206472,19.0007486512927,0 72.8452174496488,19.0008104689211,0 72.84503799652521,19.0008866581426,0 72.84492352609431,19.0009425182428,0 72.8447844478421,19.0010185228566,0 72.844631858182,19.001113287307,0 72.84450606089359,19.001197783324,0 72.8444698825691,19.0011493822998,0 72.8436728060429,19.0016884490599,0 72.843709915112,19.0017380956258,0 72.843515285938,19.0018806716301,0 72.843311046488,19.002043416982,0 72.8431513639202,19.002180995371,0 72.8429634680104,19.0023547094843,0 72.84282103220509,19.0024863942847,0 72.8426883843333,19.0026152077387,0 72.8425621162298,19.0027296568112,0 72.842437535923,19.0028353803347,0 72.84233113074809,19.0029217729414,0 72.84225431859851,19.0029835498089,0 72.8421112051886,19.0031117384736,0 72.84203103168321,19.0032266991109,0 72.8419801173803,19.00334804186,0 72.841954948764,19.0035175856388,0 72.8419774456482,19.0036776672207,0 72.842028717125,19.0038043875295,0 72.84210425002431,19.0039157179378,0 72.8422171929732,19.0040188646804,0 72.8423086295918,19.0040809331231,0 72.8424875900979,19.0041963611643,0 72.84271233063259,19.0043444113397,0 72.8429298095179,19.004493460139,0 72.843169167018,19.0046629959235,0 72.8434214773211,19.0048417054462,0 72.8435810836568,19.0049566879636,0 72.8440240419412,19.0052724950948,0 72.8441373763352,19.0053516816103,0 72.8442284601782,19.0054112912953,0 72.8443158035728,19.0054633305557,0 72.8444192244979,19.0055178809158,0 72.8445307504763,19.0055687987067,0 72.84464603696171,19.0056135552738,0 72.84478427287991,19.0056576870853,0 72.8449218796502,19.0056947823883,0 72.8450029048563,19.0057151876946,0 72.84539083877949,19.0058121950013,0 72.8455936100675,19.0058628999171,0 72.8457321448299,19.0058975417282,0 72.84586708728,19.0059322423233,0 72.84594798835791,19.0059582696843,0 72.8460180162468,19.0059894491787,0 72.84607046211031,19.0060207573938,0 72.84611058190811,19.006050598852,0 72.8461470164535,19.0060827347088,0 72.8461796743532,19.0061151905926,0 72.846249940761,19.006191747483,0 72.84637467456579,19.00633108252,0 72.8465003516738,19.006471470985,0 72.8465742843518,19.0065546610655,0 72.846665103014,19.0066626233037,0 72.8467362041709,19.0067579523473,0 72.8467911138715,19.0068438895131,0 72.84685097814641,19.0069560502978,0 72.8468813737676,19.0070240931787,0 72.8469155462128,19.007115401456,0 72.84695360536441,19.0072499657649,0 72.8469719551435,19.0073408420311,0 72.84699499774661,19.0074973927808,0 72.8470044575905,19.0075741522597,0 72.8470339963731,19.0078177027127,0 72.84704684548331,19.0079188973143,0 72.8470629854265,19.0080235825706,0 72.8470895409167,19.0081289222441,0 72.8475287897908,19.0091756645234,0 72.84747125972569,19.0091986127703,0 72.8478495152757,19.0100565153598,0 72.84790709162699,19.0100335486652,0 72.84838189614059,19.0111104164128,0 72.8488567864092,19.012187465449,0 72.8489065692052,19.012299977688,0 72.8489578994195,19.0124135810529,0 72.8490105531952,19.0125254687211,0 72.8490600003917,19.0126252237625,0 72.84915865252449,19.0128103823519,0 72.8492600732046,19.0129845924456,0 72.849366023805,19.013154335512,0 72.84943473491489,19.0132614757436,0 72.8496671435157,19.0136228034703,0 72.8499275529406,19.0140276435967,0 72.850081112856,19.0142613493982,0 72.85030365270229,19.0145692337545,0 72.8505970276309,19.0149242038105,0 72.8508531552669,19.0151967417016,0 72.8510703240203,19.0154061836491,0 72.8514816023674,19.0157874259698,0 72.85178793057921,19.0160711696797,0 72.85174436665911,19.016113716005,0 72.85244508374019,19.0167627657804,0 72.8524883190713,19.0167205402325,0 72.8527791516821,19.0169732604244,0 72.8531223542322,19.01723218394,0 72.8534095656496,19.0174322497302,0 72.8536355322541,19.0175858751965,0 72.8538840800567,19.017739058007,0 72.8541048452971,19.0178621622167,0 72.8543057122091,19.0179711061423,0 72.8544599010892,19.0180547026491,0 72.85479158044291,19.0182345635057,0 72.8549913319352,19.0183473813287,0 72.85516760245341,19.0184640123934,0 72.8553342975292,19.0185880105336,0 72.85541778027231,19.0186468375125,0 72.8555072718973,19.0186983168941,0 72.8556220877593,19.0187452665929,0 72.8557650117135,19.0187788304537,0 72.8559250630622,19.0187873759771,0 72.8560912951472,19.018764503593,0 72.8562286685503,19.0187193004775,0 72.856349578013,19.0186559170412,0 72.8564467797794,19.0185925824496,0 72.85839493235579,19.0172830874701,0 72.8584592620892,19.0172412217325,0 72.8585368811693,19.0172012559139,0 72.8586048703949,19.0171806718702,0 72.8586287792287,19.0171768970832,0 72.85865548401171,19.0171750404199,0 72.8586862820348,19.0171755529448,0 72.85872623488341,19.0171802451967,0 72.8587615078024,19.0171881916278,0 72.85878157402971,19.0171946013126,0 72.85881113948869,19.0172068303566,0 72.85884352739021,19.0172241107802,0 72.85885748224629,19.0172322317953,0 72.85885748224629,19.0172322317953,0 72.858868121828,19.0172377574624,0 72.8588270104467,19.0172709670818,0 72.85946018754621,19.0179800348137,0 72.8595070224664,19.0179422016597,0 72.85951635375049,19.0179534928408,0 72.85955959928251,19.0180102204982,0 72.8595872174928,19.0180495750767,0 72.85962118368219,19.0181026965621,0 72.85965107874,19.0181538409591,0 72.85967656219751,19.0181996626739,0 72.8596888700133,19.0182221229176,0 72.8597207895252,19.0182804467864,0 72.8597535505064,19.0183403080616,0 72.8597922731819,19.0184093813953,0 72.85983422228929,19.0184747955289,0 72.85986875289611,19.0185197653863,0 72.8599104527067,19.0185650105026,0 72.8599580060997,19.0186071402178,0 72.85999216680899,19.018632826006,0 72.8600313485866,19.0186584257587,0 72.8600674283075,19.0186787565609,0 72.86011704843899,19.0187023479379,0 72.860172489278,19.0187229228261,0 72.8602119323123,19.01873433842,0 72.8602489022195,19.0187428660074,0 72.8602863319672,19.0187493606973,0 72.86032695515139,19.018754135322,0 72.8603934930744,19.018757235965,0 72.860526266299,19.0187511502621,0 72.8617580146708,19.0186633245146,0 72.8629844236651,19.0185758711536,0 72.8630949830097,19.0185685731799,0 72.8631785396701,19.0185652575449,0 72.86326531999031,19.0185658206774,0 72.8633241953508,19.0185696472868,0 72.8633922826691,19.0185788292416,0 72.86344373853321,19.0185899966875,0 72.86348459672,19.0186022324795,0 72.86352992106541,19.0186198381145,0 72.8635631806858,19.0186358388141,0 72.863609175837,19.0186627135352,0 72.8636466269418,19.0186889451681,0 72.86370164072891,19.0187346834705,0 72.86375259340539,19.0187844186682,0 72.8638099931531,19.0188483183614,0 72.86400516392131,19.0190948465302,0 72.8641395915139,19.0192682326976,0 72.8641786796412,19.0193221900661,0 72.86420921373799,19.0193693543705,0 72.86425135810821,19.0194493596332,0 72.8642670528801,19.0194867968606,0 72.86428219551139,19.0195307391753,0 72.86430174487759,19.0196081645439,0 72.8643166257006,19.0196986715201,0 72.86433478152421,19.019836870446,0 72.8643629628389,19.0200864985774,0 72.86439972596671,19.0203965960389,0 72.86440957950561,19.0205409262313,0 72.8644085942161,19.0205563906984,0 72.86439966894341,19.0206045017374,0 72.8643816384912,19.0206557693969,0 72.8643732833844,19.0206725618017,0 72.8643507509466,19.0207076529009,0 72.8643200490334,19.0207439700083,0 72.8643033478172,19.020759809285,0 72.8642797734412,19.0207784069145,0 72.86424557220011,19.0208000494325,0 72.8642195448045,19.0208130085313,0 72.86417056509799,19.0208318971444,0 72.86408365506451,19.0208579166812,0 72.8639912244338,19.02088367635,0 72.86393046088,19.0209006104043,0 72.8638499691982,19.0209241910272,0 72.8637770964031,19.0209507767892,0 72.8636785039301,19.0210031757104,0 72.8636055592989,19.0210577999663,0 72.863527180329,19.0211378288952,0 72.8634674665052,19.0212258543849,0 72.86343348751871,19.0212964484947,0 72.86340856570391,19.0213704581057,0 72.86339297345781,19.0214498372281,0 72.86338845982751,19.0215427501837,0 72.86339749443189,19.0216286358001,0 72.8634167162014,19.0217203167137,0 72.86346215774719,19.0219168414807,0 72.86350610406311,19.0221068980154,0 72.8635176632544,19.0221574706559,0 72.8635284496888,19.0223495474852,0 72.8635429532488,19.0226078160986,0 72.8635599195252,19.022909938889,0 72.86358323760879,19.0230248117619,0 72.8635915337812,19.0230749998238,0 72.86360768197331,19.0232230667619,0 72.86361921116991,19.0233979941626,0 72.8635555423797,19.0234011140678,0 72.86360587219809,19.0243301792655,0 72.8636720200799,19.0243267461905,0 72.8636948342994,19.0244742849683,0 72.8637093558627,19.0247214028766,0 72.8637478089039,19.0249156891385,0 72.8637617472032,19.0249849842905,0 72.86379140566611,19.0251216256463,0 72.8638268489066,19.0252399110185,0 72.8638949098961,19.0253838955399,0 72.8639892711594,19.0255140012172,0 72.8641216098312,19.0256369340874,0 72.8642443868186,19.0257207240393,0 72.8643402262401,19.0257792279195,0 72.86447115394751,19.0258574740166,0 72.8645929651171,19.025924448999,0 72.86470415115809,19.025976749836,0 72.8648722350132,19.0260375537811,0 72.865009744048,19.0260723773563,0 72.8650973418992,19.0260882736468,0 72.86521731435001,19.0261028514898,0 72.8652999267803,19.0261093281621,0 72.86541593507221,19.0261156886779,0 72.8654721969216,19.0261183688616,0 72.86557050565899,19.0261240580915,0 72.86566191824269,19.026134197208,0 72.8656928415042,19.0261397277687,0 72.8657546425062,19.0261558240704,0 72.865791999198,19.0261694358401,0 72.8658314042609,19.0261877653683,0 72.8658908958304,19.0262237028336,0 72.8659209902734,19.02624651931,0 72.8659485956521,19.0262716018537,0 72.86601976582941,19.0263581522121,0 72.86606321307831,19.0264314584877,0 72.8661138017423,19.026535024255,0 72.8662213027954,19.0267656822945,0 72.8663244482193,19.0269869977698,0 72.8663935269504,19.0271420988181,0 72.86642090065161,19.0272160269612,0 72.86644185498611,19.0272905426609,0 72.8664525569726,19.0273516333229,0 72.8664569963901,19.0274559431696,0 72.8664469143424,19.0275589648441,0 72.86641854848089,19.0277003706211,0 72.8663637457159,19.0279263531979,0 72.8663240744185,19.0280893201586,0 72.86628372060289,19.0282640347917,0 72.8662661349277,19.0283599998624,0 72.8662560962301,19.0284348366887,0 72.8662500790302,19.0285075785208,0 72.866248748185,19.0285995239506,0 72.86625523836329,19.0286908860723,0 72.86626416189399,19.0287542416338,0 72.8662881167765,19.028862424077,0 72.8663281130906,19.0289856791406,0 72.8663707453768,19.0290912766354,0 72.86643067603531,19.0292231190973,0 72.86648190977451,19.0293325132951,0 72.8665649839417,19.029523862013,0 72.8666272481897,19.0296966345227,0 72.8666603010455,19.0298029398742,0 72.86660027243801,19.0298191349791,0 72.8668672300671,19.0307141190712,0 72.8669273080732,19.0306979106675,0 72.86694965614841,19.0307763497155,0 72.8669741033126,19.030872279415,0 72.866989826046,19.0309488213028,0 72.8670017919857,19.03102953243,0 72.8670094344327,19.0311182534209,0 72.8670109537407,19.0312234373175,0 72.86698702039941,19.0314530296427,0 72.8669582855395,19.0315766318552,0 72.86689370766069,19.0317774595602,0 72.8668827099167,19.0318089193646,0 72.8666556895558,19.032457370341,0 72.866427463478,19.0331092590988,0 72.8663682011631,19.0332918665176,0 72.8663340095685,19.0334909025007,0 72.86634106773001,19.0336509814815,0 72.86637941335449,19.0338093752569,0 72.86642853176269,19.0339287488437,0 72.86649398544709,19.0340569131193,0 72.8665286470637,19.0341217099386,0 72.866918776451,19.0348466873233,0 72.8673321739311,19.0356152365742,0 72.8674430151419,19.035814884061,0 72.8675640910685,19.0360021028068,0 72.8676716377756,19.0361477882525,0 72.8678489105279,19.0363805760818,0 72.86791584994501,19.0364668507855,0 72.867959333663,19.0365188830016,0 72.8680140683517,19.0365778095805,0 72.86808295037871,19.0366406183615,0 72.86816273269071,19.0366993351898,0 72.86826539942931,19.0367574530768,0 72.8683403158486,19.0367901854298,0 72.8684760892743,19.0368313909117,0 72.8685698002888,19.0368471921629,0 72.8686455125366,19.0368544133408,0 72.8687877762864,19.0368586298165,0 72.8693380828737,19.0368607159426,0 72.86933808436901,19.0368591794153,0 72.8695769957483,19.0368593895396,0 72.8703197500848,19.0368600408213,0 72.8703196926421,19.0369194264823,0 72.8712979242178,19.036920279678,0 72.87129798131269,19.0368608940176,0 72.8722105479154,19.0368616852661,0 72.87312206109679,19.0368624710953,0 72.8732051062848,19.0368630432736,0 72.87333173506531,19.0368708640421,0 72.8734369323164,19.0368916141322,0 72.8734855661689,19.0369089476383,0 72.8735888321463,19.0369669755598,0 72.8736669760373,19.0370349109699,0 72.8736704340815,19.0370387198455,0 72.87369797161961,19.0370733163906,0 72.8737231053214,19.0371115784969,0 72.87374163221131,19.0371463182499,0 72.8737597456166,19.0371898867504,0 72.87377639140669,19.0372479481898,0 72.8737873343289,19.0373159881564,0 72.8737894973369,19.0373404772325,0 72.873791949322,19.0373945221676,0 72.8737924078462,19.0374349610144,0 72.8737917297851,19.0375083781177,0 72.8737851516035,19.0379684174847,0 72.8737785623686,19.038429217742,0 72.8737161191181,19.0384284101034,0 72.87370281525151,19.039358625716,0 72.8737652557697,19.0393596981391,0 72.87375315580491,19.0403247718603,0 72.8737651188798,19.0404799199398,0 72.8738052693985,19.0406438083607,0 72.8738837788313,19.0408200405478,0 72.8739394733948,19.0409159718992,0 72.8740152460048,19.0410162154498,0 72.8741121179756,19.0411104881631,0 72.8742241318941,19.041190513803,0 72.8743245579798,19.0412584718717,0 72.875090087876,19.0415552252015,0 72.87559018587371,19.0417411024913,0 72.8763126764399,19.0420016131041,0 72.8771550090044,19.0422960494092,0 72.8779966585404,19.0425902422367,0 72.878117633938,19.0426317760829,0 72.8782330300746,19.0426674260745,0 72.8783492316412,19.0426963189315,0 72.8784903462831,19.0427185846903,0 72.87863082827261,19.0427235479141,0 72.8787775310515,19.0427074082012,0 72.87888640150869,19.0426807391314,0 72.8790276576643,19.0426228396385,0 72.87916383956581,19.0425432142972,0 72.8792877649643,19.042434160228,0 72.8793655574416,19.042333308423,0 72.8794304105875,19.0422359363865,0 72.8794911900347,19.0420940380753,0 72.87952649494351,19.0419621070468,0 72.879544439176,19.0418647675724,0 72.8797299204731,19.0405580025846,0 72.8799491124236,19.0391602992163,0 72.8800818007457,19.0383963019815,0 72.88021520903121,19.0376281498722,0 72.8802565809908,19.0373724755662,0 72.8802834486097,19.0371013390972,0 72.8802910759533,19.0369853316086,0 72.8802900278863,19.0368102893329,0 72.88028459962339,19.0366184324264,0 72.8802654399464,19.0364079603309,0 72.8802345518037,19.0362220572906,0 72.8802014437229,19.0360620488293,0 72.88015026831999,19.0358207675133,0 72.8800982872587,19.0356151426638,0 72.88007226742521,19.0355123171728,0 72.879955866708,19.0351180968979,0 72.87991358855,19.0349803276958,0 72.87982171717719,19.0347253319486,0 72.87972060505059,19.0344675914821,0 72.8796109064272,19.0342064688332,0 72.8795161092263,19.0339971248738,0 72.87950595453989,19.0339756772635,0 72.8794920775665,19.0339468929463,0 72.8793971328756,19.0337528700384,0 72.879311610233,19.0335816970565,0 72.8791506240554,19.0332924396366,0 72.87894546950071,19.0329420778952,0 72.8787658401865,19.0326384350526,0 72.8786408068484,19.0324136324118,0 72.87857201470359,19.0322931565078,0 72.8785158784183,19.0321908318949,0 72.8784924650811,19.0321385828966,0 72.87842697550241,19.0319711413334,0 72.87836955726981,19.0317678272161,0 72.8783175424399,19.0315339222118,0 72.8781860722569,19.0310379177514,0 72.87802339824449,19.0304013781463,0 72.8779105029065,19.0299080547963,0 72.8778525747541,19.0295883051854,0 72.8778263732345,19.0294416584094,0 72.8778879283236,19.029431710791,0 72.8777240596836,19.0285145528791,0 72.87766252834319,19.0285246339401,0 72.87721573283351,19.0260108824887,0 72.8771875525168,19.0256326880714,0 72.87719558047181,19.0255171595943,0 72.8772084766632,19.0254139834261,0 72.87723945219049,19.025300128548,0 72.8772801808734,19.0251923617387,0 72.877337209247,19.02509094943,0 72.8774131709138,19.0249749838946,0 72.8775607551033,19.0248101460379,0 72.87761776113641,19.0247534191653,0 72.87771702057989,19.0246780367934,0 72.8779002473848,19.0245811359408,0 72.878057446623,19.0245192611858,0 72.87818544616989,19.0244801767085,0 72.87830033697721,19.0244664650768,0 72.87845182440179,19.0244571435609,0 72.87855640534031,19.0244583446302,0 72.8787189722247,19.0244883561485,0 72.87890775337701,19.024539216232,0 72.87938113193771,19.0247453915346,0 72.88151542060029,19.025769124998,0 72.8836583661263,19.0267969748476,0 72.8856338564182,19.0276967295642,0 72.8873061728716,19.028491518577,0 72.88746180518309,19.0285611670486,0 72.88760577561121,19.0286062863298,0 72.8877533349177,19.0286236761792,0 72.8879106897156,19.0286095889986,0 72.8881064627076,19.0285369225404,0 72.88820141541009,19.0284724245779,0 72.88823708450779,19.0284435853659,0 72.88831841168771,19.0283670698331,0 72.88847974623,19.0281910400037,0 72.8886125852477,19.0280641059601,0 72.8887302793589,19.0279803183518,0 72.8888566310122,19.027915633996,0 72.888947995642,19.0278839210364,0 72.8890647295118,19.0278533259927,0 72.8891813255652,19.0278343566989,0 72.889258241411,19.0278333361902,0 72.8893846004848,19.0278335080275,0 72.8908383855571,19.0278655263766,0 72.89083693621551,19.0279249040116,0 72.89181486365641,19.0279464920466,0 72.8918163212315,19.0278867627924,0 72.8919833310533,19.0278942152516,0 72.8920929946336,19.0279026572835,0 72.8922396423969,19.0279196155585,0 72.89229841269381,19.0279280805055,0 72.8923669191696,19.0279387756556,0 72.8925381989672,19.0279670563673,0 72.89267914035651,19.0279891896023,0 72.89281625890381,19.0280090967593,0 72.8929745187817,19.0280224945121,0 72.8930592607306,19.028028224408,0 72.893198384204,19.0280351451187,0 72.89326468371419,19.0280379151542,0 72.89493331262879,19.0281065823068,0 72.8965989976242,19.0281751132064,0 72.896725613248,19.0281823065646,0 72.89681275360461,19.0281938681346,0 72.89688633140661,19.0282125914325,0 72.89693085543981,19.0282295097593,0 72.89696051476361,19.0282454977585,0 72.89699736085861,19.0282695303212,0 72.897028942132,19.0282963236561,0 72.89705326299941,19.0283203816975,0 72.8970754638211,19.0283467965507,0 72.8970917156684,19.0283693024278,0 72.89710268236379,19.0283886895635,0 72.8971133440138,19.0284062377338,0 72.89712040007611,19.0284206101858,0 72.8971273235305,19.0284367220745,0 72.89713206726481,19.0284522009044,0 72.8971410416669,19.0284794084968,0 72.89714504937341,19.0284965028542,0 72.89714605108,19.028502183372,0 72.8971477853007,19.0285119031094,0 72.8971492978756,19.0285210970715,0 72.8971501122026,19.028527353611,0 72.8971515506417,19.0285408417938,0 72.8971518833138,19.0285441049691,0 72.8971518885779,19.0285442744774,0 72.8971522198291,19.0285490046454,0 72.89715239080461,19.0285524357222,0 72.8971526104101,19.0285556017429,0 72.89715270913899,19.0285579064731,0 72.897152828712,19.0285599113768,0 72.89715297500111,19.0285643183417,0 72.8971530047554,19.0285667043871,0 72.8971530052787,19.0285753474484,0 72.8971525900792,19.0285898483771,0 72.8971521309544,19.0285999373689,0 72.8971512617297,19.0286117551409,0 72.89714900969931,19.0286279486072,0 72.8971466342088,19.028642909397,0 72.8971435504735,19.028660047584,0 72.8971396553064,19.0286754215322,0 72.8971294821322,19.0287079691028,0 72.89711732074819,19.0287408940782,0 72.8970970383162,19.0287884647753,0 72.8970750231409,19.0288379994157,0 72.8970327841636,19.0289224539068,0 72.89699210305059,19.0290048414306,0 72.8969642932727,19.0290649183526,0 72.89693998939031,19.029118269932,0 72.89690409612891,19.0291993960118,0 72.89686954089321,19.0292976760679,0 72.8968400317127,19.0293992454901,0 72.8968225779096,19.0294756397605,0 72.8968028722694,19.0295680458817,0 72.89678891510729,19.0296799393952,0 72.8967830580915,19.0297934356545,0 72.8967773472539,19.029924518928,0 72.8967707942207,19.0301508759068,0 72.89675680714529,19.030476919371,0 72.8967509093161,19.0306234361804,0 72.89674897643209,19.0306567610093,0 72.8967467964478,19.0306886934065,0 72.8967436854756,19.0307269158962,0 72.8967394863888,19.0307692631903,0 72.8967351215759,19.030805873859,0 72.8967304037961,19.0308423779023,0 72.89671627720701,19.0309190493487,0 72.89667699529041,19.031074993497,0 72.8966430365775,19.0311789695084,0 72.89661182150491,19.0312648487785,0 72.89658249603291,19.0313420723048,0 72.89654209490981,19.0314474803745,0 72.8964998438406,19.031558236313,0 72.8964644199941,19.0316568351162,0 72.8964326903032,19.0317451514775,0 72.8963993064388,19.0318872483035,0 72.8963719357228,19.0320273307276,0 72.8963527899077,19.0321407251735,0 72.89633247862371,19.0322574645874,0 72.8963203476093,19.0323191900919,0 72.89629897546141,19.0324114458839,0 72.8962803932955,19.0324795206711,0 72.8962600934468,19.0325456408982,0 72.89621355396331,19.0326835244833,0 72.89584651125379,19.0337431625949,0 72.8954808417394,19.0347988600727,0 72.8954215106769,19.034780273092,0 72.8951154447898,19.0356638798025,0 72.89517465732421,19.0356827355057,0 72.89508626350521,19.0359395217475,0 72.8950154802215,19.0361673031688,0 72.89496157787769,19.0363958406197,0 72.8949290408961,19.03659091337,0 72.8949018144958,19.0367946854523,0 72.8948575590606,19.0371408618076,0 72.89480543487311,19.0375486976691,0 72.89476740666559,19.0378706033182,0 72.8947100790357,19.0384438486456,0 72.8946728487915,19.0388191115732,0 72.8946568539463,19.038973972178,0 72.8946272126143,19.0391903382553,0 72.8945885867652,19.0393700847784,0 72.894516880834,19.0395813352282,0 72.89446117587011,19.0397032508869,0 72.894397589919,19.039824037115,0 72.8943268819299,19.0399473255785,0 72.8942614085959,19.0400571536281,0 72.8940746362852,19.0403686537077,0 72.8938868223328,19.0406818895326,0 72.8937690194221,19.0408830873012,0 72.8936678207166,19.0410824549113,0 72.8935925771751,19.041270008444,0 72.893526215911,19.0414692539448,0 72.8934563448225,19.0416902438848,0 72.8933828669684,19.0419387369758,0 72.8933326410241,19.042206054361,0 72.8933170545594,19.0423897484302,0 72.8933039913785,19.0426590118561,0 72.8932907986201,19.0429134687063,0 72.89327437543611,19.043230230554,0 72.89325717230589,19.0434042174301,0 72.8931949719407,19.0434002363702,0 72.89312927729701,19.0443284480704,0 72.8931915863526,19.0443324361202,0 72.8931740827372,19.0445796343443,0 72.8931506253065,19.0449121940939,0 72.8931240156173,19.045309435594,0 72.893116275219,19.0454299130224,0 72.8931006283848,19.0457254254085,0 72.8930880701445,19.0460993843554,0 72.8930795468453,19.0464843833455,0 72.8930794165439,19.0467206459645,0 72.8931070356456,19.0469655099333,0 72.89314238533019,19.0471375301111,0 72.8931848592555,19.0473419218115,0 72.8932012433467,19.0474608680236,0 72.8932080996841,19.047632576196,0 72.8931808735564,19.0487031881701,0 72.89317958332531,19.0489994422459,0 72.89320562305041,19.0492927728909,0 72.89328423734889,19.049657675942,0 72.89334026305519,19.0498409409901,0 72.8933876845631,19.0499886981024,0 72.8934435919203,19.0501564270425,0 72.8935048924252,19.0503237482234,0 72.8935745465338,19.0504956322687,0 72.8936167303543,19.0505925891335,0 72.8936665555683,19.0507036100293,0 72.8937048646329,19.0507882745943,0 72.89373285132611,19.0508501232135,0 72.8937610681172,19.0509131190691,0 72.8937857636251,19.05097166353,0 72.89380579134399,19.0510251303479,0 72.8938177048243,19.0510626071396,0 72.89383277291771,19.0511245732784,0 72.89384222290791,19.0511855662571,0 72.893845605235,19.0512260424247,0 72.8938474315402,19.0513153994347,0 72.8938466102374,19.051357327629,0 72.8938433342249,19.0514539949701,0 72.89383930882541,19.0515727027297,0 72.89383774778899,19.0516829143233,0 72.8938403612041,19.0517804782558,0 72.8938557627384,19.0519354480404,0 72.8938852911418,19.0520869111897,0 72.8939065693922,19.0521689369887,0 72.89385321513301,19.0521860528371,0 72.8942246739135,19.0532274061255,0 72.89425829109079,19.0532185011901,0 72.894282259832,19.0532939832598,0 72.8942948720151,19.0533358116324,0 72.8943312812544,19.0534696520232,0 72.8943693270042,19.0536405847716,0 72.89438345290139,19.0537162175729,0 72.8943925116551,19.0537681082973,0 72.8944036693366,19.0538344494483,0 72.8944153924455,19.0539052041286,0 72.8944393242267,19.0540489636489,0 72.89445431878291,19.0541356380914,0 72.8944829964405,19.0542876527447,0 72.89450767109081,19.054405745261,0 72.8945585444916,19.0546276140977,0 72.89474649507081,19.055427374974,0 72.8949341634233,19.0562259288334,0 72.89496819297681,19.0563725492122,0 72.8950071302198,19.0565569847736,0 72.89502949666959,19.0566810778769,0 72.89505199127009,19.0568220322473,0 72.8950946705771,19.0571032101052,0 72.89512820585971,19.0573136953743,0 72.8951512066392,19.057434829292,0 72.8952026561244,19.0576397205648,0 72.89525746656371,19.0578234747645,0 72.8952913826659,19.0579145795549,0 72.895379332405,19.0581151815744,0 72.8955076845881,19.0583734415589,0 72.8956291532888,19.0585733516307,0 72.8958084708284,19.0588553657022,0 72.8959996920878,19.0591521206495,0 72.8962275641789,19.0595023529624,0 72.8963593238386,19.0596939172979,0 72.8966197350085,19.0600702462869,0 72.89688878641481,19.0604590632291,0 72.8971046596852,19.0607953652199,0 72.89714111723789,19.0608591758544,0 72.8970860050708,19.0608871236132,0 72.8975464106112,19.061707994152,0 72.8979499792226,19.0615033410835,0 
					</coordinates>
				</LinearRing>
			</outerBoundaryIs>
		</Polygon>
	</Placemark>
	<Placemark>
		<name>Chembur Monorail Station</name>
		<LookAt>
			<longitude>72.89842955072636</longitude>
			<latitude>19.06059138231976</latitude>
			<altitude>0</altitude>
			<heading>0.01170730963150697</heading>
			<tilt>0</tilt>
			<range>658.7812366792925</range>
			<gx:altitudeMode>relativeToSeaFloor</gx:altitudeMode>
		</LookAt>
		<styleUrl>#msn_rail</styleUrl>
		<Point>
			<gx:drawOrder>1</gx:drawOrder>
			<coordinates>72.897511447719,19.06119794550738,0</coordinates>
		</Point>
	</Placemark>
	<Placemark>
		<name>VNP &amp; RC Marg Monorail Station</name>
		<LookAt>
			<longitude>72.89292536836069</longitude>
			<latitude>19.05256317126096</latitude>
			<altitude>0</altitude>
			<heading>0.009910374413373769</heading>
			<tilt>0</tilt>
			<range>608.5942363017737</range>
			<gx:altitudeMode>relativeToSeaFloor</gx:altitudeMode>
		</LookAt>
		<styleUrl>#msn_rail</styleUrl>
		<Point>
			<gx:drawOrder>1</gx:drawOrder>
			<coordinates>72.89425774279823,19.05255256910279,0</coordinates>
		</Point>
	</Placemark>
	<Placemark>
		<name>Furtilizer Township Monorail Station</name>
		<LookAt>
			<longitude>72.89178189509154</longitude>
			<latitude>19.04386229757541</latitude>
			<altitude>0</altitude>
			<heading>0.009537460297558002</heading>
			<tilt>0</tilt>
			<range>576.8419899980906</range>
			<gx:altitudeMode>relativeToSeaFloor</gx:altitudeMode>
		</LookAt>
		<styleUrl>#msn_rail</styleUrl>
		<Point>
			<gx:drawOrder>1</gx:drawOrder>
			<coordinates>72.89340025717939,19.04372676776277,0</coordinates>
		</Point>
	</Placemark>
	<Placemark>
		<name>Bharat Petroleum Monorail Station</name>
		<LookAt>
			<longitude>72.8943569119547</longitude>
			<latitude>19.03518383982398</latitude>
			<altitude>0</altitude>
			<heading>0.01037753145734481</heading>
			<tilt>0</tilt>
			<range>572.5443266637579</range>
			<gx:altitudeMode>relativeToSeaFloor</gx:altitudeMode>
		</LookAt>
		<styleUrl>#msn_rail</styleUrl>
		<Point>
			<gx:drawOrder>1</gx:drawOrder>
			<coordinates>72.89547388738417,19.03520537943842,0</coordinates>
		</Point>
	</Placemark>
	<Placemark>
		<name>Mysore Colony Monorail Station</name>
		<LookAt>
			<longitude>72.89025861607792</longitude>
			<latitude>19.02751993451849</latitude>
			<altitude>0</altitude>
			<heading>0.009040851867347998</heading>
			<tilt>0</tilt>
			<range>484.7342663480246</range>
			<gx:altitudeMode>relativeToSeaFloor</gx:altitudeMode>
		</LookAt>
		<styleUrl>#msn_rail</styleUrl>
		<Point>
			<gx:drawOrder>1</gx:drawOrder>
			<coordinates>72.89128663913616,19.02757004988802,0</coordinates>
		</Point>
	</Placemark>
	<Placemark>
		<name>Bhakti Park Monorail Station</name>
		<LookAt>
			<longitude>72.87618455601003</longitude>
			<latitude>19.02859449447483</latitude>
			<altitude>0</altitude>
			<heading>0.004452383121458115</heading>
			<tilt>0</tilt>
			<range>575.1259277763112</range>
			<gx:altitudeMode>relativeToSeaFloor</gx:altitudeMode>
		</LookAt>
		<styleUrl>#msn_rail</styleUrl>
		<Point>
			<gx:drawOrder>1</gx:drawOrder>
			<coordinates>72.87756519573669,19.02885812273533,0</coordinates>
		</Point>
	</Placemark>
	<Placemark>
		<name>Wadala Depot Monorail Station</name>
		<LookAt>
			<longitude>72.87248310873575</longitude>
			<latitude>19.03774043071895</latitude>
			<altitude>0</altitude>
			<heading>0.003244594554124845</heading>
			<tilt>0</tilt>
			<range>667.5885665543582</range>
			<gx:altitudeMode>relativeToSeaFloor</gx:altitudeMode>
		</LookAt>
		<styleUrl>#msn_rail</styleUrl>
		<Point>
			<gx:drawOrder>1</gx:drawOrder>
			<coordinates>72.8739173336548,19.03861666897928,0</coordinates>
		</Point>
	</Placemark>
	<Placemark>
		<name>GTB Nagar Monorail Station</name>
		<LookAt>
			<longitude>72.86868807211313</longitude>
			<latitude>19.03756069892798</latitude>
			<altitude>0</altitude>
			<heading>0.002006791687200252</heading>
			<tilt>0</tilt>
			<range>893.0867531680465</range>
			<gx:altitudeMode>relativeToSeaFloor</gx:altitudeMode>
		</LookAt>
		<styleUrl>#msn_rail</styleUrl>
		<Point>
			<gx:drawOrder>1</gx:drawOrder>
			<coordinates>72.87074455243493,19.0364122527996,0</coordinates>
		</Point>
	</Placemark>
	<Placemark>
		<name>Antop Hill Monorail Station</name>
		<LookAt>
			<longitude>72.86562460739899</longitude>
			<latitude>19.0297532890278</latitude>
			<altitude>0</altitude>
			<heading>0.001007970557744377</heading>
			<tilt>0</tilt>
			<range>652.3558491273194</range>
			<gx:altitudeMode>relativeToSeaFloor</gx:altitudeMode>
		</LookAt>
		<styleUrl>#msn_rail</styleUrl>
		<Point>
			<gx:drawOrder>1</gx:drawOrder>
			<coordinates>72.86692252010468,19.03001815367617,0</coordinates>
		</Point>
	</Placemark>
	<Placemark>
		<name>Acharya Atre Nagar Monorail Station</name>
		<LookAt>
			<longitude>72.86251611077242</longitude>
			<latitude>19.0231007514566</latitude>
			<altitude>0</altitude>
			<heading>-4.948789736298688e-006</heading>
			<tilt>0</tilt>
			<range>561.9568482224868</range>
			<gx:altitudeMode>relativeToSeaFloor</gx:altitudeMode>
		</LookAt>
		<styleUrl>#msn_rail</styleUrl>
		<Point>
			<gx:drawOrder>1</gx:drawOrder>
			<coordinates>72.86379754242599,19.02335204543237,0</coordinates>
		</Point>
	</Placemark>
	<Placemark>
		<name>Wadala Bridge Monorail Station</name>
		<LookAt>
			<longitude>72.85817285095125</longitude>
			<latitude>19.01783675847077</latitude>
			<altitude>0</altitude>
			<heading>-0.001420100597531938</heading>
			<tilt>0</tilt>
			<range>557.8259023664839</range>
			<gx:altitudeMode>relativeToSeaFloor</gx:altitudeMode>
		</LookAt>
		<styleUrl>#msn_rail</styleUrl>
		<Point>
			<gx:drawOrder>1</gx:drawOrder>
			<coordinates>72.85925056229618,19.01724752403317,0</coordinates>
		</Point>
	</Placemark>
	<Placemark>
		<name>Dadar East Monorail Station</name>
		<LookAt>
			<longitude>72.85071565004341</longitude>
			<latitude>19.01628187163498</latitude>
			<altitude>0</altitude>
			<heading>-0.003849951781594776</heading>
			<tilt>0</tilt>
			<range>454.315859248677</range>
			<gx:altitudeMode>relativeToSeaFloor</gx:altitudeMode>
		</LookAt>
		<styleUrl>#msn_rail</styleUrl>
		<Point>
			<gx:drawOrder>1</gx:drawOrder>
			<coordinates>72.8522086452539,19.01613608749549,0</coordinates>
		</Point>
	</Placemark>
	<Placemark>
		<name>Ambedkar Nagar Monorail Station</name>
		<LookAt>
			<longitude>72.84309339832916</longitude>
			<latitude>19.00202257241376</latitude>
			<altitude>0</altitude>
			<heading>-0.006332230141327659</heading>
			<tilt>0</tilt>
			<range>527.9304097811624</range>
			<gx:altitudeMode>relativeToSeaFloor</gx:altitudeMode>
		</LookAt>
		<styleUrl>#msn_rail</styleUrl>
		<Point>
			<gx:drawOrder>1</gx:drawOrder>
			<coordinates>72.84418375356718,19.00140982343412,0</coordinates>
		</Point>
	</Placemark>
	<Placemark>
		<name>Mint Colony Monorail Station</name>
		<LookAt>
			<longitude>72.8425337403032</longitude>
			<latitude>18.99466435782455</latitude>
			<altitude>0</altitude>
			<heading>-0.006511867121560712</heading>
			<tilt>0</tilt>
			<range>465.7111985503696</range>
			<gx:altitudeMode>relativeToSeaFloor</gx:altitudeMode>
		</LookAt>
		<styleUrl>#msn_rail</styleUrl>
		<Point>
			<gx:drawOrder>1</gx:drawOrder>
			<coordinates>72.84323976056945,18.99434434809487,0</coordinates>
		</Point>
	</Placemark>
	<Placemark>
		<name>Lower Parel Monorail Station</name>
		<LookAt>
			<longitude>72.83126599745414</longitude>
			<latitude>18.99284470968538</latitude>
			<altitude>0</altitude>
			<heading>-0.01017896347929284</heading>
			<tilt>0</tilt>
			<range>382.4222129121842</range>
			<gx:altitudeMode>relativeToSeaFloor</gx:altitudeMode>
		</LookAt>
		<styleUrl>#msn_rail</styleUrl>
		<Point>
			<gx:drawOrder>1</gx:drawOrder>
			<coordinates>72.83145360986458,18.99305037876651,0</coordinates>
		</Point>
	</Placemark>
	<Placemark>
		<name>Gadge Maharaj Chowk Monorail Station</name>
		<LookAt>
			<longitude>72.827060627097</longitude>
			<latitude>18.98265428205807</latitude>
			<altitude>0</altitude>
			<heading>-0.01154598810701112</heading>
			<tilt>0</tilt>
			<range>640.5820664039507</range>
			<gx:altitudeMode>relativeToSeaFloor</gx:altitudeMode>
		</LookAt>
		<styleUrl>#msn_rail</styleUrl>
		<Point>
			<gx:drawOrder>1</gx:drawOrder>
			<coordinates>72.82864084331588,18.98296415722561,0</coordinates>
		</Point>
	</Placemark>
	<Placemark>
		<name>Naigaon Monorail Stataion</name>
		<LookAt>
			<longitude>72.84840448871107</longitude>
			<latitude>19.01087408812978</latitude>
			<altitude>0</altitude>
			<heading>-0.004112749921769762</heading>
			<tilt>25.18563884519456</tilt>
			<range>1260.938692949051</range>
			<gx:altitudeMode>relativeToSeaFloor</gx:altitudeMode>
		</LookAt>
		<styleUrl>#m_ylw-pushpin</styleUrl>
		<Point>
			<gx:drawOrder>1</gx:drawOrder>
			<coordinates>72.8478570376012,19.00927338564798,0</coordinates>
		</Point>
	</Placemark>
</Document>
</kml>
